<?xml version='1.0' encoding='UTF-8'?>
<gpx xmlns="http://www.topografix.com/GPX/1/1" xmlns:xsi="http://www.w3.org/2001/XMLSchema-instance" creator="RouteYou" version="1.1" xsi:schemaLocation="http://www.topografix.com/GPX/1/1 http://www.topografix.com/GPX/1/1/gpx.xsd">
  <trk>
    <name>Begijnendijk 2025</name>
    <desc />
    <trkseg>
      <trkpt lat="50.87768" lon="4.5693">
        <ele>52</ele>
      </trkpt>
      <trkpt lat="50.87768" lon="4.5693">
        <ele>52</ele>
      </trkpt>
      <trkpt lat="50.87798" lon="4.56991">
        <ele>51</ele>
      </trkpt>
      <trkpt lat="50.8781" lon="4.57023">
        <ele>52</ele>
      </trkpt>
      <trkpt lat="50.87821" lon="4.57058">
        <ele>52</ele>
      </trkpt>
      <trkpt lat="50.87829" lon="4.57074">
        <ele>51</ele>
      </trkpt>
      <trkpt lat="50.87866" lon="4.57102">
        <ele>49</ele>
      </trkpt>
      <trkpt lat="50.87882" lon="4.57121">
        <ele>48</ele>
      </trkpt>
      <trkpt lat="50.87931" lon="4.57211">
        <ele>47</ele>
      </trkpt>
      <trkpt lat="50.87981" lon="4.57366">
        <ele>44</ele>
      </trkpt>
      <trkpt lat="50.8799" lon="4.57392">
        <ele>44</ele>
      </trkpt>
      <trkpt lat="50.88015" lon="4.57443">
        <ele>42</ele>
      </trkpt>
      <trkpt lat="50.88125" lon="4.57644">
        <ele>40</ele>
      </trkpt>
      <trkpt lat="50.88194" lon="4.57805">
        <ele>37</ele>
      </trkpt>
      <trkpt lat="50.8826" lon="4.58019">
        <ele>37</ele>
      </trkpt>
      <trkpt lat="50.88302" lon="4.58173">
        <ele>39</ele>
      </trkpt>
      <trkpt lat="50.88308" lon="4.58191">
        <ele>40</ele>
      </trkpt>
      <trkpt lat="50.88201" lon="4.58382">
        <ele>38</ele>
      </trkpt>
      <trkpt lat="50.88176" lon="4.5842">
        <ele>39</ele>
      </trkpt>
      <trkpt lat="50.88147" lon="4.58463">
        <ele>40</ele>
      </trkpt>
      <trkpt lat="50.88022" lon="4.58613">
        <ele>43</ele>
      </trkpt>
      <trkpt lat="50.88041" lon="4.58648">
        <ele>43</ele>
      </trkpt>
      <trkpt lat="50.88067" lon="4.58698">
        <ele>44</ele>
      </trkpt>
      <trkpt lat="50.88084" lon="4.58736">
        <ele>44</ele>
      </trkpt>
      <trkpt lat="50.88142" lon="4.58848">
        <ele>44</ele>
      </trkpt>
      <trkpt lat="50.88237" lon="4.59015">
        <ele>40</ele>
      </trkpt>
      <trkpt lat="50.88254" lon="4.59057">
        <ele>40</ele>
      </trkpt>
      <trkpt lat="50.88264" lon="4.59101">
        <ele>39</ele>
      </trkpt>
      <trkpt lat="50.88271" lon="4.59193">
        <ele>38</ele>
      </trkpt>
      <trkpt lat="50.88276" lon="4.59233">
        <ele>38</ele>
      </trkpt>
      <trkpt lat="50.8829" lon="4.5928">
        <ele>37</ele>
      </trkpt>
      <trkpt lat="50.88298" lon="4.59299">
        <ele>37</ele>
      </trkpt>
      <trkpt lat="50.88416" lon="4.59508">
        <ele>38</ele>
      </trkpt>
      <trkpt lat="50.88511" lon="4.59672">
        <ele>39</ele>
      </trkpt>
      <trkpt lat="50.88528" lon="4.59687">
        <ele>39</ele>
      </trkpt>
      <trkpt lat="50.88548" lon="4.59699">
        <ele>39</ele>
      </trkpt>
      <trkpt lat="50.88556" lon="4.59707">
        <ele>39</ele>
      </trkpt>
      <trkpt lat="50.88564" lon="4.59719">
        <ele>39</ele>
      </trkpt>
      <trkpt lat="50.88586" lon="4.59767">
        <ele>39</ele>
      </trkpt>
      <trkpt lat="50.88606" lon="4.59804">
        <ele>39</ele>
      </trkpt>
      <trkpt lat="50.88998" lon="4.60338">
        <ele>36</ele>
      </trkpt>
      <trkpt lat="50.89044" lon="4.60396">
        <ele>35</ele>
      </trkpt>
      <trkpt lat="50.89211" lon="4.60592">
        <ele>37</ele>
      </trkpt>
      <trkpt lat="50.89215" lon="4.60579">
        <ele>37</ele>
      </trkpt>
      <trkpt lat="50.89211" lon="4.60592">
        <ele>37</ele>
      </trkpt>
      <trkpt lat="50.89556" lon="4.60997">
        <ele>34</ele>
      </trkpt>
      <trkpt lat="50.89589" lon="4.61033">
        <ele>34</ele>
      </trkpt>
      <trkpt lat="50.89602" lon="4.61049">
        <ele>33</ele>
      </trkpt>
      <trkpt lat="50.89649" lon="4.61116">
        <ele>33</ele>
      </trkpt>
      <trkpt lat="50.89679" lon="4.61181">
        <ele>34</ele>
      </trkpt>
      <trkpt lat="50.89744" lon="4.61323">
        <ele>32</ele>
      </trkpt>
      <trkpt lat="50.89807" lon="4.615">
        <ele>31</ele>
      </trkpt>
      <trkpt lat="50.8985" lon="4.61613">
        <ele>31</ele>
      </trkpt>
      <trkpt lat="50.89861" lon="4.6163">
        <ele>31</ele>
      </trkpt>
      <trkpt lat="50.89885" lon="4.61652">
        <ele>31</ele>
      </trkpt>
      <trkpt lat="50.89987" lon="4.61695">
        <ele>31</ele>
      </trkpt>
      <trkpt lat="50.90001" lon="4.61706">
        <ele>31</ele>
      </trkpt>
      <trkpt lat="50.90013" lon="4.61722">
        <ele>31</ele>
      </trkpt>
      <trkpt lat="50.90022" lon="4.61739">
        <ele>30</ele>
      </trkpt>
      <trkpt lat="50.90032" lon="4.61771">
        <ele>30</ele>
      </trkpt>
      <trkpt lat="50.90038" lon="4.618">
        <ele>30</ele>
      </trkpt>
      <trkpt lat="50.90061" lon="4.61899">
        <ele>30</ele>
      </trkpt>
      <trkpt lat="50.90075" lon="4.61968">
        <ele>30</ele>
      </trkpt>
      <trkpt lat="50.90083" lon="4.6201">
        <ele>30</ele>
      </trkpt>
      <trkpt lat="50.90114" lon="4.62219">
        <ele>30</ele>
      </trkpt>
      <trkpt lat="50.90119" lon="4.62249">
        <ele>30</ele>
      </trkpt>
      <trkpt lat="50.90126" lon="4.62264">
        <ele>30</ele>
      </trkpt>
      <trkpt lat="50.90333" lon="4.62151">
        <ele>28</ele>
      </trkpt>
      <trkpt lat="50.90356" lon="4.62133">
        <ele>28</ele>
      </trkpt>
      <trkpt lat="50.90414" lon="4.62487">
        <ele>27</ele>
      </trkpt>
      <trkpt lat="50.90436" lon="4.62593">
        <ele>26</ele>
      </trkpt>
      <trkpt lat="50.90456" lon="4.62695">
        <ele>26</ele>
      </trkpt>
      <trkpt lat="50.90476" lon="4.62712">
        <ele>26</ele>
      </trkpt>
      <trkpt lat="50.90479" lon="4.62717">
        <ele>26</ele>
      </trkpt>
      <trkpt lat="50.90573" lon="4.62692">
        <ele>26</ele>
      </trkpt>
      <trkpt lat="50.90605" lon="4.62688">
        <ele>26</ele>
      </trkpt>
      <trkpt lat="50.90628" lon="4.62693">
        <ele>26</ele>
      </trkpt>
      <trkpt lat="50.90633" lon="4.62693">
        <ele>26</ele>
      </trkpt>
      <trkpt lat="50.90649" lon="4.62705">
        <ele>26</ele>
      </trkpt>
      <trkpt lat="50.90699" lon="4.62759">
        <ele>26</ele>
      </trkpt>
      <trkpt lat="50.90729" lon="4.62781">
        <ele>26</ele>
      </trkpt>
      <trkpt lat="50.90742" lon="4.62789">
        <ele>26</ele>
      </trkpt>
      <trkpt lat="50.90856" lon="4.62813">
        <ele>25</ele>
      </trkpt>
      <trkpt lat="50.90889" lon="4.62813">
        <ele>25</ele>
      </trkpt>
      <trkpt lat="50.91081" lon="4.62757">
        <ele>23</ele>
      </trkpt>
      <trkpt lat="50.91109" lon="4.62749">
        <ele>23</ele>
      </trkpt>
      <trkpt lat="50.91119" lon="4.62748">
        <ele>23</ele>
      </trkpt>
      <trkpt lat="50.91183" lon="4.62754">
        <ele>23</ele>
      </trkpt>
      <trkpt lat="50.912" lon="4.62746">
        <ele>23</ele>
      </trkpt>
      <trkpt lat="50.91212" lon="4.62735">
        <ele>24</ele>
      </trkpt>
      <trkpt lat="50.91239" lon="4.62717">
        <ele>24</ele>
      </trkpt>
      <trkpt lat="50.91278" lon="4.62693">
        <ele>23</ele>
      </trkpt>
      <trkpt lat="50.91292" lon="4.62688">
        <ele>22</ele>
      </trkpt>
      <trkpt lat="50.91306" lon="4.62689">
        <ele>22</ele>
      </trkpt>
      <trkpt lat="50.91383" lon="4.62706">
        <ele>22</ele>
      </trkpt>
      <trkpt lat="50.91391" lon="4.62711">
        <ele>22</ele>
      </trkpt>
      <trkpt lat="50.91396" lon="4.62717">
        <ele>22</ele>
      </trkpt>
      <trkpt lat="50.91399" lon="4.62725">
        <ele>23</ele>
      </trkpt>
      <trkpt lat="50.91408" lon="4.62762">
        <ele>25</ele>
      </trkpt>
      <trkpt lat="50.91413" lon="4.62772">
        <ele>25</ele>
      </trkpt>
      <trkpt lat="50.91421" lon="4.62775">
        <ele>25</ele>
      </trkpt>
      <trkpt lat="50.91472" lon="4.62762">
        <ele>26</ele>
      </trkpt>
      <trkpt lat="50.91525" lon="4.62756">
        <ele>24</ele>
      </trkpt>
      <trkpt lat="50.91575" lon="4.62748">
        <ele>23</ele>
      </trkpt>
      <trkpt lat="50.91772" lon="4.62667">
        <ele>19</ele>
      </trkpt>
      <trkpt lat="50.91916" lon="4.62608">
        <ele>19</ele>
      </trkpt>
      <trkpt lat="50.92065" lon="4.62935">
        <ele>19</ele>
      </trkpt>
      <trkpt lat="50.92094" lon="4.62999">
        <ele>20</ele>
      </trkpt>
      <trkpt lat="50.92135" lon="4.63077">
        <ele>20</ele>
      </trkpt>
      <trkpt lat="50.92182" lon="4.63201">
        <ele>20</ele>
      </trkpt>
      <trkpt lat="50.92226" lon="4.63297">
        <ele>20</ele>
      </trkpt>
      <trkpt lat="50.92254" lon="4.63258">
        <ele>20</ele>
      </trkpt>
      <trkpt lat="50.92301" lon="4.6321">
        <ele>20</ele>
      </trkpt>
      <trkpt lat="50.92459" lon="4.63054">
        <ele>18</ele>
      </trkpt>
      <trkpt lat="50.92525" lon="4.62997">
        <ele>18</ele>
      </trkpt>
      <trkpt lat="50.92566" lon="4.62977">
        <ele>17</ele>
      </trkpt>
      <trkpt lat="50.92602" lon="4.62975">
        <ele>18</ele>
      </trkpt>
      <trkpt lat="50.92633" lon="4.62979">
        <ele>18</ele>
      </trkpt>
      <trkpt lat="50.92662" lon="4.62994">
        <ele>18</ele>
      </trkpt>
      <trkpt lat="50.92756" lon="4.63051">
        <ele>18</ele>
      </trkpt>
      <trkpt lat="50.92815" lon="4.63084">
        <ele>17</ele>
      </trkpt>
      <trkpt lat="50.92834" lon="4.63089">
        <ele>17</ele>
      </trkpt>
      <trkpt lat="50.92858" lon="4.6309">
        <ele>17</ele>
      </trkpt>
      <trkpt lat="50.92995" lon="4.63068">
        <ele>18</ele>
      </trkpt>
      <trkpt lat="50.93143" lon="4.63045">
        <ele>17</ele>
      </trkpt>
      <trkpt lat="50.93151" lon="4.63048">
        <ele>18</ele>
      </trkpt>
      <trkpt lat="50.93168" lon="4.63064">
        <ele>18</ele>
      </trkpt>
      <trkpt lat="50.93212" lon="4.63117">
        <ele>17</ele>
      </trkpt>
      <trkpt lat="50.93302" lon="4.63265">
        <ele>17</ele>
      </trkpt>
      <trkpt lat="50.93316" lon="4.63289">
        <ele>17</ele>
      </trkpt>
      <trkpt lat="50.93329" lon="4.63327">
        <ele>17</ele>
      </trkpt>
      <trkpt lat="50.93366" lon="4.63483">
        <ele>17</ele>
      </trkpt>
      <trkpt lat="50.93434" lon="4.63744">
        <ele>16</ele>
      </trkpt>
      <trkpt lat="50.93438" lon="4.63769">
        <ele>16</ele>
      </trkpt>
      <trkpt lat="50.93438" lon="4.63789">
        <ele>16</ele>
      </trkpt>
      <trkpt lat="50.93434" lon="4.63844">
        <ele>15</ele>
      </trkpt>
      <trkpt lat="50.93434" lon="4.63874">
        <ele>15</ele>
      </trkpt>
      <trkpt lat="50.93438" lon="4.63995">
        <ele>16</ele>
      </trkpt>
      <trkpt lat="50.9344" lon="4.64009">
        <ele>16</ele>
      </trkpt>
      <trkpt lat="50.93443" lon="4.64018">
        <ele>16</ele>
      </trkpt>
      <trkpt lat="50.93448" lon="4.64023">
        <ele>16</ele>
      </trkpt>
      <trkpt lat="50.93455" lon="4.64024">
        <ele>16</ele>
      </trkpt>
      <trkpt lat="50.93651" lon="4.63953">
        <ele>16</ele>
      </trkpt>
      <trkpt lat="50.93679" lon="4.63937">
        <ele>16</ele>
      </trkpt>
      <trkpt lat="50.937" lon="4.63922">
        <ele>16</ele>
      </trkpt>
      <trkpt lat="50.93763" lon="4.63861">
        <ele>15</ele>
      </trkpt>
      <trkpt lat="50.93806" lon="4.63817">
        <ele>15</ele>
      </trkpt>
      <trkpt lat="50.93824" lon="4.63802">
        <ele>15</ele>
      </trkpt>
      <trkpt lat="50.9383" lon="4.63799">
        <ele>15</ele>
      </trkpt>
      <trkpt lat="50.93847" lon="4.63806">
        <ele>15</ele>
      </trkpt>
      <trkpt lat="50.94145" lon="4.64211">
        <ele>14</ele>
      </trkpt>
      <trkpt lat="50.94264" lon="4.64366">
        <ele>14</ele>
      </trkpt>
      <trkpt lat="50.94323" lon="4.64458">
        <ele>14</ele>
      </trkpt>
      <trkpt lat="50.94328" lon="4.64463">
        <ele>14</ele>
      </trkpt>
      <trkpt lat="50.94476" lon="4.64505">
        <ele>15</ele>
      </trkpt>
      <trkpt lat="50.94502" lon="4.64502">
        <ele>15</ele>
      </trkpt>
      <trkpt lat="50.94514" lon="4.64496">
        <ele>15</ele>
      </trkpt>
      <trkpt lat="50.94591" lon="4.64425">
        <ele>15</ele>
      </trkpt>
      <trkpt lat="50.94662" lon="4.64362">
        <ele>15</ele>
      </trkpt>
      <trkpt lat="50.94674" lon="4.64353">
        <ele>15</ele>
      </trkpt>
      <trkpt lat="50.94687" lon="4.64348">
        <ele>14</ele>
      </trkpt>
      <trkpt lat="50.94687" lon="4.64371">
        <ele>14</ele>
      </trkpt>
      <trkpt lat="50.94687" lon="4.64348">
        <ele>14</ele>
      </trkpt>
      <trkpt lat="50.9472" lon="4.64362">
        <ele>13</ele>
      </trkpt>
      <trkpt lat="50.94719" lon="4.64368">
        <ele>13</ele>
      </trkpt>
      <trkpt lat="50.94723" lon="4.64378">
        <ele>13</ele>
      </trkpt>
      <trkpt lat="50.9466" lon="4.64726">
        <ele>14</ele>
      </trkpt>
      <trkpt lat="50.94664" lon="4.64731">
        <ele>14</ele>
      </trkpt>
      <trkpt lat="50.94819" lon="4.65539">
        <ele>11</ele>
      </trkpt>
      <trkpt lat="50.94834" lon="4.65624">
        <ele>11</ele>
      </trkpt>
      <trkpt lat="50.94836" lon="4.65651">
        <ele>11</ele>
      </trkpt>
      <trkpt lat="50.94843" lon="4.6579">
        <ele>11</ele>
      </trkpt>
      <trkpt lat="50.94845" lon="4.65918">
        <ele>12</ele>
      </trkpt>
      <trkpt lat="50.94851" lon="4.66072">
        <ele>12</ele>
      </trkpt>
      <trkpt lat="50.94856" lon="4.66106">
        <ele>12</ele>
      </trkpt>
      <trkpt lat="50.94874" lon="4.66185">
        <ele>12</ele>
      </trkpt>
      <trkpt lat="50.94902" lon="4.66281">
        <ele>12</ele>
      </trkpt>
      <trkpt lat="50.94923" lon="4.66372">
        <ele>12</ele>
      </trkpt>
      <trkpt lat="50.94935" lon="4.66465">
        <ele>11</ele>
      </trkpt>
      <trkpt lat="50.9494" lon="4.66486">
        <ele>11</ele>
      </trkpt>
      <trkpt lat="50.94948" lon="4.66498">
        <ele>11</ele>
      </trkpt>
      <trkpt lat="50.9496" lon="4.66513">
        <ele>11</ele>
      </trkpt>
      <trkpt lat="50.94979" lon="4.66529">
        <ele>11</ele>
      </trkpt>
      <trkpt lat="50.95002" lon="4.66541">
        <ele>11</ele>
      </trkpt>
      <trkpt lat="50.95013" lon="4.66539">
        <ele>11</ele>
      </trkpt>
      <trkpt lat="50.95031" lon="4.66481">
        <ele>10</ele>
      </trkpt>
      <trkpt lat="50.95036" lon="4.66469">
        <ele>10</ele>
      </trkpt>
      <trkpt lat="50.95079" lon="4.66413">
        <ele>10</ele>
      </trkpt>
      <trkpt lat="50.95106" lon="4.66366">
        <ele>11</ele>
      </trkpt>
      <trkpt lat="50.95124" lon="4.66317">
        <ele>11</ele>
      </trkpt>
      <trkpt lat="50.9514" lon="4.66261">
        <ele>11</ele>
      </trkpt>
      <trkpt lat="50.95183" lon="4.66142">
        <ele>11</ele>
      </trkpt>
      <trkpt lat="50.9522" lon="4.66081">
        <ele>11</ele>
      </trkpt>
      <trkpt lat="50.9528" lon="4.65975">
        <ele>10</ele>
      </trkpt>
      <trkpt lat="50.95405" lon="4.65746">
        <ele>9</ele>
      </trkpt>
      <trkpt lat="50.95414" lon="4.65724">
        <ele>9</ele>
      </trkpt>
      <trkpt lat="50.95431" lon="4.65667">
        <ele>9</ele>
      </trkpt>
      <trkpt lat="50.95446" lon="4.65669">
        <ele>9</ele>
      </trkpt>
      <trkpt lat="50.95482" lon="4.6571">
        <ele>9</ele>
      </trkpt>
      <trkpt lat="50.95492" lon="4.65711">
        <ele>9</ele>
      </trkpt>
      <trkpt lat="50.95502" lon="4.65707">
        <ele>9</ele>
      </trkpt>
      <trkpt lat="50.95593" lon="4.656">
        <ele>11</ele>
      </trkpt>
      <trkpt lat="50.95605" lon="4.65595">
        <ele>11</ele>
      </trkpt>
      <trkpt lat="50.95625" lon="4.65592">
        <ele>11</ele>
      </trkpt>
      <trkpt lat="50.95658" lon="4.65595">
        <ele>11</ele>
      </trkpt>
      <trkpt lat="50.95676" lon="4.65633">
        <ele>11</ele>
      </trkpt>
      <trkpt lat="50.957" lon="4.6567">
        <ele>11</ele>
      </trkpt>
      <trkpt lat="50.95711" lon="4.65683">
        <ele>11</ele>
      </trkpt>
      <trkpt lat="50.95721" lon="4.65683">
        <ele>11</ele>
      </trkpt>
      <trkpt lat="50.95715" lon="4.65794">
        <ele>11</ele>
      </trkpt>
      <trkpt lat="50.95701" lon="4.65853">
        <ele>10</ele>
      </trkpt>
      <trkpt lat="50.95683" lon="4.6595">
        <ele>10</ele>
      </trkpt>
      <trkpt lat="50.95671" lon="4.66034">
        <ele>11</ele>
      </trkpt>
      <trkpt lat="50.9566" lon="4.66171">
        <ele>12</ele>
      </trkpt>
      <trkpt lat="50.95653" lon="4.66234">
        <ele>12</ele>
      </trkpt>
      <trkpt lat="50.95652" lon="4.66265">
        <ele>12</ele>
      </trkpt>
      <trkpt lat="50.95656" lon="4.66387">
        <ele>10</ele>
      </trkpt>
      <trkpt lat="50.95657" lon="4.66405">
        <ele>10</ele>
      </trkpt>
      <trkpt lat="50.9566" lon="4.66427">
        <ele>10</ele>
      </trkpt>
      <trkpt lat="50.95681" lon="4.66519">
        <ele>11</ele>
      </trkpt>
      <trkpt lat="50.95682" lon="4.66536">
        <ele>11</ele>
      </trkpt>
      <trkpt lat="50.95679" lon="4.66555">
        <ele>11</ele>
      </trkpt>
      <trkpt lat="50.95652" lon="4.66664">
        <ele>11</ele>
      </trkpt>
      <trkpt lat="50.9565" lon="4.6671">
        <ele>11</ele>
      </trkpt>
      <trkpt lat="50.95661" lon="4.66843">
        <ele>10</ele>
      </trkpt>
      <trkpt lat="50.95657" lon="4.66962">
        <ele>11</ele>
      </trkpt>
      <trkpt lat="50.95676" lon="4.67116">
        <ele>12</ele>
      </trkpt>
      <trkpt lat="50.95677" lon="4.6714">
        <ele>12</ele>
      </trkpt>
      <trkpt lat="50.95677" lon="4.67168">
        <ele>12</ele>
      </trkpt>
      <trkpt lat="50.95665" lon="4.67386">
        <ele>11</ele>
      </trkpt>
      <trkpt lat="50.95667" lon="4.67394">
        <ele>11</ele>
      </trkpt>
      <trkpt lat="50.95667" lon="4.6742">
        <ele>11</ele>
      </trkpt>
      <trkpt lat="50.95657" lon="4.67465">
        <ele>11</ele>
      </trkpt>
      <trkpt lat="50.95634" lon="4.67529">
        <ele>11</ele>
      </trkpt>
      <trkpt lat="50.95545" lon="4.67685">
        <ele>10</ele>
      </trkpt>
      <trkpt lat="50.95541" lon="4.67701">
        <ele>10</ele>
      </trkpt>
      <trkpt lat="50.95544" lon="4.67717">
        <ele>10</ele>
      </trkpt>
      <trkpt lat="50.95567" lon="4.67796">
        <ele>10</ele>
      </trkpt>
      <trkpt lat="50.95594" lon="4.67918">
        <ele>11</ele>
      </trkpt>
      <trkpt lat="50.95613" lon="4.6803">
        <ele>11</ele>
      </trkpt>
      <trkpt lat="50.95613" lon="4.68042">
        <ele>11</ele>
      </trkpt>
      <trkpt lat="50.9561" lon="4.68053">
        <ele>11</ele>
      </trkpt>
      <trkpt lat="50.95606" lon="4.68061">
        <ele>11</ele>
      </trkpt>
      <trkpt lat="50.95575" lon="4.68097">
        <ele>10</ele>
      </trkpt>
      <trkpt lat="50.95568" lon="4.6811">
        <ele>10</ele>
      </trkpt>
      <trkpt lat="50.95551" lon="4.68156">
        <ele>10</ele>
      </trkpt>
      <trkpt lat="50.95547" lon="4.68177">
        <ele>10</ele>
      </trkpt>
      <trkpt lat="50.95552" lon="4.68256">
        <ele>9</ele>
      </trkpt>
      <trkpt lat="50.95553" lon="4.6828">
        <ele>9</ele>
      </trkpt>
      <trkpt lat="50.95553" lon="4.68306">
        <ele>9</ele>
      </trkpt>
      <trkpt lat="50.95537" lon="4.68398">
        <ele>9</ele>
      </trkpt>
      <trkpt lat="50.95516" lon="4.68466">
        <ele>9</ele>
      </trkpt>
      <trkpt lat="50.95514" lon="4.6848">
        <ele>10</ele>
      </trkpt>
      <trkpt lat="50.95513" lon="4.68495">
        <ele>10</ele>
      </trkpt>
      <trkpt lat="50.95531" lon="4.68614">
        <ele>9</ele>
      </trkpt>
      <trkpt lat="50.95535" lon="4.68625">
        <ele>9</ele>
      </trkpt>
      <trkpt lat="50.95546" lon="4.68645">
        <ele>9</ele>
      </trkpt>
      <trkpt lat="50.95574" lon="4.68693">
        <ele>9</ele>
      </trkpt>
      <trkpt lat="50.9561" lon="4.6875">
        <ele>12</ele>
      </trkpt>
      <trkpt lat="50.95623" lon="4.68784">
        <ele>12</ele>
      </trkpt>
      <trkpt lat="50.95637" lon="4.68808">
        <ele>12</ele>
      </trkpt>
      <trkpt lat="50.95706" lon="4.68911">
        <ele>13</ele>
      </trkpt>
      <trkpt lat="50.95713" lon="4.68918">
        <ele>13</ele>
      </trkpt>
      <trkpt lat="50.95819" lon="4.68973">
        <ele>13</ele>
      </trkpt>
      <trkpt lat="50.9584" lon="4.68991">
        <ele>13</ele>
      </trkpt>
      <trkpt lat="50.95851" lon="4.69006">
        <ele>12</ele>
      </trkpt>
      <trkpt lat="50.95862" lon="4.69025">
        <ele>11</ele>
      </trkpt>
      <trkpt lat="50.95907" lon="4.69132">
        <ele>10</ele>
      </trkpt>
      <trkpt lat="50.95924" lon="4.69142">
        <ele>10</ele>
      </trkpt>
      <trkpt lat="50.96029" lon="4.69174">
        <ele>8</ele>
      </trkpt>
      <trkpt lat="50.96046" lon="4.6917">
        <ele>8</ele>
      </trkpt>
      <trkpt lat="50.96067" lon="4.69156">
        <ele>8</ele>
      </trkpt>
      <trkpt lat="50.96159" lon="4.69124">
        <ele>8</ele>
      </trkpt>
      <trkpt lat="50.96217" lon="4.69097">
        <ele>9</ele>
      </trkpt>
      <trkpt lat="50.96228" lon="4.69095">
        <ele>9</ele>
      </trkpt>
      <trkpt lat="50.96287" lon="4.69102">
        <ele>8</ele>
      </trkpt>
      <trkpt lat="50.96328" lon="4.69101">
        <ele>8</ele>
      </trkpt>
      <trkpt lat="50.9635" lon="4.69113">
        <ele>8</ele>
      </trkpt>
      <trkpt lat="50.96374" lon="4.69127">
        <ele>8</ele>
      </trkpt>
      <trkpt lat="50.96398" lon="4.6915">
        <ele>8</ele>
      </trkpt>
      <trkpt lat="50.96411" lon="4.69172">
        <ele>8</ele>
      </trkpt>
      <trkpt lat="50.96421" lon="4.69202">
        <ele>8</ele>
      </trkpt>
      <trkpt lat="50.96433" lon="4.69219">
        <ele>8</ele>
      </trkpt>
      <trkpt lat="50.96442" lon="4.69224">
        <ele>8</ele>
      </trkpt>
      <trkpt lat="50.96462" lon="4.6923">
        <ele>8</ele>
      </trkpt>
      <trkpt lat="50.9649" lon="4.69235">
        <ele>8</ele>
      </trkpt>
      <trkpt lat="50.96532" lon="4.69236">
        <ele>8</ele>
      </trkpt>
      <trkpt lat="50.96579" lon="4.69252">
        <ele>8</ele>
      </trkpt>
      <trkpt lat="50.96589" lon="4.69258">
        <ele>8</ele>
      </trkpt>
      <trkpt lat="50.96605" lon="4.69282">
        <ele>8</ele>
      </trkpt>
      <trkpt lat="50.96632" lon="4.69339">
        <ele>8</ele>
      </trkpt>
      <trkpt lat="50.96654" lon="4.69365">
        <ele>8</ele>
      </trkpt>
      <trkpt lat="50.96734" lon="4.69282">
        <ele>9</ele>
      </trkpt>
      <trkpt lat="50.96893" lon="4.69117">
        <ele>9</ele>
      </trkpt>
      <trkpt lat="50.96908" lon="4.69113">
        <ele>9</ele>
      </trkpt>
      <trkpt lat="50.96922" lon="4.69115">
        <ele>9</ele>
      </trkpt>
      <trkpt lat="50.96948" lon="4.6912">
        <ele>9</ele>
      </trkpt>
      <trkpt lat="50.96959" lon="4.69117">
        <ele>9</ele>
      </trkpt>
      <trkpt lat="50.96978" lon="4.69118">
        <ele>9</ele>
      </trkpt>
      <trkpt lat="50.96982" lon="4.6913">
        <ele>9</ele>
      </trkpt>
      <trkpt lat="50.96993" lon="4.69153">
        <ele>9</ele>
      </trkpt>
      <trkpt lat="50.97007" lon="4.69181">
        <ele>10</ele>
      </trkpt>
      <trkpt lat="50.97019" lon="4.69172">
        <ele>10</ele>
      </trkpt>
      <trkpt lat="50.97035" lon="4.69193">
        <ele>10</ele>
      </trkpt>
      <trkpt lat="50.97071" lon="4.6923">
        <ele>10</ele>
      </trkpt>
      <trkpt lat="50.97095" lon="4.69311">
        <ele>11</ele>
      </trkpt>
      <trkpt lat="50.97122" lon="4.69427">
        <ele>11</ele>
      </trkpt>
      <trkpt lat="50.9713" lon="4.6945">
        <ele>11</ele>
      </trkpt>
      <trkpt lat="50.97145" lon="4.69484">
        <ele>11</ele>
      </trkpt>
      <trkpt lat="50.9715" lon="4.69497">
        <ele>11</ele>
      </trkpt>
      <trkpt lat="50.97166" lon="4.69543">
        <ele>11</ele>
      </trkpt>
      <trkpt lat="50.97175" lon="4.69637">
        <ele>11</ele>
      </trkpt>
      <trkpt lat="50.97199" lon="4.69752">
        <ele>10</ele>
      </trkpt>
      <trkpt lat="50.97215" lon="4.69814">
        <ele>10</ele>
      </trkpt>
      <trkpt lat="50.97234" lon="4.69879">
        <ele>10</ele>
      </trkpt>
      <trkpt lat="50.97293" lon="4.70061">
        <ele>10</ele>
      </trkpt>
      <trkpt lat="50.97326" lon="4.70172">
        <ele>10</ele>
      </trkpt>
      <trkpt lat="50.97347" lon="4.70251">
        <ele>11</ele>
      </trkpt>
      <trkpt lat="50.97355" lon="4.70255">
        <ele>11</ele>
      </trkpt>
      <trkpt lat="50.9736" lon="4.7026">
        <ele>10</ele>
      </trkpt>
      <trkpt lat="50.97363" lon="4.70259">
        <ele>10</ele>
      </trkpt>
      <trkpt lat="50.9737" lon="4.70262">
        <ele>10</ele>
      </trkpt>
      <trkpt lat="50.97396" lon="4.70265">
        <ele>10</ele>
      </trkpt>
      <trkpt lat="50.97405" lon="4.70276">
        <ele>10</ele>
      </trkpt>
      <trkpt lat="50.97433" lon="4.70278">
        <ele>10</ele>
      </trkpt>
      <trkpt lat="50.97443" lon="4.70269">
        <ele>10</ele>
      </trkpt>
      <trkpt lat="50.97497" lon="4.70269">
        <ele>9</ele>
      </trkpt>
      <trkpt lat="50.97544" lon="4.70413">
        <ele>10</ele>
      </trkpt>
      <trkpt lat="50.97566" lon="4.70481">
        <ele>10</ele>
      </trkpt>
      <trkpt lat="50.9758" lon="4.70547">
        <ele>11</ele>
      </trkpt>
      <trkpt lat="50.97588" lon="4.70693">
        <ele>11</ele>
      </trkpt>
      <trkpt lat="50.97609" lon="4.70805">
        <ele>11</ele>
      </trkpt>
      <trkpt lat="50.9762" lon="4.70877">
        <ele>12</ele>
      </trkpt>
      <trkpt lat="50.97634" lon="4.71024">
        <ele>10</ele>
      </trkpt>
      <trkpt lat="50.97644" lon="4.7107">
        <ele>10</ele>
      </trkpt>
      <trkpt lat="50.97674" lon="4.71178">
        <ele>10</ele>
      </trkpt>
      <trkpt lat="50.97693" lon="4.71257">
        <ele>10</ele>
      </trkpt>
      <trkpt lat="50.97702" lon="4.71337">
        <ele>10</ele>
      </trkpt>
      <trkpt lat="50.97702" lon="4.71413">
        <ele>10</ele>
      </trkpt>
      <trkpt lat="50.97706" lon="4.71459">
        <ele>10</ele>
      </trkpt>
      <trkpt lat="50.97725" lon="4.71569">
        <ele>9</ele>
      </trkpt>
      <trkpt lat="50.97836" lon="4.71978">
        <ele>9</ele>
      </trkpt>
      <trkpt lat="50.97845" lon="4.72004">
        <ele>9</ele>
      </trkpt>
      <trkpt lat="50.97864" lon="4.72035">
        <ele>9</ele>
      </trkpt>
      <trkpt lat="50.97925" lon="4.72111">
        <ele>10</ele>
      </trkpt>
      <trkpt lat="50.97952" lon="4.72168">
        <ele>10</ele>
      </trkpt>
      <trkpt lat="50.9798" lon="4.72239">
        <ele>10</ele>
      </trkpt>
      <trkpt lat="50.97999" lon="4.7228">
        <ele>10</ele>
      </trkpt>
      <trkpt lat="50.98018" lon="4.72315">
        <ele>9</ele>
      </trkpt>
      <trkpt lat="50.98043" lon="4.72351">
        <ele>9</ele>
      </trkpt>
      <trkpt lat="50.98082" lon="4.72397">
        <ele>9</ele>
      </trkpt>
      <trkpt lat="50.98099" lon="4.72436">
        <ele>9</ele>
      </trkpt>
      <trkpt lat="50.98162" lon="4.72662">
        <ele>9</ele>
      </trkpt>
      <trkpt lat="50.98166" lon="4.72702">
        <ele>9</ele>
      </trkpt>
      <trkpt lat="50.98157" lon="4.72732">
        <ele>9</ele>
      </trkpt>
      <trkpt lat="50.98139" lon="4.72772">
        <ele>10</ele>
      </trkpt>
      <trkpt lat="50.98125" lon="4.7282">
        <ele>9</ele>
      </trkpt>
      <trkpt lat="50.98109" lon="4.729">
        <ele>9</ele>
      </trkpt>
      <trkpt lat="50.98104" lon="4.72982">
        <ele>9</ele>
      </trkpt>
      <trkpt lat="50.98106" lon="4.7306">
        <ele>9</ele>
      </trkpt>
      <trkpt lat="50.98117" lon="4.73162">
        <ele>9</ele>
      </trkpt>
      <trkpt lat="50.98134" lon="4.73237">
        <ele>9</ele>
      </trkpt>
      <trkpt lat="50.98154" lon="4.73289">
        <ele>10</ele>
      </trkpt>
      <trkpt lat="50.9819" lon="4.73334">
        <ele>9</ele>
      </trkpt>
      <trkpt lat="50.98357" lon="4.73519">
        <ele>8</ele>
      </trkpt>
      <trkpt lat="50.98385" lon="4.73537">
        <ele>8</ele>
      </trkpt>
      <trkpt lat="50.98392" lon="4.73539">
        <ele>8</ele>
      </trkpt>
      <trkpt lat="50.98512" lon="4.7356">
        <ele>9</ele>
      </trkpt>
      <trkpt lat="50.98625" lon="4.73582">
        <ele>9</ele>
      </trkpt>
      <trkpt lat="50.98728" lon="4.73631">
        <ele>9</ele>
      </trkpt>
      <trkpt lat="50.98801" lon="4.73645">
        <ele>10</ele>
      </trkpt>
      <trkpt lat="50.98801" lon="4.73649">
        <ele>10</ele>
      </trkpt>
      <trkpt lat="50.98805" lon="4.73649">
        <ele>10</ele>
      </trkpt>
      <trkpt lat="50.98803" lon="4.73755">
        <ele>10</ele>
      </trkpt>
      <trkpt lat="50.98801" lon="4.7395">
        <ele>11</ele>
      </trkpt>
      <trkpt lat="50.98798" lon="4.7395">
        <ele>11</ele>
      </trkpt>
      <trkpt lat="50.98797" lon="4.74146">
        <ele>11</ele>
      </trkpt>
      <trkpt lat="50.98806" lon="4.74737">
        <ele>16</ele>
      </trkpt>
      <trkpt lat="50.98813" lon="4.7488">
        <ele>13</ele>
      </trkpt>
      <trkpt lat="50.98822" lon="4.75025">
        <ele>13</ele>
      </trkpt>
      <trkpt lat="50.98826" lon="4.75146">
        <ele>14</ele>
      </trkpt>
      <trkpt lat="50.98828" lon="4.75295">
        <ele>13</ele>
      </trkpt>
      <trkpt lat="50.98838" lon="4.75415">
        <ele>12</ele>
      </trkpt>
      <trkpt lat="50.98917" lon="4.75422">
        <ele>11</ele>
      </trkpt>
      <trkpt lat="50.99159" lon="4.75444">
        <ele>13</ele>
      </trkpt>
      <trkpt lat="50.99416" lon="4.75467">
        <ele>15</ele>
      </trkpt>
      <trkpt lat="50.99451" lon="4.75458">
        <ele>15</ele>
      </trkpt>
      <trkpt lat="50.99465" lon="4.75449">
        <ele>15</ele>
      </trkpt>
      <trkpt lat="50.99484" lon="4.75426">
        <ele>15</ele>
      </trkpt>
      <trkpt lat="50.99517" lon="4.75366">
        <ele>14</ele>
      </trkpt>
      <trkpt lat="50.99551" lon="4.75303">
        <ele>13</ele>
      </trkpt>
      <trkpt lat="50.99563" lon="4.7529">
        <ele>13</ele>
      </trkpt>
      <trkpt lat="50.99574" lon="4.75332">
        <ele>14</ele>
      </trkpt>
      <trkpt lat="50.99651" lon="4.75608">
        <ele>14</ele>
      </trkpt>
      <trkpt lat="50.99674" lon="4.75654">
        <ele>15</ele>
      </trkpt>
      <trkpt lat="50.99688" lon="4.75687">
        <ele>15</ele>
      </trkpt>
      <trkpt lat="50.99691" lon="4.75715">
        <ele>15</ele>
      </trkpt>
      <trkpt lat="50.99696" lon="4.75806">
        <ele>15</ele>
      </trkpt>
      <trkpt lat="50.99701" lon="4.75828">
        <ele>15</ele>
      </trkpt>
      <trkpt lat="50.99719" lon="4.75865">
        <ele>16</ele>
      </trkpt>
      <trkpt lat="50.99803" lon="4.75989">
        <ele>17</ele>
      </trkpt>
      <trkpt lat="50.99819" lon="4.76018">
        <ele>18</ele>
      </trkpt>
      <trkpt lat="50.99837" lon="4.76059">
        <ele>18</ele>
      </trkpt>
      <trkpt lat="50.99849" lon="4.76095">
        <ele>19</ele>
      </trkpt>
      <trkpt lat="50.99903" lon="4.763">
        <ele>26</ele>
      </trkpt>
      <trkpt lat="50.99911" lon="4.76337">
        <ele>26</ele>
      </trkpt>
      <trkpt lat="50.99923" lon="4.76401">
        <ele>26</ele>
      </trkpt>
      <trkpt lat="50.99948" lon="4.76473">
        <ele>29</ele>
      </trkpt>
      <trkpt lat="51.00026" lon="4.76606">
        <ele>27</ele>
      </trkpt>
      <trkpt lat="51.0006" lon="4.76677">
        <ele>25</ele>
      </trkpt>
      <trkpt lat="51.00083" lon="4.76757">
        <ele>24</ele>
      </trkpt>
      <trkpt lat="51.00096" lon="4.7681">
        <ele>24</ele>
      </trkpt>
      <trkpt lat="51.00104" lon="4.76858">
        <ele>26</ele>
      </trkpt>
      <trkpt lat="51.00119" lon="4.77014">
        <ele>22</ele>
      </trkpt>
      <trkpt lat="51.00137" lon="4.77235">
        <ele>17</ele>
      </trkpt>
      <trkpt lat="51.00137" lon="4.77291">
        <ele>16</ele>
      </trkpt>
      <trkpt lat="51.00119" lon="4.77676">
        <ele>16</ele>
      </trkpt>
      <trkpt lat="51.00119" lon="4.77756">
        <ele>16</ele>
      </trkpt>
      <trkpt lat="51.0013" lon="4.77814">
        <ele>16</ele>
      </trkpt>
      <trkpt lat="51.00147" lon="4.77869">
        <ele>16</ele>
      </trkpt>
      <trkpt lat="51.00151" lon="4.7789">
        <ele>16</ele>
      </trkpt>
      <trkpt lat="51.00163" lon="4.77893">
        <ele>16</ele>
      </trkpt>
      <trkpt lat="51.00189" lon="4.7789">
        <ele>16</ele>
      </trkpt>
      <trkpt lat="51.00256" lon="4.77875">
        <ele>16</ele>
      </trkpt>
      <trkpt lat="51.0036" lon="4.77851">
        <ele>16</ele>
      </trkpt>
      <trkpt lat="51.00408" lon="4.77851">
        <ele>16</ele>
      </trkpt>
      <trkpt lat="51.00431" lon="4.77892">
        <ele>16</ele>
      </trkpt>
      <trkpt lat="51.00462" lon="4.7795">
        <ele>15</ele>
      </trkpt>
      <trkpt lat="51.00502" lon="4.78033">
        <ele>14</ele>
      </trkpt>
      <trkpt lat="51.00511" lon="4.78064">
        <ele>14</ele>
      </trkpt>
      <trkpt lat="51.00515" lon="4.78093">
        <ele>14</ele>
      </trkpt>
      <trkpt lat="51.00514" lon="4.78118">
        <ele>14</ele>
      </trkpt>
      <trkpt lat="51.00498" lon="4.78215">
        <ele>14</ele>
      </trkpt>
      <trkpt lat="51.00499" lon="4.78258">
        <ele>14</ele>
      </trkpt>
      <trkpt lat="51.00506" lon="4.78304">
        <ele>14</ele>
      </trkpt>
      <trkpt lat="51.00525" lon="4.78365">
        <ele>13</ele>
      </trkpt>
      <trkpt lat="51.00532" lon="4.78417">
        <ele>13</ele>
      </trkpt>
      <trkpt lat="51.00531" lon="4.78467">
        <ele>13</ele>
      </trkpt>
      <trkpt lat="51.00523" lon="4.7851">
        <ele>13</ele>
      </trkpt>
      <trkpt lat="51.00518" lon="4.78573">
        <ele>13</ele>
      </trkpt>
      <trkpt lat="51.00521" lon="4.78633">
        <ele>13</ele>
      </trkpt>
      <trkpt lat="51.00529" lon="4.78671">
        <ele>14</ele>
      </trkpt>
      <trkpt lat="51.00549" lon="4.7874">
        <ele>14</ele>
      </trkpt>
      <trkpt lat="51.00564" lon="4.78813">
        <ele>14</ele>
      </trkpt>
      <trkpt lat="51.00568" lon="4.78845">
        <ele>14</ele>
      </trkpt>
      <trkpt lat="51.00573" lon="4.78898">
        <ele>13</ele>
      </trkpt>
      <trkpt lat="51.00575" lon="4.78913">
        <ele>13</ele>
      </trkpt>
      <trkpt lat="51.00581" lon="4.7893">
        <ele>14</ele>
      </trkpt>
      <trkpt lat="51.00595" lon="4.78936">
        <ele>13</ele>
      </trkpt>
      <trkpt lat="51.00595" lon="4.78951">
        <ele>13</ele>
      </trkpt>
      <trkpt lat="51.00596" lon="4.7896">
        <ele>13</ele>
      </trkpt>
      <trkpt lat="51.0061" lon="4.78983">
        <ele>13</ele>
      </trkpt>
      <trkpt lat="51.00625" lon="4.7902">
        <ele>13</ele>
      </trkpt>
      <trkpt lat="51.00639" lon="4.79066">
        <ele>13</ele>
      </trkpt>
      <trkpt lat="51.00666" lon="4.7915">
        <ele>13</ele>
      </trkpt>
      <trkpt lat="51.00676" lon="4.79191">
        <ele>13</ele>
      </trkpt>
      <trkpt lat="51.00684" lon="4.79256">
        <ele>12</ele>
      </trkpt>
      <trkpt lat="51.00686" lon="4.79303">
        <ele>12</ele>
      </trkpt>
      <trkpt lat="51.00685" lon="4.79335">
        <ele>13</ele>
      </trkpt>
      <trkpt lat="51.00678" lon="4.79436">
        <ele>13</ele>
      </trkpt>
      <trkpt lat="51.00675" lon="4.79544">
        <ele>12</ele>
      </trkpt>
      <trkpt lat="51.00679" lon="4.79605">
        <ele>12</ele>
      </trkpt>
      <trkpt lat="51.00685" lon="4.79654">
        <ele>12</ele>
      </trkpt>
      <trkpt lat="51.00702" lon="4.79742">
        <ele>12</ele>
      </trkpt>
      <trkpt lat="51.00753" lon="4.79967">
        <ele>12</ele>
      </trkpt>
      <trkpt lat="51.00806" lon="4.8015">
        <ele>12</ele>
      </trkpt>
      <trkpt lat="51.00824" lon="4.80222">
        <ele>12</ele>
      </trkpt>
      <trkpt lat="51.00826" lon="4.80244">
        <ele>12</ele>
      </trkpt>
      <trkpt lat="51.00891" lon="4.8026">
        <ele>12</ele>
      </trkpt>
      <trkpt lat="51.00983" lon="4.80282">
        <ele>13</ele>
      </trkpt>
      <trkpt lat="51.01012" lon="4.80291">
        <ele>13</ele>
      </trkpt>
      <trkpt lat="51.01186" lon="4.8038">
        <ele>12</ele>
      </trkpt>
      <trkpt lat="51.01205" lon="4.80382">
        <ele>12</ele>
      </trkpt>
      <trkpt lat="51.01233" lon="4.8038">
        <ele>12</ele>
      </trkpt>
      <trkpt lat="51.01337" lon="4.80363">
        <ele>13</ele>
      </trkpt>
      <trkpt lat="51.01373" lon="4.8036">
        <ele>13</ele>
      </trkpt>
      <trkpt lat="51.01513" lon="4.80361">
        <ele>13</ele>
      </trkpt>
      <trkpt lat="51.01516" lon="4.80363">
        <ele>13</ele>
      </trkpt>
      <trkpt lat="51.0153" lon="4.80334">
        <ele>13</ele>
      </trkpt>
      <trkpt lat="51.01539" lon="4.80345">
        <ele>13</ele>
      </trkpt>
      <trkpt lat="51.01533" lon="4.80358">
        <ele>13</ele>
      </trkpt>
      <trkpt lat="51.01536" lon="4.80361">
        <ele>13</ele>
      </trkpt>
      <trkpt lat="51.01554" lon="4.8036">
        <ele>13</ele>
      </trkpt>
      <trkpt lat="51.01715" lon="4.80359">
        <ele>12</ele>
      </trkpt>
      <trkpt lat="51.0174" lon="4.80364">
        <ele>12</ele>
      </trkpt>
      <trkpt lat="51.0175" lon="4.80355">
        <ele>12</ele>
      </trkpt>
      <trkpt lat="51.01762" lon="4.80341">
        <ele>12</ele>
      </trkpt>
      <trkpt lat="51.01861" lon="4.80217">
        <ele>11</ele>
      </trkpt>
      <trkpt lat="51.01878" lon="4.80191">
        <ele>11</ele>
      </trkpt>
      <trkpt lat="51.02034" lon="4.80072">
        <ele>12</ele>
      </trkpt>
      <trkpt lat="51.02174" lon="4.79971">
        <ele>12</ele>
      </trkpt>
      <trkpt lat="51.02237" lon="4.79935">
        <ele>12</ele>
      </trkpt>
      <trkpt lat="51.02246" lon="4.79933">
        <ele>12</ele>
      </trkpt>
      <trkpt lat="51.0229" lon="4.79993">
        <ele>11</ele>
      </trkpt>
      <trkpt lat="51.02373" lon="4.80102">
        <ele>10</ele>
      </trkpt>
      <trkpt lat="51.02394" lon="4.80114">
        <ele>10</ele>
      </trkpt>
      <trkpt lat="51.02392" lon="4.80123">
        <ele>10</ele>
      </trkpt>
      <trkpt lat="51.02393" lon="4.80132">
        <ele>10</ele>
      </trkpt>
      <trkpt lat="51.02409" lon="4.80177">
        <ele>11</ele>
      </trkpt>
      <trkpt lat="51.02416" lon="4.80203">
        <ele>11</ele>
      </trkpt>
      <trkpt lat="51.02422" lon="4.80239">
        <ele>11</ele>
      </trkpt>
      <trkpt lat="51.02427" lon="4.80287">
        <ele>11</ele>
      </trkpt>
      <trkpt lat="51.02426" lon="4.80402">
        <ele>11</ele>
      </trkpt>
      <trkpt lat="51.02421" lon="4.8051">
        <ele>11</ele>
      </trkpt>
      <trkpt lat="51.0242" lon="4.80571">
        <ele>11</ele>
      </trkpt>
      <trkpt lat="51.02422" lon="4.80599">
        <ele>11</ele>
      </trkpt>
      <trkpt lat="51.0243" lon="4.80639">
        <ele>11</ele>
      </trkpt>
      <trkpt lat="51.02523" lon="4.80996">
        <ele>12</ele>
      </trkpt>
      <trkpt lat="51.02547" lon="4.81068">
        <ele>12</ele>
      </trkpt>
      <trkpt lat="51.02541" lon="4.81082">
        <ele>12</ele>
      </trkpt>
      <trkpt lat="51.0254" lon="4.81089">
        <ele>12</ele>
      </trkpt>
      <trkpt lat="51.0256" lon="4.81388">
        <ele>13</ele>
      </trkpt>
      <trkpt lat="51.02564" lon="4.81423">
        <ele>13</ele>
      </trkpt>
      <trkpt lat="51.02568" lon="4.81447">
        <ele>13</ele>
      </trkpt>
      <trkpt lat="51.0258" lon="4.81499">
        <ele>13</ele>
      </trkpt>
      <trkpt lat="51.02638" lon="4.8174">
        <ele>12</ele>
      </trkpt>
      <trkpt lat="51.02726" lon="4.82127">
        <ele>11</ele>
      </trkpt>
      <trkpt lat="51.02627" lon="4.82165">
        <ele>12</ele>
      </trkpt>
      <trkpt lat="51.02522" lon="4.82203">
        <ele>12</ele>
      </trkpt>
      <trkpt lat="51.02521" lon="4.82216">
        <ele>12</ele>
      </trkpt>
      <trkpt lat="51.02505" lon="4.82252">
        <ele>12</ele>
      </trkpt>
      <trkpt lat="51.02483" lon="4.82302">
        <ele>12</ele>
      </trkpt>
      <trkpt lat="51.02482" lon="4.82326">
        <ele>12</ele>
      </trkpt>
      <trkpt lat="51.02537" lon="4.82539">
        <ele>14</ele>
      </trkpt>
      <trkpt lat="51.0256" lon="4.82604">
        <ele>15</ele>
      </trkpt>
      <trkpt lat="51.02579" lon="4.82649">
        <ele>15</ele>
      </trkpt>
      <trkpt lat="51.02608" lon="4.82752">
        <ele>18</ele>
      </trkpt>
      <trkpt lat="51.02613" lon="4.8279">
        <ele>18</ele>
      </trkpt>
      <trkpt lat="51.02615" lon="4.82796">
        <ele>18</ele>
      </trkpt>
      <trkpt lat="51.0263" lon="4.82852">
        <ele>19</ele>
      </trkpt>
      <trkpt lat="51.02686" lon="4.83088">
        <ele>19</ele>
      </trkpt>
      <trkpt lat="51.02743" lon="4.83464">
        <ele>19</ele>
      </trkpt>
      <trkpt lat="51.02747" lon="4.83472">
        <ele>19</ele>
      </trkpt>
      <trkpt lat="51.02752" lon="4.83476">
        <ele>19</ele>
      </trkpt>
      <trkpt lat="51.02756" lon="4.83476">
        <ele>19</ele>
      </trkpt>
      <trkpt lat="51.02786" lon="4.83465">
        <ele>18</ele>
      </trkpt>
      <trkpt lat="51.02798" lon="4.83469">
        <ele>18</ele>
      </trkpt>
      <trkpt lat="51.02825" lon="4.83448">
        <ele>17</ele>
      </trkpt>
      <trkpt lat="51.0293" lon="4.83395">
        <ele>15</ele>
      </trkpt>
      <trkpt lat="51.03043" lon="4.83371">
        <ele>14</ele>
      </trkpt>
      <trkpt lat="51.03078" lon="4.83361">
        <ele>14</ele>
      </trkpt>
      <trkpt lat="51.03082" lon="4.83402">
        <ele>14</ele>
      </trkpt>
      <trkpt lat="51.03082" lon="4.8343">
        <ele>13</ele>
      </trkpt>
      <trkpt lat="51.03078" lon="4.83486">
        <ele>13</ele>
      </trkpt>
      <trkpt lat="51.03075" lon="4.83486">
        <ele>13</ele>
      </trkpt>
      <trkpt lat="51.03075" lon="4.83485">
        <ele>13</ele>
      </trkpt>
      <trkpt lat="51.03078" lon="4.83485">
        <ele>13</ele>
      </trkpt>
      <trkpt lat="51.03079" lon="4.83463">
        <ele>13</ele>
      </trkpt>
      <trkpt lat="51.03077" lon="4.83497">
        <ele>13</ele>
      </trkpt>
      <trkpt lat="51.03069" lon="4.83565">
        <ele>13</ele>
      </trkpt>
      <trkpt lat="51.03057" lon="4.83775">
        <ele>13</ele>
      </trkpt>
      <trkpt lat="51.03053" lon="4.83867">
        <ele>13</ele>
      </trkpt>
      <trkpt lat="51.0305" lon="4.83899">
        <ele>14</ele>
      </trkpt>
      <trkpt lat="51.03042" lon="4.83928">
        <ele>14</ele>
      </trkpt>
      <trkpt lat="51.03006" lon="4.84037">
        <ele>14</ele>
      </trkpt>
      <trkpt lat="51.02973" lon="4.84157">
        <ele>14</ele>
      </trkpt>
      <trkpt lat="51.0296" lon="4.84212">
        <ele>14</ele>
      </trkpt>
      <trkpt lat="51.02926" lon="4.84391">
        <ele>16</ele>
      </trkpt>
      <trkpt lat="51.02923" lon="4.84404">
        <ele>16</ele>
      </trkpt>
      <trkpt lat="51.02839" lon="4.84604">
        <ele>13</ele>
      </trkpt>
      <trkpt lat="51.02829" lon="4.8463">
        <ele>14</ele>
      </trkpt>
      <trkpt lat="51.02823" lon="4.84652">
        <ele>14</ele>
      </trkpt>
      <trkpt lat="51.02829" lon="4.84656">
        <ele>14</ele>
      </trkpt>
      <trkpt lat="51.0304" lon="4.84812">
        <ele>14</ele>
      </trkpt>
      <trkpt lat="51.03225" lon="4.84949">
        <ele>21</ele>
      </trkpt>
      <trkpt lat="51.03225" lon="4.84986">
        <ele>20</ele>
      </trkpt>
      <trkpt lat="51.03244" lon="4.85078">
        <ele>21</ele>
      </trkpt>
      <trkpt lat="51.03253" lon="4.85163">
        <ele>20</ele>
      </trkpt>
      <trkpt lat="51.03262" lon="4.85237">
        <ele>20</ele>
      </trkpt>
      <trkpt lat="51.03276" lon="4.85302">
        <ele>21</ele>
      </trkpt>
      <trkpt lat="51.03322" lon="4.85466">
        <ele>20</ele>
      </trkpt>
      <trkpt lat="51.03337" lon="4.85539">
        <ele>20</ele>
      </trkpt>
      <trkpt lat="51.03347" lon="4.85596">
        <ele>19</ele>
      </trkpt>
      <trkpt lat="51.03382" lon="4.85702">
        <ele>19</ele>
      </trkpt>
      <trkpt lat="51.03399" lon="4.85735">
        <ele>18</ele>
      </trkpt>
      <trkpt lat="51.03418" lon="4.85769">
        <ele>17</ele>
      </trkpt>
      <trkpt lat="51.03435" lon="4.85787">
        <ele>15</ele>
      </trkpt>
      <trkpt lat="51.03453" lon="4.85799">
        <ele>15</ele>
      </trkpt>
      <trkpt lat="51.03501" lon="4.85818">
        <ele>14</ele>
      </trkpt>
      <trkpt lat="51.03529" lon="4.85835">
        <ele>13</ele>
      </trkpt>
      <trkpt lat="51.03542" lon="4.85847">
        <ele>13</ele>
      </trkpt>
      <trkpt lat="51.03556" lon="4.85865">
        <ele>12</ele>
      </trkpt>
      <trkpt lat="51.03564" lon="4.85881">
        <ele>12</ele>
      </trkpt>
      <trkpt lat="51.03571" lon="4.85902">
        <ele>13</ele>
      </trkpt>
      <trkpt lat="51.03647" lon="4.862">
        <ele>13</ele>
      </trkpt>
      <trkpt lat="51.03654" lon="4.8622">
        <ele>13</ele>
      </trkpt>
      <trkpt lat="51.03656" lon="4.86227">
        <ele>13</ele>
      </trkpt>
      <trkpt lat="51.03667" lon="4.8623">
        <ele>13</ele>
      </trkpt>
      <trkpt lat="51.037" lon="4.86234">
        <ele>12</ele>
      </trkpt>
      <trkpt lat="51.03749" lon="4.86238">
        <ele>12</ele>
      </trkpt>
      <trkpt lat="51.03752" lon="4.86278">
        <ele>12</ele>
      </trkpt>
      <trkpt lat="51.0377" lon="4.86545">
        <ele>11</ele>
      </trkpt>
      <trkpt lat="51.03761" lon="4.86607">
        <ele>12</ele>
      </trkpt>
      <trkpt lat="51.03762" lon="4.86649">
        <ele>12</ele>
      </trkpt>
      <trkpt lat="51.03775" lon="4.86717">
        <ele>12</ele>
      </trkpt>
      <trkpt lat="51.03781" lon="4.86737">
        <ele>12</ele>
      </trkpt>
      <trkpt lat="51.03782" lon="4.86757">
        <ele>13</ele>
      </trkpt>
      <trkpt lat="51.03773" lon="4.8689">
        <ele>13</ele>
      </trkpt>
      <trkpt lat="51.0377" lon="4.86914">
        <ele>13</ele>
      </trkpt>
      <trkpt lat="51.03752" lon="4.86972">
        <ele>14</ele>
      </trkpt>
      <trkpt lat="51.03732" lon="4.87052">
        <ele>13</ele>
      </trkpt>
      <trkpt lat="51.03718" lon="4.87081">
        <ele>13</ele>
      </trkpt>
      <trkpt lat="51.03697" lon="4.87174">
        <ele>14</ele>
      </trkpt>
      <trkpt lat="51.03664" lon="4.87273">
        <ele>12</ele>
      </trkpt>
      <trkpt lat="51.03633" lon="4.87285">
        <ele>12</ele>
      </trkpt>
      <trkpt lat="51.03625" lon="4.87293">
        <ele>12</ele>
      </trkpt>
      <trkpt lat="51.03615" lon="4.87309">
        <ele>12</ele>
      </trkpt>
      <trkpt lat="51.03607" lon="4.87326">
        <ele>12</ele>
      </trkpt>
      <trkpt lat="51.03583" lon="4.8735">
        <ele>12</ele>
      </trkpt>
      <trkpt lat="51.03556" lon="4.87367">
        <ele>11</ele>
      </trkpt>
      <trkpt lat="51.03428" lon="4.87424">
        <ele>14</ele>
      </trkpt>
      <trkpt lat="51.03356" lon="4.87444">
        <ele>15</ele>
      </trkpt>
      <trkpt lat="51.03317" lon="4.8745">
        <ele>18</ele>
      </trkpt>
      <trkpt lat="51.03285" lon="4.87452">
        <ele>18</ele>
      </trkpt>
      <trkpt lat="51.03234" lon="4.87469">
        <ele>20</ele>
      </trkpt>
      <trkpt lat="51.03211" lon="4.87465">
        <ele>20</ele>
      </trkpt>
      <trkpt lat="51.03145" lon="4.87444">
        <ele>17</ele>
      </trkpt>
      <trkpt lat="51.03103" lon="4.8742">
        <ele>17</ele>
      </trkpt>
      <trkpt lat="51.03079" lon="4.87402">
        <ele>15</ele>
      </trkpt>
      <trkpt lat="51.03066" lon="4.87386">
        <ele>15</ele>
      </trkpt>
      <trkpt lat="51.0303" lon="4.87319">
        <ele>16</ele>
      </trkpt>
      <trkpt lat="51.03019" lon="4.87308">
        <ele>16</ele>
      </trkpt>
      <trkpt lat="51.03007" lon="4.87302">
        <ele>16</ele>
      </trkpt>
      <trkpt lat="51.02991" lon="4.87299">
        <ele>16</ele>
      </trkpt>
      <trkpt lat="51.02963" lon="4.87304">
        <ele>16</ele>
      </trkpt>
      <trkpt lat="51.0295" lon="4.87311">
        <ele>16</ele>
      </trkpt>
      <trkpt lat="51.0292" lon="4.87333">
        <ele>17</ele>
      </trkpt>
      <trkpt lat="51.02867" lon="4.87359">
        <ele>17</ele>
      </trkpt>
      <trkpt lat="51.02797" lon="4.87359">
        <ele>17</ele>
      </trkpt>
      <trkpt lat="51.02712" lon="4.87395">
        <ele>16</ele>
      </trkpt>
      <trkpt lat="51.02677" lon="4.8741">
        <ele>16</ele>
      </trkpt>
      <trkpt lat="51.02645" lon="4.87414">
        <ele>16</ele>
      </trkpt>
      <trkpt lat="51.02605" lon="4.87416">
        <ele>16</ele>
      </trkpt>
      <trkpt lat="51.02565" lon="4.87412">
        <ele>16</ele>
      </trkpt>
      <trkpt lat="51.02526" lon="4.87403">
        <ele>16</ele>
      </trkpt>
      <trkpt lat="51.02513" lon="4.87403">
        <ele>15</ele>
      </trkpt>
      <trkpt lat="51.02472" lon="4.87436">
        <ele>15</ele>
      </trkpt>
      <trkpt lat="51.02451" lon="4.8745">
        <ele>14</ele>
      </trkpt>
      <trkpt lat="51.02429" lon="4.8746">
        <ele>14</ele>
      </trkpt>
      <trkpt lat="51.02336" lon="4.87472">
        <ele>14</ele>
      </trkpt>
      <trkpt lat="51.02329" lon="4.87475">
        <ele>14</ele>
      </trkpt>
      <trkpt lat="51.02302" lon="4.87505">
        <ele>14</ele>
      </trkpt>
      <trkpt lat="51.02292" lon="4.87513">
        <ele>14</ele>
      </trkpt>
      <trkpt lat="51.02227" lon="4.87557">
        <ele>14</ele>
      </trkpt>
      <trkpt lat="51.02179" lon="4.87596">
        <ele>15</ele>
      </trkpt>
      <trkpt lat="51.02132" lon="4.87644">
        <ele>15</ele>
      </trkpt>
      <trkpt lat="51.02083" lon="4.87675">
        <ele>15</ele>
      </trkpt>
      <trkpt lat="51.02041" lon="4.87722">
        <ele>15</ele>
      </trkpt>
      <trkpt lat="51.01899" lon="4.87808">
        <ele>14</ele>
      </trkpt>
      <trkpt lat="51.0183" lon="4.87849">
        <ele>13</ele>
      </trkpt>
      <trkpt lat="51.01768" lon="4.87884">
        <ele>13</ele>
      </trkpt>
      <trkpt lat="51.01759" lon="4.87882">
        <ele>13</ele>
      </trkpt>
      <trkpt lat="51.01746" lon="4.87768">
        <ele>13</ele>
      </trkpt>
      <trkpt lat="51.0167" lon="4.87795">
        <ele>14</ele>
      </trkpt>
      <trkpt lat="51.01583" lon="4.87826">
        <ele>14</ele>
      </trkpt>
      <trkpt lat="51.01586" lon="4.87858">
        <ele>14</ele>
      </trkpt>
      <trkpt lat="51.01589" lon="4.87944">
        <ele>14</ele>
      </trkpt>
      <trkpt lat="51.01534" lon="4.87958">
        <ele>14</ele>
      </trkpt>
      <trkpt lat="51.01426" lon="4.87984">
        <ele>16</ele>
      </trkpt>
      <trkpt lat="51.01374" lon="4.87998">
        <ele>16</ele>
      </trkpt>
      <trkpt lat="51.01233" lon="4.8804">
        <ele>23</ele>
      </trkpt>
      <trkpt lat="51.01171" lon="4.88053">
        <ele>22</ele>
      </trkpt>
      <trkpt lat="51.01149" lon="4.88055">
        <ele>21</ele>
      </trkpt>
      <trkpt lat="51.01114" lon="4.88055">
        <ele>21</ele>
      </trkpt>
      <trkpt lat="51.01057" lon="4.88049">
        <ele>21</ele>
      </trkpt>
      <trkpt lat="51.01013" lon="4.88038">
        <ele>21</ele>
      </trkpt>
      <trkpt lat="51.00893" lon="4.87998">
        <ele>20</ele>
      </trkpt>
      <trkpt lat="51.00787" lon="4.87961">
        <ele>18</ele>
      </trkpt>
      <trkpt lat="51.0076" lon="4.87955">
        <ele>17</ele>
      </trkpt>
      <trkpt lat="51.00747" lon="4.87959">
        <ele>17</ele>
      </trkpt>
      <trkpt lat="51.00714" lon="4.87905">
        <ele>18</ele>
      </trkpt>
      <trkpt lat="51.00632" lon="4.87845">
        <ele>18</ele>
      </trkpt>
      <trkpt lat="51.00521" lon="4.87778">
        <ele>19</ele>
      </trkpt>
      <trkpt lat="51.00499" lon="4.87754">
        <ele>20</ele>
      </trkpt>
      <trkpt lat="51.00488" lon="4.87734">
        <ele>19</ele>
      </trkpt>
      <trkpt lat="51.00475" lon="4.87699">
        <ele>20</ele>
      </trkpt>
      <trkpt lat="51.0047" lon="4.87676">
        <ele>19</ele>
      </trkpt>
      <trkpt lat="51.00467" lon="4.87658">
        <ele>18</ele>
      </trkpt>
      <trkpt lat="51.00466" lon="4.87634">
        <ele>18</ele>
      </trkpt>
      <trkpt lat="51.00466" lon="4.87578">
        <ele>17</ele>
      </trkpt>
      <trkpt lat="51.0047" lon="4.87424">
        <ele>16</ele>
      </trkpt>
      <trkpt lat="51.00476" lon="4.87393">
        <ele>16</ele>
      </trkpt>
      <trkpt lat="51.00502" lon="4.87318">
        <ele>17</ele>
      </trkpt>
      <trkpt lat="51.00506" lon="4.873">
        <ele>17</ele>
      </trkpt>
      <trkpt lat="51.0052" lon="4.87216">
        <ele>17</ele>
      </trkpt>
      <trkpt lat="51.00524" lon="4.872">
        <ele>17</ele>
      </trkpt>
      <trkpt lat="51.00581" lon="4.87054">
        <ele>17</ele>
      </trkpt>
      <trkpt lat="51.00588" lon="4.87033">
        <ele>17</ele>
      </trkpt>
      <trkpt lat="51.00593" lon="4.87009">
        <ele>17</ele>
      </trkpt>
      <trkpt lat="51.00611" lon="4.86895">
        <ele>15</ele>
      </trkpt>
      <trkpt lat="51.00616" lon="4.86791">
        <ele>16</ele>
      </trkpt>
      <trkpt lat="51.00617" lon="4.8675">
        <ele>16</ele>
      </trkpt>
      <trkpt lat="51.00613" lon="4.86692">
        <ele>16</ele>
      </trkpt>
      <trkpt lat="51.00581" lon="4.86465">
        <ele>17</ele>
      </trkpt>
      <trkpt lat="51.00562" lon="4.86465">
        <ele>17</ele>
      </trkpt>
      <trkpt lat="51.00474" lon="4.86465">
        <ele>21</ele>
      </trkpt>
      <trkpt lat="51.0043" lon="4.86473">
        <ele>25</ele>
      </trkpt>
      <trkpt lat="51.00395" lon="4.86488">
        <ele>25</ele>
      </trkpt>
      <trkpt lat="51.00371" lon="4.86495">
        <ele>25</ele>
      </trkpt>
      <trkpt lat="51.00346" lon="4.86498">
        <ele>24</ele>
      </trkpt>
      <trkpt lat="51.00257" lon="4.86499">
        <ele>21</ele>
      </trkpt>
      <trkpt lat="51.00156" lon="4.86503">
        <ele>20</ele>
      </trkpt>
      <trkpt lat="51.00142" lon="4.86506">
        <ele>20</ele>
      </trkpt>
      <trkpt lat="51.00118" lon="4.86519">
        <ele>20</ele>
      </trkpt>
      <trkpt lat="51.00103" lon="4.86535">
        <ele>20</ele>
      </trkpt>
      <trkpt lat="51.00093" lon="4.86549">
        <ele>22</ele>
      </trkpt>
      <trkpt lat="51.00028" lon="4.86662">
        <ele>22</ele>
      </trkpt>
      <trkpt lat="50.99967" lon="4.86769">
        <ele>26</ele>
      </trkpt>
      <trkpt lat="50.99959" lon="4.8678">
        <ele>26</ele>
      </trkpt>
      <trkpt lat="50.99939" lon="4.868">
        <ele>27</ele>
      </trkpt>
      <trkpt lat="50.99913" lon="4.86814">
        <ele>30</ele>
      </trkpt>
      <trkpt lat="50.99817" lon="4.86864">
        <ele>35</ele>
      </trkpt>
      <trkpt lat="50.99796" lon="4.86878">
        <ele>36</ele>
      </trkpt>
      <trkpt lat="50.99776" lon="4.86899">
        <ele>36</ele>
      </trkpt>
      <trkpt lat="50.99725" lon="4.86964">
        <ele>40</ele>
      </trkpt>
      <trkpt lat="50.99706" lon="4.8699">
        <ele>40</ele>
      </trkpt>
      <trkpt lat="50.99655" lon="4.8707">
        <ele>38</ele>
      </trkpt>
      <trkpt lat="50.99637" lon="4.87084">
        <ele>36</ele>
      </trkpt>
      <trkpt lat="50.99624" lon="4.87089">
        <ele>36</ele>
      </trkpt>
      <trkpt lat="50.9959" lon="4.87093">
        <ele>32</ele>
      </trkpt>
      <trkpt lat="50.99572" lon="4.87092">
        <ele>32</ele>
      </trkpt>
      <trkpt lat="50.99543" lon="4.87084">
        <ele>32</ele>
      </trkpt>
      <trkpt lat="50.99535" lon="4.87087">
        <ele>31</ele>
      </trkpt>
      <trkpt lat="50.99512" lon="4.87065">
        <ele>31</ele>
      </trkpt>
      <trkpt lat="50.99492" lon="4.87056">
        <ele>31</ele>
      </trkpt>
      <trkpt lat="50.9947" lon="4.87051">
        <ele>30</ele>
      </trkpt>
      <trkpt lat="50.99443" lon="4.8704">
        <ele>29</ele>
      </trkpt>
      <trkpt lat="50.99405" lon="4.87016">
        <ele>23</ele>
      </trkpt>
      <trkpt lat="50.99382" lon="4.86995">
        <ele>24</ele>
      </trkpt>
      <trkpt lat="50.99361" lon="4.86971">
        <ele>24</ele>
      </trkpt>
      <trkpt lat="50.99344" lon="4.86946">
        <ele>20</ele>
      </trkpt>
      <trkpt lat="50.99326" lon="4.86897">
        <ele>21</ele>
      </trkpt>
      <trkpt lat="50.99299" lon="4.86781">
        <ele>24</ele>
      </trkpt>
      <trkpt lat="50.99275" lon="4.86794">
        <ele>23</ele>
      </trkpt>
      <trkpt lat="50.99269" lon="4.86793">
        <ele>23</ele>
      </trkpt>
      <trkpt lat="50.99262" lon="4.86784">
        <ele>21</ele>
      </trkpt>
      <trkpt lat="50.99215" lon="4.8667">
        <ele>22</ele>
      </trkpt>
      <trkpt lat="50.99175" lon="4.86566">
        <ele>24</ele>
      </trkpt>
      <trkpt lat="50.99167" lon="4.86517">
        <ele>25</ele>
      </trkpt>
      <trkpt lat="50.9916" lon="4.86436">
        <ele>29</ele>
      </trkpt>
      <trkpt lat="50.99153" lon="4.86399">
        <ele>31</ele>
      </trkpt>
      <trkpt lat="50.99069" lon="4.86221">
        <ele>33</ele>
      </trkpt>
      <trkpt lat="50.99057" lon="4.86208">
        <ele>34</ele>
      </trkpt>
      <trkpt lat="50.99037" lon="4.86179">
        <ele>32</ele>
      </trkpt>
      <trkpt lat="50.99005" lon="4.86123">
        <ele>30</ele>
      </trkpt>
      <trkpt lat="50.98969" lon="4.86084">
        <ele>30</ele>
      </trkpt>
      <trkpt lat="50.98957" lon="4.86066">
        <ele>32</ele>
      </trkpt>
      <trkpt lat="50.98946" lon="4.86042">
        <ele>31</ele>
      </trkpt>
      <trkpt lat="50.9892" lon="4.85978">
        <ele>27</ele>
      </trkpt>
      <trkpt lat="50.98895" lon="4.859">
        <ele>29</ele>
      </trkpt>
      <trkpt lat="50.98871" lon="4.85832">
        <ele>28</ele>
      </trkpt>
      <trkpt lat="50.98866" lon="4.85812">
        <ele>29</ele>
      </trkpt>
      <trkpt lat="50.98863" lon="4.85793">
        <ele>29</ele>
      </trkpt>
      <trkpt lat="50.98844" lon="4.85602">
        <ele>24</ele>
      </trkpt>
      <trkpt lat="50.9883" lon="4.85428">
        <ele>24</ele>
      </trkpt>
      <trkpt lat="50.98827" lon="4.85394">
        <ele>24</ele>
      </trkpt>
      <trkpt lat="50.98828" lon="4.85352">
        <ele>24</ele>
      </trkpt>
      <trkpt lat="50.98835" lon="4.85221">
        <ele>21</ele>
      </trkpt>
      <trkpt lat="50.98838" lon="4.85199">
        <ele>21</ele>
      </trkpt>
      <trkpt lat="50.98848" lon="4.85164">
        <ele>20</ele>
      </trkpt>
      <trkpt lat="50.98851" lon="4.85147">
        <ele>21</ele>
      </trkpt>
      <trkpt lat="50.98839" lon="4.85137">
        <ele>19</ele>
      </trkpt>
      <trkpt lat="50.98794" lon="4.85063">
        <ele>16</ele>
      </trkpt>
      <trkpt lat="50.98765" lon="4.85008">
        <ele>14</ele>
      </trkpt>
      <trkpt lat="50.98751" lon="4.84968">
        <ele>13</ele>
      </trkpt>
      <trkpt lat="50.9871" lon="4.84821">
        <ele>12</ele>
      </trkpt>
      <trkpt lat="50.98675" lon="4.84694">
        <ele>12</ele>
      </trkpt>
      <trkpt lat="50.98666" lon="4.84647">
        <ele>12</ele>
      </trkpt>
      <trkpt lat="50.98663" lon="4.84617">
        <ele>12</ele>
      </trkpt>
      <trkpt lat="50.98664" lon="4.84554">
        <ele>13</ele>
      </trkpt>
      <trkpt lat="50.98672" lon="4.84427">
        <ele>14</ele>
      </trkpt>
      <trkpt lat="50.987" lon="4.84272">
        <ele>14</ele>
      </trkpt>
      <trkpt lat="50.98709" lon="4.84198">
        <ele>14</ele>
      </trkpt>
      <trkpt lat="50.98703" lon="4.84169">
        <ele>14</ele>
      </trkpt>
      <trkpt lat="50.98694" lon="4.84149">
        <ele>15</ele>
      </trkpt>
      <trkpt lat="50.98685" lon="4.84117">
        <ele>15</ele>
      </trkpt>
      <trkpt lat="50.98681" lon="4.84098">
        <ele>15</ele>
      </trkpt>
      <trkpt lat="50.98677" lon="4.84068">
        <ele>15</ele>
      </trkpt>
      <trkpt lat="50.98676" lon="4.84034">
        <ele>15</ele>
      </trkpt>
      <trkpt lat="50.98678" lon="4.83992">
        <ele>15</ele>
      </trkpt>
      <trkpt lat="50.98685" lon="4.8396">
        <ele>15</ele>
      </trkpt>
      <trkpt lat="50.98693" lon="4.83929">
        <ele>15</ele>
      </trkpt>
      <trkpt lat="50.98701" lon="4.83923">
        <ele>15</ele>
      </trkpt>
      <trkpt lat="50.98714" lon="4.83884">
        <ele>14</ele>
      </trkpt>
      <trkpt lat="50.98729" lon="4.8385">
        <ele>14</ele>
      </trkpt>
      <trkpt lat="50.98727" lon="4.83834">
        <ele>14</ele>
      </trkpt>
      <trkpt lat="50.98752" lon="4.83777">
        <ele>14</ele>
      </trkpt>
      <trkpt lat="50.98759" lon="4.83761">
        <ele>14</ele>
      </trkpt>
      <trkpt lat="50.98771" lon="4.83697">
        <ele>14</ele>
      </trkpt>
      <trkpt lat="50.98776" lon="4.83677">
        <ele>14</ele>
      </trkpt>
      <trkpt lat="50.98774" lon="4.83663">
        <ele>14</ele>
      </trkpt>
      <trkpt lat="50.98775" lon="4.83658">
        <ele>14</ele>
      </trkpt>
      <trkpt lat="50.98723" lon="4.83254">
        <ele>15</ele>
      </trkpt>
      <trkpt lat="50.98707" lon="4.83154">
        <ele>14</ele>
      </trkpt>
      <trkpt lat="50.98689" lon="4.83058">
        <ele>13</ele>
      </trkpt>
      <trkpt lat="50.98682" lon="4.8301">
        <ele>13</ele>
      </trkpt>
      <trkpt lat="50.9868" lon="4.82988">
        <ele>13</ele>
      </trkpt>
      <trkpt lat="50.98681" lon="4.82962">
        <ele>13</ele>
      </trkpt>
      <trkpt lat="50.98685" lon="4.82939">
        <ele>13</ele>
      </trkpt>
      <trkpt lat="50.98692" lon="4.82915">
        <ele>13</ele>
      </trkpt>
      <trkpt lat="50.98694" lon="4.82895">
        <ele>13</ele>
      </trkpt>
      <trkpt lat="50.987" lon="4.82818">
        <ele>13</ele>
      </trkpt>
      <trkpt lat="50.9871" lon="4.82675">
        <ele>13</ele>
      </trkpt>
      <trkpt lat="50.98719" lon="4.82619">
        <ele>13</ele>
      </trkpt>
      <trkpt lat="50.98726" lon="4.82584">
        <ele>13</ele>
      </trkpt>
      <trkpt lat="50.98736" lon="4.82545">
        <ele>13</ele>
      </trkpt>
      <trkpt lat="50.9882" lon="4.82277">
        <ele>11</ele>
      </trkpt>
      <trkpt lat="50.98782" lon="4.8226">
        <ele>12</ele>
      </trkpt>
      <trkpt lat="50.98765" lon="4.82246">
        <ele>12</ele>
      </trkpt>
      <trkpt lat="50.98769" lon="4.82236">
        <ele>12</ele>
      </trkpt>
      <trkpt lat="50.98771" lon="4.8222">
        <ele>12</ele>
      </trkpt>
      <trkpt lat="50.98835" lon="4.82088">
        <ele>11</ele>
      </trkpt>
      <trkpt lat="50.98853" lon="4.82045">
        <ele>11</ele>
      </trkpt>
      <trkpt lat="50.98859" lon="4.82023">
        <ele>11</ele>
      </trkpt>
      <trkpt lat="50.98865" lon="4.81996">
        <ele>12</ele>
      </trkpt>
      <trkpt lat="50.98869" lon="4.8196">
        <ele>12</ele>
      </trkpt>
      <trkpt lat="50.98871" lon="4.8185">
        <ele>12</ele>
      </trkpt>
      <trkpt lat="50.98868" lon="4.81763">
        <ele>11</ele>
      </trkpt>
      <trkpt lat="50.98854" lon="4.816">
        <ele>11</ele>
      </trkpt>
      <trkpt lat="50.98842" lon="4.81541">
        <ele>10</ele>
      </trkpt>
      <trkpt lat="50.98812" lon="4.81392">
        <ele>10</ele>
      </trkpt>
      <trkpt lat="50.98795" lon="4.81268">
        <ele>11</ele>
      </trkpt>
      <trkpt lat="50.9878" lon="4.81197">
        <ele>11</ele>
      </trkpt>
      <trkpt lat="50.98756" lon="4.81097">
        <ele>10</ele>
      </trkpt>
      <trkpt lat="50.98738" lon="4.81055">
        <ele>10</ele>
      </trkpt>
      <trkpt lat="50.9873" lon="4.81012">
        <ele>10</ele>
      </trkpt>
      <trkpt lat="50.98723" lon="4.80962">
        <ele>9</ele>
      </trkpt>
      <trkpt lat="50.98709" lon="4.80904">
        <ele>9</ele>
      </trkpt>
      <trkpt lat="50.98691" lon="4.80846">
        <ele>9</ele>
      </trkpt>
      <trkpt lat="50.98626" lon="4.80666">
        <ele>10</ele>
      </trkpt>
      <trkpt lat="50.98614" lon="4.80614">
        <ele>10</ele>
      </trkpt>
      <trkpt lat="50.98592" lon="4.80472">
        <ele>10</ele>
      </trkpt>
      <trkpt lat="50.98574" lon="4.80405">
        <ele>10</ele>
      </trkpt>
      <trkpt lat="50.98565" lon="4.80376">
        <ele>10</ele>
      </trkpt>
      <trkpt lat="50.98552" lon="4.80347">
        <ele>10</ele>
      </trkpt>
      <trkpt lat="50.98538" lon="4.80325">
        <ele>10</ele>
      </trkpt>
      <trkpt lat="50.98497" lon="4.80287">
        <ele>9</ele>
      </trkpt>
      <trkpt lat="50.98483" lon="4.80268">
        <ele>9</ele>
      </trkpt>
      <trkpt lat="50.98454" lon="4.80216">
        <ele>10</ele>
      </trkpt>
      <trkpt lat="50.98431" lon="4.80182">
        <ele>10</ele>
      </trkpt>
      <trkpt lat="50.98374" lon="4.80104">
        <ele>9</ele>
      </trkpt>
      <trkpt lat="50.98336" lon="4.80064">
        <ele>9</ele>
      </trkpt>
      <trkpt lat="50.98318" lon="4.80051">
        <ele>9</ele>
      </trkpt>
      <trkpt lat="50.983" lon="4.80042">
        <ele>9</ele>
      </trkpt>
      <trkpt lat="50.98251" lon="4.80031">
        <ele>10</ele>
      </trkpt>
      <trkpt lat="50.98183" lon="4.80023">
        <ele>10</ele>
      </trkpt>
      <trkpt lat="50.9816" lon="4.80017">
        <ele>10</ele>
      </trkpt>
      <trkpt lat="50.98144" lon="4.8001">
        <ele>10</ele>
      </trkpt>
      <trkpt lat="50.98112" lon="4.79985">
        <ele>10</ele>
      </trkpt>
      <trkpt lat="50.98094" lon="4.79966">
        <ele>10</ele>
      </trkpt>
      <trkpt lat="50.98074" lon="4.79941">
        <ele>10</ele>
      </trkpt>
      <trkpt lat="50.98044" lon="4.79896">
        <ele>11</ele>
      </trkpt>
      <trkpt lat="50.98003" lon="4.79851">
        <ele>10</ele>
      </trkpt>
      <trkpt lat="50.97996" lon="4.79839">
        <ele>10</ele>
      </trkpt>
      <trkpt lat="50.97994" lon="4.79821">
        <ele>10</ele>
      </trkpt>
      <trkpt lat="50.97996" lon="4.79772">
        <ele>10</ele>
      </trkpt>
      <trkpt lat="50.98001" lon="4.79745">
        <ele>10</ele>
      </trkpt>
      <trkpt lat="50.9802" lon="4.7972">
        <ele>10</ele>
      </trkpt>
      <trkpt lat="50.98042" lon="4.79679">
        <ele>10</ele>
      </trkpt>
      <trkpt lat="50.98043" lon="4.79629">
        <ele>10</ele>
      </trkpt>
      <trkpt lat="50.9799" lon="4.79529">
        <ele>10</ele>
      </trkpt>
      <trkpt lat="50.97968" lon="4.79482">
        <ele>10</ele>
      </trkpt>
      <trkpt lat="50.9797" lon="4.79431">
        <ele>10</ele>
      </trkpt>
      <trkpt lat="50.97995" lon="4.79381">
        <ele>10</ele>
      </trkpt>
      <trkpt lat="50.97997" lon="4.79299">
        <ele>10</ele>
      </trkpt>
      <trkpt lat="50.98013" lon="4.79221">
        <ele>10</ele>
      </trkpt>
      <trkpt lat="50.98035" lon="4.79171">
        <ele>9</ele>
      </trkpt>
      <trkpt lat="50.98045" lon="4.7915">
        <ele>10</ele>
      </trkpt>
      <trkpt lat="50.9805" lon="4.79129">
        <ele>10</ele>
      </trkpt>
      <trkpt lat="50.9805" lon="4.79118">
        <ele>10</ele>
      </trkpt>
      <trkpt lat="50.98045" lon="4.79095">
        <ele>10</ele>
      </trkpt>
      <trkpt lat="50.98026" lon="4.79046">
        <ele>11</ele>
      </trkpt>
      <trkpt lat="50.9802" lon="4.79021">
        <ele>11</ele>
      </trkpt>
      <trkpt lat="50.98012" lon="4.7895">
        <ele>12</ele>
      </trkpt>
      <trkpt lat="50.98007" lon="4.78848">
        <ele>12</ele>
      </trkpt>
      <trkpt lat="50.97993" lon="4.78742">
        <ele>12</ele>
      </trkpt>
      <trkpt lat="50.97991" lon="4.78717">
        <ele>12</ele>
      </trkpt>
      <trkpt lat="50.97992" lon="4.78667">
        <ele>13</ele>
      </trkpt>
      <trkpt lat="50.97999" lon="4.78611">
        <ele>14</ele>
      </trkpt>
      <trkpt lat="50.98005" lon="4.78589">
        <ele>14</ele>
      </trkpt>
      <trkpt lat="50.98022" lon="4.78545">
        <ele>14</ele>
      </trkpt>
      <trkpt lat="50.98027" lon="4.78525">
        <ele>14</ele>
      </trkpt>
      <trkpt lat="50.98031" lon="4.7849">
        <ele>13</ele>
      </trkpt>
      <trkpt lat="50.98029" lon="4.78469">
        <ele>12</ele>
      </trkpt>
      <trkpt lat="50.98024" lon="4.78442">
        <ele>12</ele>
      </trkpt>
      <trkpt lat="50.97976" lon="4.78234">
        <ele>10</ele>
      </trkpt>
      <trkpt lat="50.97966" lon="4.78191">
        <ele>10</ele>
      </trkpt>
      <trkpt lat="50.97963" lon="4.7816">
        <ele>9</ele>
      </trkpt>
      <trkpt lat="50.97943" lon="4.78163">
        <ele>9</ele>
      </trkpt>
      <trkpt lat="50.97881" lon="4.7817">
        <ele>12</ele>
      </trkpt>
      <trkpt lat="50.97727" lon="4.78156">
        <ele>13</ele>
      </trkpt>
      <trkpt lat="50.97548" lon="4.7811">
        <ele>11</ele>
      </trkpt>
      <trkpt lat="50.97154" lon="4.78002">
        <ele>14</ele>
      </trkpt>
      <trkpt lat="50.97153" lon="4.78009">
        <ele>14</ele>
      </trkpt>
      <trkpt lat="50.97149" lon="4.78016">
        <ele>14</ele>
      </trkpt>
      <trkpt lat="50.97144" lon="4.7802">
        <ele>14</ele>
      </trkpt>
      <trkpt lat="50.97139" lon="4.7802">
        <ele>14</ele>
      </trkpt>
      <trkpt lat="50.9713" lon="4.78014">
        <ele>14</ele>
      </trkpt>
      <trkpt lat="50.97127" lon="4.78005">
        <ele>14</ele>
      </trkpt>
      <trkpt lat="50.97126" lon="4.77996">
        <ele>14</ele>
      </trkpt>
      <trkpt lat="50.97128" lon="4.77987">
        <ele>14</ele>
      </trkpt>
      <trkpt lat="50.97131" lon="4.77981">
        <ele>14</ele>
      </trkpt>
      <trkpt lat="50.97139" lon="4.77976">
        <ele>14</ele>
      </trkpt>
      <trkpt lat="50.97133" lon="4.77959">
        <ele>14</ele>
      </trkpt>
      <trkpt lat="50.97128" lon="4.77952">
        <ele>14</ele>
      </trkpt>
      <trkpt lat="50.97088" lon="4.77908">
        <ele>15</ele>
      </trkpt>
      <trkpt lat="50.96966" lon="4.77852">
        <ele>15</ele>
      </trkpt>
      <trkpt lat="50.96933" lon="4.77836">
        <ele>15</ele>
      </trkpt>
      <trkpt lat="50.96877" lon="4.778">
        <ele>15</ele>
      </trkpt>
      <trkpt lat="50.9664" lon="4.7764">
        <ele>20</ele>
      </trkpt>
      <trkpt lat="50.96562" lon="4.77269">
        <ele>19</ele>
      </trkpt>
      <trkpt lat="50.96371" lon="4.76358">
        <ele>21</ele>
      </trkpt>
      <trkpt lat="50.96359" lon="4.76291">
        <ele>23</ele>
      </trkpt>
      <trkpt lat="50.96283" lon="4.75946">
        <ele>33</ele>
      </trkpt>
      <trkpt lat="50.96191" lon="4.75496">
        <ele>37</ele>
      </trkpt>
      <trkpt lat="50.96177" lon="4.75418">
        <ele>32</ele>
      </trkpt>
      <trkpt lat="50.96172" lon="4.75338">
        <ele>30</ele>
      </trkpt>
      <trkpt lat="50.96169" lon="4.75289">
        <ele>29</ele>
      </trkpt>
      <trkpt lat="50.9614" lon="4.74954">
        <ele>27</ele>
      </trkpt>
      <trkpt lat="50.96128" lon="4.7484">
        <ele>25</ele>
      </trkpt>
      <trkpt lat="50.96107" lon="4.74691">
        <ele>24</ele>
      </trkpt>
      <trkpt lat="50.96075" lon="4.74494">
        <ele>19</ele>
      </trkpt>
      <trkpt lat="50.96059" lon="4.74405">
        <ele>18</ele>
      </trkpt>
      <trkpt lat="50.96065" lon="4.74404">
        <ele>18</ele>
      </trkpt>
      <trkpt lat="50.96101" lon="4.7437">
        <ele>20</ele>
      </trkpt>
      <trkpt lat="50.96106" lon="4.74359">
        <ele>20</ele>
      </trkpt>
      <trkpt lat="50.96155" lon="4.74216">
        <ele>19</ele>
      </trkpt>
      <trkpt lat="50.96214" lon="4.7404">
        <ele>19</ele>
      </trkpt>
      <trkpt lat="50.96238" lon="4.73929">
        <ele>16</ele>
      </trkpt>
      <trkpt lat="50.96259" lon="4.73819">
        <ele>14</ele>
      </trkpt>
      <trkpt lat="50.96276" lon="4.7371">
        <ele>13</ele>
      </trkpt>
      <trkpt lat="50.96292" lon="4.73637">
        <ele>12</ele>
      </trkpt>
      <trkpt lat="50.96297" lon="4.736">
        <ele>12</ele>
      </trkpt>
      <trkpt lat="50.96299" lon="4.7357">
        <ele>12</ele>
      </trkpt>
      <trkpt lat="50.96304" lon="4.73535">
        <ele>11</ele>
      </trkpt>
      <trkpt lat="50.96355" lon="4.7334">
        <ele>11</ele>
      </trkpt>
      <trkpt lat="50.96361" lon="4.73323">
        <ele>11</ele>
      </trkpt>
      <trkpt lat="50.96363" lon="4.73316">
        <ele>11</ele>
      </trkpt>
      <trkpt lat="50.96375" lon="4.73299">
        <ele>10</ele>
      </trkpt>
      <trkpt lat="50.96383" lon="4.73295">
        <ele>10</ele>
      </trkpt>
      <trkpt lat="50.96443" lon="4.73294">
        <ele>10</ele>
      </trkpt>
      <trkpt lat="50.96443" lon="4.73257">
        <ele>10</ele>
      </trkpt>
      <trkpt lat="50.9644" lon="4.73218">
        <ele>10</ele>
      </trkpt>
      <trkpt lat="50.96422" lon="4.7314">
        <ele>10</ele>
      </trkpt>
      <trkpt lat="50.96389" lon="4.73001">
        <ele>10</ele>
      </trkpt>
      <trkpt lat="50.96382" lon="4.72969">
        <ele>11</ele>
      </trkpt>
      <trkpt lat="50.96368" lon="4.72847">
        <ele>11</ele>
      </trkpt>
      <trkpt lat="50.96355" lon="4.72705">
        <ele>12</ele>
      </trkpt>
      <trkpt lat="50.96353" lon="4.72634">
        <ele>12</ele>
      </trkpt>
      <trkpt lat="50.96357" lon="4.72534">
        <ele>12</ele>
      </trkpt>
      <trkpt lat="50.96355" lon="4.72492">
        <ele>12</ele>
      </trkpt>
      <trkpt lat="50.96334" lon="4.72325">
        <ele>10</ele>
      </trkpt>
      <trkpt lat="50.96324" lon="4.72233">
        <ele>11</ele>
      </trkpt>
      <trkpt lat="50.96313" lon="4.71928">
        <ele>11</ele>
      </trkpt>
      <trkpt lat="50.96303" lon="4.71931">
        <ele>11</ele>
      </trkpt>
      <trkpt lat="50.96273" lon="4.71947">
        <ele>11</ele>
      </trkpt>
      <trkpt lat="50.96188" lon="4.71989">
        <ele>11</ele>
      </trkpt>
      <trkpt lat="50.96137" lon="4.72025">
        <ele>11</ele>
      </trkpt>
      <trkpt lat="50.96124" lon="4.72032">
        <ele>11</ele>
      </trkpt>
      <trkpt lat="50.96114" lon="4.7203">
        <ele>11</ele>
      </trkpt>
      <trkpt lat="50.95975" lon="4.72054">
        <ele>12</ele>
      </trkpt>
      <trkpt lat="50.95958" lon="4.72061">
        <ele>12</ele>
      </trkpt>
      <trkpt lat="50.95936" lon="4.72074">
        <ele>11</ele>
      </trkpt>
      <trkpt lat="50.95921" lon="4.72077">
        <ele>11</ele>
      </trkpt>
      <trkpt lat="50.95896" lon="4.72083">
        <ele>11</ele>
      </trkpt>
      <trkpt lat="50.95866" lon="4.7208">
        <ele>11</ele>
      </trkpt>
      <trkpt lat="50.95744" lon="4.72091">
        <ele>11</ele>
      </trkpt>
      <trkpt lat="50.95727" lon="4.7208">
        <ele>11</ele>
      </trkpt>
      <trkpt lat="50.95714" lon="4.72077">
        <ele>11</ele>
      </trkpt>
      <trkpt lat="50.95714" lon="4.72072">
        <ele>11</ele>
      </trkpt>
      <trkpt lat="50.9571" lon="4.7206">
        <ele>11</ele>
      </trkpt>
      <trkpt lat="50.95569" lon="4.71861">
        <ele>11</ele>
      </trkpt>
      <trkpt lat="50.95478" lon="4.71733">
        <ele>11</ele>
      </trkpt>
      <trkpt lat="50.95412" lon="4.71649">
        <ele>12</ele>
      </trkpt>
      <trkpt lat="50.95409" lon="4.7165">
        <ele>12</ele>
      </trkpt>
      <trkpt lat="50.95394" lon="4.71663">
        <ele>12</ele>
      </trkpt>
      <trkpt lat="50.9537" lon="4.71611">
        <ele>12</ele>
      </trkpt>
      <trkpt lat="50.95347" lon="4.7157">
        <ele>12</ele>
      </trkpt>
      <trkpt lat="50.95324" lon="4.7154">
        <ele>12</ele>
      </trkpt>
      <trkpt lat="50.95286" lon="4.71498">
        <ele>12</ele>
      </trkpt>
      <trkpt lat="50.95208" lon="4.71403">
        <ele>13</ele>
      </trkpt>
      <trkpt lat="50.9513" lon="4.71303">
        <ele>14</ele>
      </trkpt>
      <trkpt lat="50.95095" lon="4.71255">
        <ele>14</ele>
      </trkpt>
      <trkpt lat="50.95059" lon="4.71199">
        <ele>14</ele>
      </trkpt>
      <trkpt lat="50.95014" lon="4.71146">
        <ele>14</ele>
      </trkpt>
      <trkpt lat="50.94929" lon="4.70988">
        <ele>12</ele>
      </trkpt>
      <trkpt lat="50.9492" lon="4.70968">
        <ele>12</ele>
      </trkpt>
      <trkpt lat="50.94906" lon="4.70931">
        <ele>12</ele>
      </trkpt>
      <trkpt lat="50.94879" lon="4.70812">
        <ele>10</ele>
      </trkpt>
      <trkpt lat="50.9481" lon="4.70485">
        <ele>10</ele>
      </trkpt>
      <trkpt lat="50.94775" lon="4.70295">
        <ele>10</ele>
      </trkpt>
      <trkpt lat="50.94765" lon="4.70249">
        <ele>11</ele>
      </trkpt>
      <trkpt lat="50.94753" lon="4.70206">
        <ele>10</ele>
      </trkpt>
      <trkpt lat="50.94463" lon="4.69676">
        <ele>11</ele>
      </trkpt>
      <trkpt lat="50.94327" lon="4.69431">
        <ele>13</ele>
      </trkpt>
      <trkpt lat="50.943" lon="4.69399">
        <ele>13</ele>
      </trkpt>
      <trkpt lat="50.94277" lon="4.69377">
        <ele>13</ele>
      </trkpt>
      <trkpt lat="50.94261" lon="4.69366">
        <ele>13</ele>
      </trkpt>
      <trkpt lat="50.94175" lon="4.69318">
        <ele>13</ele>
      </trkpt>
      <trkpt lat="50.94158" lon="4.69318">
        <ele>13</ele>
      </trkpt>
      <trkpt lat="50.9411" lon="4.69326">
        <ele>13</ele>
      </trkpt>
      <trkpt lat="50.94095" lon="4.6933">
        <ele>13</ele>
      </trkpt>
      <trkpt lat="50.93945" lon="4.69417">
        <ele>12</ele>
      </trkpt>
      <trkpt lat="50.9389" lon="4.69445">
        <ele>12</ele>
      </trkpt>
      <trkpt lat="50.93799" lon="4.69491">
        <ele>13</ele>
      </trkpt>
      <trkpt lat="50.93772" lon="4.69514">
        <ele>13</ele>
      </trkpt>
      <trkpt lat="50.93712" lon="4.69577">
        <ele>13</ele>
      </trkpt>
      <trkpt lat="50.93591" lon="4.69697">
        <ele>15</ele>
      </trkpt>
      <trkpt lat="50.93583" lon="4.69703">
        <ele>15</ele>
      </trkpt>
      <trkpt lat="50.93508" lon="4.69735">
        <ele>15</ele>
      </trkpt>
      <trkpt lat="50.93479" lon="4.69745">
        <ele>14</ele>
      </trkpt>
      <trkpt lat="50.93387" lon="4.69758">
        <ele>15</ele>
      </trkpt>
      <trkpt lat="50.93367" lon="4.69753">
        <ele>15</ele>
      </trkpt>
      <trkpt lat="50.93336" lon="4.69737">
        <ele>15</ele>
      </trkpt>
      <trkpt lat="50.93297" lon="4.69736">
        <ele>15</ele>
      </trkpt>
      <trkpt lat="50.93046" lon="4.69708">
        <ele>16</ele>
      </trkpt>
      <trkpt lat="50.92975" lon="4.69691">
        <ele>16</ele>
      </trkpt>
      <trkpt lat="50.92954" lon="4.6969">
        <ele>16</ele>
      </trkpt>
      <trkpt lat="50.92932" lon="4.69676">
        <ele>16</ele>
      </trkpt>
      <trkpt lat="50.929" lon="4.69658">
        <ele>16</ele>
      </trkpt>
      <trkpt lat="50.92813" lon="4.69593">
        <ele>17</ele>
      </trkpt>
      <trkpt lat="50.92675" lon="4.69467">
        <ele>18</ele>
      </trkpt>
      <trkpt lat="50.92595" lon="4.69385">
        <ele>17</ele>
      </trkpt>
      <trkpt lat="50.92507" lon="4.69247">
        <ele>17</ele>
      </trkpt>
      <trkpt lat="50.92486" lon="4.69239">
        <ele>17</ele>
      </trkpt>
      <trkpt lat="50.92427" lon="4.69232">
        <ele>18</ele>
      </trkpt>
      <trkpt lat="50.92381" lon="4.69213">
        <ele>18</ele>
      </trkpt>
      <trkpt lat="50.92369" lon="4.69221">
        <ele>18</ele>
      </trkpt>
      <trkpt lat="50.92358" lon="4.6922">
        <ele>18</ele>
      </trkpt>
      <trkpt lat="50.92295" lon="4.69205">
        <ele>19</ele>
      </trkpt>
      <trkpt lat="50.92246" lon="4.6919">
        <ele>20</ele>
      </trkpt>
      <trkpt lat="50.9224" lon="4.69188">
        <ele>20</ele>
      </trkpt>
      <trkpt lat="50.92229" lon="4.69174">
        <ele>20</ele>
      </trkpt>
      <trkpt lat="50.92225" lon="4.69161">
        <ele>20</ele>
      </trkpt>
      <trkpt lat="50.92206" lon="4.69157">
        <ele>20</ele>
      </trkpt>
      <trkpt lat="50.92165" lon="4.69138">
        <ele>20</ele>
      </trkpt>
      <trkpt lat="50.92127" lon="4.6913">
        <ele>20</ele>
      </trkpt>
      <trkpt lat="50.92029" lon="4.69117">
        <ele>19</ele>
      </trkpt>
      <trkpt lat="50.91807" lon="4.69105">
        <ele>19</ele>
      </trkpt>
      <trkpt lat="50.91686" lon="4.69098">
        <ele>19</ele>
      </trkpt>
      <trkpt lat="50.91654" lon="4.69093">
        <ele>19</ele>
      </trkpt>
      <trkpt lat="50.91627" lon="4.69084">
        <ele>19</ele>
      </trkpt>
      <trkpt lat="50.91522" lon="4.69032">
        <ele>20</ele>
      </trkpt>
      <trkpt lat="50.91514" lon="4.69024">
        <ele>20</ele>
      </trkpt>
      <trkpt lat="50.91498" lon="4.68993">
        <ele>20</ele>
      </trkpt>
      <trkpt lat="50.91488" lon="4.68968">
        <ele>20</ele>
      </trkpt>
      <trkpt lat="50.91484" lon="4.68952">
        <ele>20</ele>
      </trkpt>
      <trkpt lat="50.91482" lon="4.68934">
        <ele>20</ele>
      </trkpt>
      <trkpt lat="50.91478" lon="4.68873">
        <ele>20</ele>
      </trkpt>
      <trkpt lat="50.91462" lon="4.68625">
        <ele>19</ele>
      </trkpt>
      <trkpt lat="50.91436" lon="4.68637">
        <ele>19</ele>
      </trkpt>
      <trkpt lat="50.91391" lon="4.68647">
        <ele>19</ele>
      </trkpt>
      <trkpt lat="50.9135" lon="4.68644">
        <ele>19</ele>
      </trkpt>
      <trkpt lat="50.91296" lon="4.68627">
        <ele>19</ele>
      </trkpt>
      <trkpt lat="50.91277" lon="4.68616">
        <ele>19</ele>
      </trkpt>
      <trkpt lat="50.91255" lon="4.68599">
        <ele>20</ele>
      </trkpt>
      <trkpt lat="50.91163" lon="4.68522">
        <ele>20</ele>
      </trkpt>
      <trkpt lat="50.90955" lon="4.68343">
        <ele>21</ele>
      </trkpt>
      <trkpt lat="50.90937" lon="4.68333">
        <ele>22</ele>
      </trkpt>
      <trkpt lat="50.90926" lon="4.6833">
        <ele>22</ele>
      </trkpt>
      <trkpt lat="50.90727" lon="4.68344">
        <ele>25</ele>
      </trkpt>
      <trkpt lat="50.90693" lon="4.68352">
        <ele>26</ele>
      </trkpt>
      <trkpt lat="50.90645" lon="4.68373">
        <ele>28</ele>
      </trkpt>
      <trkpt lat="50.90572" lon="4.68413">
        <ele>29</ele>
      </trkpt>
      <trkpt lat="50.90564" lon="4.68422">
        <ele>29</ele>
      </trkpt>
      <trkpt lat="50.90558" lon="4.6843">
        <ele>29</ele>
      </trkpt>
      <trkpt lat="50.90552" lon="4.68428">
        <ele>29</ele>
      </trkpt>
      <trkpt lat="50.90549" lon="4.68436">
        <ele>29</ele>
      </trkpt>
      <trkpt lat="50.90548" lon="4.68435">
        <ele>29</ele>
      </trkpt>
      <trkpt lat="50.90541" lon="4.68425">
        <ele>29</ele>
      </trkpt>
      <trkpt lat="50.90459" lon="4.68474">
        <ele>29</ele>
      </trkpt>
      <trkpt lat="50.90425" lon="4.68489">
        <ele>28</ele>
      </trkpt>
      <trkpt lat="50.9042" lon="4.68488">
        <ele>28</ele>
      </trkpt>
      <trkpt lat="50.90413" lon="4.68357">
        <ele>29</ele>
      </trkpt>
      <trkpt lat="50.904" lon="4.68169">
        <ele>28</ele>
      </trkpt>
      <trkpt lat="50.90396" lon="4.6798">
        <ele>28</ele>
      </trkpt>
      <trkpt lat="50.90358" lon="4.67487">
        <ele>32</ele>
      </trkpt>
      <trkpt lat="50.9035" lon="4.67376">
        <ele>32</ele>
      </trkpt>
      <trkpt lat="50.90346" lon="4.67361">
        <ele>32</ele>
      </trkpt>
      <trkpt lat="50.90331" lon="4.67144">
        <ele>31</ele>
      </trkpt>
      <trkpt lat="50.90329" lon="4.6711">
        <ele>31</ele>
      </trkpt>
      <trkpt lat="50.90312" lon="4.66889">
        <ele>32</ele>
      </trkpt>
      <trkpt lat="50.90311" lon="4.66886">
        <ele>32</ele>
      </trkpt>
      <trkpt lat="50.90309" lon="4.66859">
        <ele>32</ele>
      </trkpt>
      <trkpt lat="50.90282" lon="4.6651">
        <ele>32</ele>
      </trkpt>
      <trkpt lat="50.90279" lon="4.66495">
        <ele>32</ele>
      </trkpt>
      <trkpt lat="50.90275" lon="4.66491">
        <ele>32</ele>
      </trkpt>
      <trkpt lat="50.90266" lon="4.66491">
        <ele>32</ele>
      </trkpt>
      <trkpt lat="50.90263" lon="4.66486">
        <ele>32</ele>
      </trkpt>
      <trkpt lat="50.9026" lon="4.66439">
        <ele>32</ele>
      </trkpt>
      <trkpt lat="50.90263" lon="4.66425">
        <ele>32</ele>
      </trkpt>
      <trkpt lat="50.90267" lon="4.66412">
        <ele>31</ele>
      </trkpt>
      <trkpt lat="50.90267" lon="4.66402">
        <ele>31</ele>
      </trkpt>
      <trkpt lat="50.90264" lon="4.66362">
        <ele>32</ele>
      </trkpt>
      <trkpt lat="50.902" lon="4.65512">
        <ele>30</ele>
      </trkpt>
      <trkpt lat="50.90198" lon="4.65503">
        <ele>30</ele>
      </trkpt>
      <trkpt lat="50.90193" lon="4.65499">
        <ele>30</ele>
      </trkpt>
      <trkpt lat="50.90163" lon="4.655">
        <ele>30</ele>
      </trkpt>
      <trkpt lat="50.9013" lon="4.6537">
        <ele>30</ele>
      </trkpt>
      <trkpt lat="50.90129" lon="4.65357">
        <ele>30</ele>
      </trkpt>
      <trkpt lat="50.90135" lon="4.65345">
        <ele>30</ele>
      </trkpt>
      <trkpt lat="50.90124" lon="4.65315">
        <ele>30</ele>
      </trkpt>
      <trkpt lat="50.90121" lon="4.65301">
        <ele>30</ele>
      </trkpt>
      <trkpt lat="50.90118" lon="4.65285">
        <ele>30</ele>
      </trkpt>
      <trkpt lat="50.90116" lon="4.65249">
        <ele>30</ele>
      </trkpt>
      <trkpt lat="50.90071" lon="4.6504">
        <ele>31</ele>
      </trkpt>
      <trkpt lat="50.90041" lon="4.6491">
        <ele>30</ele>
      </trkpt>
      <trkpt lat="50.90006" lon="4.64831">
        <ele>31</ele>
      </trkpt>
      <trkpt lat="50.8999" lon="4.64803">
        <ele>31</ele>
      </trkpt>
      <trkpt lat="50.89958" lon="4.64758">
        <ele>31</ele>
      </trkpt>
      <trkpt lat="50.89954" lon="4.64762">
        <ele>31</ele>
      </trkpt>
      <trkpt lat="50.89958" lon="4.64758">
        <ele>31</ele>
      </trkpt>
      <trkpt lat="50.89895" lon="4.64666">
        <ele>32</ele>
      </trkpt>
      <trkpt lat="50.89874" lon="4.64625">
        <ele>32</ele>
      </trkpt>
      <trkpt lat="50.89866" lon="4.64598">
        <ele>32</ele>
      </trkpt>
      <trkpt lat="50.89865" lon="4.64584">
        <ele>32</ele>
      </trkpt>
      <trkpt lat="50.89867" lon="4.64572">
        <ele>32</ele>
      </trkpt>
      <trkpt lat="50.8987" lon="4.64564">
        <ele>32</ele>
      </trkpt>
      <trkpt lat="50.89876" lon="4.64554">
        <ele>32</ele>
      </trkpt>
      <trkpt lat="50.89925" lon="4.645">
        <ele>32</ele>
      </trkpt>
      <trkpt lat="50.89929" lon="4.64496">
        <ele>32</ele>
      </trkpt>
      <trkpt lat="50.89894" lon="4.64444">
        <ele>33</ele>
      </trkpt>
      <trkpt lat="50.89821" lon="4.64344">
        <ele>34</ele>
      </trkpt>
      <trkpt lat="50.89802" lon="4.64333">
        <ele>34</ele>
      </trkpt>
      <trkpt lat="50.8976" lon="4.64323">
        <ele>35</ele>
      </trkpt>
      <trkpt lat="50.89771" lon="4.64287">
        <ele>34</ele>
      </trkpt>
      <trkpt lat="50.89796" lon="4.64188">
        <ele>34</ele>
      </trkpt>
      <trkpt lat="50.89849" lon="4.64001">
        <ele>34</ele>
      </trkpt>
      <trkpt lat="50.8992" lon="4.63738">
        <ele>36</ele>
      </trkpt>
      <trkpt lat="50.89965" lon="4.63581">
        <ele>33</ele>
      </trkpt>
      <trkpt lat="50.89984" lon="4.63489">
        <ele>33</ele>
      </trkpt>
      <trkpt lat="50.8993" lon="4.63244">
        <ele>35</ele>
      </trkpt>
      <trkpt lat="50.89925" lon="4.63213">
        <ele>35</ele>
      </trkpt>
      <trkpt lat="50.89923" lon="4.63178">
        <ele>35</ele>
      </trkpt>
      <trkpt lat="50.89926" lon="4.63113">
        <ele>35</ele>
      </trkpt>
      <trkpt lat="50.89928" lon="4.63039">
        <ele>34</ele>
      </trkpt>
      <trkpt lat="50.89935" lon="4.63019">
        <ele>34</ele>
      </trkpt>
      <trkpt lat="50.89931" lon="4.62995">
        <ele>34</ele>
      </trkpt>
      <trkpt lat="50.89935" lon="4.62839">
        <ele>33</ele>
      </trkpt>
      <trkpt lat="50.89934" lon="4.62826">
        <ele>33</ele>
      </trkpt>
      <trkpt lat="50.89927" lon="4.62803">
        <ele>34</ele>
      </trkpt>
      <trkpt lat="50.8992" lon="4.62771">
        <ele>35</ele>
      </trkpt>
      <trkpt lat="50.89915" lon="4.62711">
        <ele>35</ele>
      </trkpt>
      <trkpt lat="50.89911" lon="4.62712">
        <ele>35</ele>
      </trkpt>
      <trkpt lat="50.89907" lon="4.62709">
        <ele>35</ele>
      </trkpt>
      <trkpt lat="50.89904" lon="4.62704">
        <ele>35</ele>
      </trkpt>
      <trkpt lat="50.89903" lon="4.62698">
        <ele>35</ele>
      </trkpt>
      <trkpt lat="50.89903" lon="4.62692">
        <ele>35</ele>
      </trkpt>
      <trkpt lat="50.89908" lon="4.62684">
        <ele>35</ele>
      </trkpt>
      <trkpt lat="50.89911" lon="4.62682">
        <ele>35</ele>
      </trkpt>
      <trkpt lat="50.89905" lon="4.6262">
        <ele>35</ele>
      </trkpt>
      <trkpt lat="50.89903" lon="4.62577">
        <ele>35</ele>
      </trkpt>
      <trkpt lat="50.89904" lon="4.62504">
        <ele>35</ele>
      </trkpt>
      <trkpt lat="50.89906" lon="4.62495">
        <ele>35</ele>
      </trkpt>
      <trkpt lat="50.89906" lon="4.62373">
        <ele>34</ele>
      </trkpt>
      <trkpt lat="50.89909" lon="4.6233">
        <ele>34</ele>
      </trkpt>
      <trkpt lat="50.89908" lon="4.62259">
        <ele>33</ele>
      </trkpt>
      <trkpt lat="50.89905" lon="4.62173">
        <ele>33</ele>
      </trkpt>
      <trkpt lat="50.89902" lon="4.62144">
        <ele>32</ele>
      </trkpt>
      <trkpt lat="50.89895" lon="4.6193">
        <ele>32</ele>
      </trkpt>
      <trkpt lat="50.89896" lon="4.61915">
        <ele>32</ele>
      </trkpt>
      <trkpt lat="50.89893" lon="4.6189">
        <ele>32</ele>
      </trkpt>
      <trkpt lat="50.8988" lon="4.61713">
        <ele>32</ele>
      </trkpt>
      <trkpt lat="50.89879" lon="4.61685">
        <ele>32</ele>
      </trkpt>
      <trkpt lat="50.89876" lon="4.61656">
        <ele>31</ele>
      </trkpt>
      <trkpt lat="50.89869" lon="4.61647">
        <ele>31</ele>
      </trkpt>
      <trkpt lat="50.89871" lon="4.6164">
        <ele>31</ele>
      </trkpt>
      <trkpt lat="50.89861" lon="4.6163">
        <ele>31</ele>
      </trkpt>
      <trkpt lat="50.8985" lon="4.61613">
        <ele>31</ele>
      </trkpt>
      <trkpt lat="50.89807" lon="4.615">
        <ele>31</ele>
      </trkpt>
      <trkpt lat="50.89744" lon="4.61323">
        <ele>32</ele>
      </trkpt>
      <trkpt lat="50.89649" lon="4.61116">
        <ele>33</ele>
      </trkpt>
      <trkpt lat="50.89602" lon="4.61049">
        <ele>33</ele>
      </trkpt>
      <trkpt lat="50.89556" lon="4.60997">
        <ele>34</ele>
      </trkpt>
      <trkpt lat="50.89467" lon="4.60892">
        <ele>36</ele>
      </trkpt>
      <trkpt lat="50.89306" lon="4.60704">
        <ele>37</ele>
      </trkpt>
      <trkpt lat="50.8911" lon="4.60475">
        <ele>35</ele>
      </trkpt>
      <trkpt lat="50.88998" lon="4.60338">
        <ele>36</ele>
      </trkpt>
      <trkpt lat="50.88699" lon="4.59931">
        <ele>39</ele>
      </trkpt>
      <trkpt lat="50.88606" lon="4.59804">
        <ele>39</ele>
      </trkpt>
      <trkpt lat="50.88586" lon="4.59767">
        <ele>39</ele>
      </trkpt>
      <trkpt lat="50.88564" lon="4.59719">
        <ele>39</ele>
      </trkpt>
      <trkpt lat="50.88556" lon="4.59707">
        <ele>39</ele>
      </trkpt>
      <trkpt lat="50.88548" lon="4.59699">
        <ele>39</ele>
      </trkpt>
      <trkpt lat="50.88528" lon="4.59687">
        <ele>39</ele>
      </trkpt>
      <trkpt lat="50.88511" lon="4.59672">
        <ele>39</ele>
      </trkpt>
      <trkpt lat="50.88416" lon="4.59508">
        <ele>38</ele>
      </trkpt>
      <trkpt lat="50.88298" lon="4.59299">
        <ele>37</ele>
      </trkpt>
      <trkpt lat="50.8829" lon="4.5928">
        <ele>37</ele>
      </trkpt>
      <trkpt lat="50.8828" lon="4.59245">
        <ele>38</ele>
      </trkpt>
      <trkpt lat="50.88276" lon="4.59233">
        <ele>38</ele>
      </trkpt>
      <trkpt lat="50.88271" lon="4.59193">
        <ele>38</ele>
      </trkpt>
      <trkpt lat="50.88264" lon="4.59101">
        <ele>39</ele>
      </trkpt>
      <trkpt lat="50.88254" lon="4.59057">
        <ele>40</ele>
      </trkpt>
      <trkpt lat="50.88237" lon="4.59015">
        <ele>40</ele>
      </trkpt>
      <trkpt lat="50.88231" lon="4.59003">
        <ele>40</ele>
      </trkpt>
      <trkpt lat="50.88186" lon="4.58927">
        <ele>41</ele>
      </trkpt>
      <trkpt lat="50.88125" lon="4.58816">
        <ele>44</ele>
      </trkpt>
      <trkpt lat="50.88084" lon="4.58736">
        <ele>44</ele>
      </trkpt>
      <trkpt lat="50.88067" lon="4.58698">
        <ele>44</ele>
      </trkpt>
      <trkpt lat="50.88022" lon="4.58613">
        <ele>43</ele>
      </trkpt>
      <trkpt lat="50.88147" lon="4.58463">
        <ele>40</ele>
      </trkpt>
      <trkpt lat="50.88176" lon="4.5842">
        <ele>39</ele>
      </trkpt>
      <trkpt lat="50.88201" lon="4.58382">
        <ele>38</ele>
      </trkpt>
      <trkpt lat="50.88308" lon="4.58191">
        <ele>40</ele>
      </trkpt>
      <trkpt lat="50.88302" lon="4.58173">
        <ele>39</ele>
      </trkpt>
      <trkpt lat="50.88276" lon="4.58078">
        <ele>38</ele>
      </trkpt>
      <trkpt lat="50.8826" lon="4.58019">
        <ele>37</ele>
      </trkpt>
      <trkpt lat="50.88194" lon="4.57805">
        <ele>37</ele>
      </trkpt>
      <trkpt lat="50.88125" lon="4.57644">
        <ele>40</ele>
      </trkpt>
      <trkpt lat="50.88015" lon="4.57443">
        <ele>42</ele>
      </trkpt>
      <trkpt lat="50.8799" lon="4.57392">
        <ele>44</ele>
      </trkpt>
      <trkpt lat="50.87931" lon="4.57211">
        <ele>47</ele>
      </trkpt>
      <trkpt lat="50.87882" lon="4.57121">
        <ele>48</ele>
      </trkpt>
      <trkpt lat="50.87866" lon="4.57102">
        <ele>49</ele>
      </trkpt>
      <trkpt lat="50.87829" lon="4.57074">
        <ele>51</ele>
      </trkpt>
      <trkpt lat="50.87821" lon="4.57058">
        <ele>52</ele>
      </trkpt>
      <trkpt lat="50.87817" lon="4.57044">
        <ele>52</ele>
      </trkpt>
      <trkpt lat="50.8781" lon="4.57023">
        <ele>52</ele>
      </trkpt>
      <trkpt lat="50.87798" lon="4.56991">
        <ele>51</ele>
      </trkpt>
      <trkpt lat="50.87779" lon="4.5695">
        <ele>52</ele>
      </trkpt>
      <trkpt lat="50.87764" lon="4.56923">
        <ele>54</ele>
      </trkpt>
      <trkpt lat="50.87763" lon="4.56923">
        <ele>54</ele>
      </trkpt>
    </trkseg>
  </trk>
</gpx>