<?xml version='1.0' encoding='UTF-8'?>
<gpx xmlns="http://www.topografix.com/GPX/1/1" xmlns:xsi="http://www.w3.org/2001/XMLSchema-instance" creator="RouteYou" version="1.1" xsi:schemaLocation="http://www.topografix.com/GPX/1/1 http://www.topografix.com/GPX/1/1/gpx.xsd">
  <trk>
    <name>Beerzel 2025</name>
    <desc>&lt;p&gt;Van Kruisstraat 44, 3078 Everberg, België&lt;br/&gt;
Naar Kruisstraat 31, 3078 Everberg, België&lt;/p&gt;

&lt;p&gt;Routering Kortste - OSM&lt;/p&gt;</desc>
    <trkseg>
      <trkpt lat="50.87889" lon="4.55163">
        <ele>53</ele>
      </trkpt>
      <trkpt lat="50.87926" lon="4.5547">
        <ele>51</ele>
      </trkpt>
      <trkpt lat="50.87933" lon="4.55516">
        <ele>54</ele>
      </trkpt>
      <trkpt lat="50.87985" lon="4.55718">
        <ele>55</ele>
      </trkpt>
      <trkpt lat="50.88046" lon="4.5608">
        <ele>59</ele>
      </trkpt>
      <trkpt lat="50.88051" lon="4.56137">
        <ele>59</ele>
      </trkpt>
      <trkpt lat="50.88046" lon="4.56202">
        <ele>59</ele>
      </trkpt>
      <trkpt lat="50.88007" lon="4.56408">
        <ele>51</ele>
      </trkpt>
      <trkpt lat="50.88005" lon="4.56437">
        <ele>49</ele>
      </trkpt>
      <trkpt lat="50.88009" lon="4.56619">
        <ele>46</ele>
      </trkpt>
      <trkpt lat="50.88012" lon="4.56619">
        <ele>46</ele>
      </trkpt>
      <trkpt lat="50.88018" lon="4.56624">
        <ele>48</ele>
      </trkpt>
      <trkpt lat="50.8802" lon="4.56633">
        <ele>48</ele>
      </trkpt>
      <trkpt lat="50.88018" lon="4.56641">
        <ele>48</ele>
      </trkpt>
      <trkpt lat="50.88012" lon="4.56647">
        <ele>46</ele>
      </trkpt>
      <trkpt lat="50.88013" lon="4.5667">
        <ele>46</ele>
      </trkpt>
      <trkpt lat="50.88012" lon="4.56689">
        <ele>46</ele>
      </trkpt>
      <trkpt lat="50.8802" lon="4.56788">
        <ele>46</ele>
      </trkpt>
      <trkpt lat="50.88014" lon="4.56811">
        <ele>46</ele>
      </trkpt>
      <trkpt lat="50.87954" lon="4.56903">
        <ele>46</ele>
      </trkpt>
      <trkpt lat="50.87914" lon="4.56977">
        <ele>48</ele>
      </trkpt>
      <trkpt lat="50.87911" lon="4.56987">
        <ele>48</ele>
      </trkpt>
      <trkpt lat="50.8792" lon="4.57054">
        <ele>49</ele>
      </trkpt>
      <trkpt lat="50.87899" lon="4.57089">
        <ele>49</ele>
      </trkpt>
      <trkpt lat="50.87882" lon="4.57121">
        <ele>48</ele>
      </trkpt>
      <trkpt lat="50.87931" lon="4.57211">
        <ele>47</ele>
      </trkpt>
      <trkpt lat="50.8799" lon="4.57392">
        <ele>44</ele>
      </trkpt>
      <trkpt lat="50.88015" lon="4.57443">
        <ele>42</ele>
      </trkpt>
      <trkpt lat="50.88125" lon="4.57644">
        <ele>40</ele>
      </trkpt>
      <trkpt lat="50.88194" lon="4.57805">
        <ele>37</ele>
      </trkpt>
      <trkpt lat="50.88205" lon="4.57839">
        <ele>37</ele>
      </trkpt>
      <trkpt lat="50.8826" lon="4.58019">
        <ele>37</ele>
      </trkpt>
      <trkpt lat="50.88302" lon="4.58173">
        <ele>39</ele>
      </trkpt>
      <trkpt lat="50.88308" lon="4.58191">
        <ele>40</ele>
      </trkpt>
      <trkpt lat="50.88201" lon="4.58382">
        <ele>38</ele>
      </trkpt>
      <trkpt lat="50.88176" lon="4.5842">
        <ele>39</ele>
      </trkpt>
      <trkpt lat="50.88147" lon="4.58463">
        <ele>40</ele>
      </trkpt>
      <trkpt lat="50.88022" lon="4.58613">
        <ele>43</ele>
      </trkpt>
      <trkpt lat="50.88067" lon="4.58698">
        <ele>44</ele>
      </trkpt>
      <trkpt lat="50.88084" lon="4.58736">
        <ele>44</ele>
      </trkpt>
      <trkpt lat="50.88141" lon="4.58846">
        <ele>44</ele>
      </trkpt>
      <trkpt lat="50.88186" lon="4.58927">
        <ele>41</ele>
      </trkpt>
      <trkpt lat="50.88231" lon="4.59003">
        <ele>40</ele>
      </trkpt>
      <trkpt lat="50.88237" lon="4.59015">
        <ele>40</ele>
      </trkpt>
      <trkpt lat="50.88254" lon="4.59057">
        <ele>40</ele>
      </trkpt>
      <trkpt lat="50.88264" lon="4.59101">
        <ele>39</ele>
      </trkpt>
      <trkpt lat="50.88271" lon="4.59193">
        <ele>38</ele>
      </trkpt>
      <trkpt lat="50.88276" lon="4.59233">
        <ele>38</ele>
      </trkpt>
      <trkpt lat="50.8829" lon="4.5928">
        <ele>37</ele>
      </trkpt>
      <trkpt lat="50.88298" lon="4.59299">
        <ele>37</ele>
      </trkpt>
      <trkpt lat="50.88315" lon="4.59329">
        <ele>38</ele>
      </trkpt>
      <trkpt lat="50.88511" lon="4.59672">
        <ele>39</ele>
      </trkpt>
      <trkpt lat="50.88528" lon="4.59687">
        <ele>39</ele>
      </trkpt>
      <trkpt lat="50.88548" lon="4.59699">
        <ele>39</ele>
      </trkpt>
      <trkpt lat="50.88556" lon="4.59707">
        <ele>39</ele>
      </trkpt>
      <trkpt lat="50.88564" lon="4.59719">
        <ele>39</ele>
      </trkpt>
      <trkpt lat="50.88586" lon="4.59767">
        <ele>39</ele>
      </trkpt>
      <trkpt lat="50.88606" lon="4.59804">
        <ele>39</ele>
      </trkpt>
      <trkpt lat="50.88907" lon="4.60215">
        <ele>36</ele>
      </trkpt>
      <trkpt lat="50.88907" lon="4.60214">
        <ele>36</ele>
      </trkpt>
      <trkpt lat="50.88998" lon="4.60338">
        <ele>36</ele>
      </trkpt>
      <trkpt lat="50.89044" lon="4.60396">
        <ele>35</ele>
      </trkpt>
      <trkpt lat="50.89337" lon="4.60741">
        <ele>37</ele>
      </trkpt>
      <trkpt lat="50.89556" lon="4.60997">
        <ele>34</ele>
      </trkpt>
      <trkpt lat="50.89589" lon="4.61033">
        <ele>34</ele>
      </trkpt>
      <trkpt lat="50.89602" lon="4.61049">
        <ele>33</ele>
      </trkpt>
      <trkpt lat="50.89649" lon="4.61116">
        <ele>33</ele>
      </trkpt>
      <trkpt lat="50.89679" lon="4.61181">
        <ele>34</ele>
      </trkpt>
      <trkpt lat="50.89744" lon="4.61323">
        <ele>32</ele>
      </trkpt>
      <trkpt lat="50.89807" lon="4.615">
        <ele>31</ele>
      </trkpt>
      <trkpt lat="50.8985" lon="4.61613">
        <ele>31</ele>
      </trkpt>
      <trkpt lat="50.89861" lon="4.6163">
        <ele>31</ele>
      </trkpt>
      <trkpt lat="50.89871" lon="4.6164">
        <ele>31</ele>
      </trkpt>
      <trkpt lat="50.89873" lon="4.61635">
        <ele>31</ele>
      </trkpt>
      <trkpt lat="50.89887" lon="4.61645">
        <ele>31</ele>
      </trkpt>
      <trkpt lat="50.89924" lon="4.61662">
        <ele>32</ele>
      </trkpt>
      <trkpt lat="50.89984" lon="4.61687">
        <ele>31</ele>
      </trkpt>
      <trkpt lat="50.89983" lon="4.61694">
        <ele>31</ele>
      </trkpt>
      <trkpt lat="50.90001" lon="4.61706">
        <ele>31</ele>
      </trkpt>
      <trkpt lat="50.90013" lon="4.61722">
        <ele>31</ele>
      </trkpt>
      <trkpt lat="50.90022" lon="4.61739">
        <ele>30</ele>
      </trkpt>
      <trkpt lat="50.90032" lon="4.61771">
        <ele>30</ele>
      </trkpt>
      <trkpt lat="50.90038" lon="4.618">
        <ele>30</ele>
      </trkpt>
      <trkpt lat="50.90061" lon="4.61899">
        <ele>30</ele>
      </trkpt>
      <trkpt lat="50.90083" lon="4.6201">
        <ele>30</ele>
      </trkpt>
      <trkpt lat="50.90107" lon="4.62174">
        <ele>30</ele>
      </trkpt>
      <trkpt lat="50.90118" lon="4.62245">
        <ele>30</ele>
      </trkpt>
      <trkpt lat="50.90126" lon="4.62264">
        <ele>30</ele>
      </trkpt>
      <trkpt lat="50.90334" lon="4.62151">
        <ele>28</ele>
      </trkpt>
      <trkpt lat="50.90356" lon="4.62133">
        <ele>28</ele>
      </trkpt>
      <trkpt lat="50.90399" lon="4.62115">
        <ele>27</ele>
      </trkpt>
      <trkpt lat="50.90616" lon="4.62084">
        <ele>26</ele>
      </trkpt>
      <trkpt lat="50.90629" lon="4.62077">
        <ele>26</ele>
      </trkpt>
      <trkpt lat="50.90671" lon="4.62022">
        <ele>25</ele>
      </trkpt>
      <trkpt lat="50.90681" lon="4.6201">
        <ele>25</ele>
      </trkpt>
      <trkpt lat="50.90965" lon="4.61752">
        <ele>22</ele>
      </trkpt>
      <trkpt lat="50.91047" lon="4.6169">
        <ele>22</ele>
      </trkpt>
      <trkpt lat="50.91087" lon="4.61666">
        <ele>22</ele>
      </trkpt>
      <trkpt lat="50.91278" lon="4.61563">
        <ele>21</ele>
      </trkpt>
      <trkpt lat="50.91321" lon="4.61543">
        <ele>21</ele>
      </trkpt>
      <trkpt lat="50.91357" lon="4.61531">
        <ele>21</ele>
      </trkpt>
      <trkpt lat="50.91396" lon="4.61528">
        <ele>20</ele>
      </trkpt>
      <trkpt lat="50.91451" lon="4.61526">
        <ele>20</ele>
      </trkpt>
      <trkpt lat="50.91494" lon="4.61516">
        <ele>20</ele>
      </trkpt>
      <trkpt lat="50.91659" lon="4.61457">
        <ele>19</ele>
      </trkpt>
      <trkpt lat="50.91793" lon="4.61413">
        <ele>20</ele>
      </trkpt>
      <trkpt lat="50.91836" lon="4.61409">
        <ele>20</ele>
      </trkpt>
      <trkpt lat="50.91872" lon="4.61413">
        <ele>20</ele>
      </trkpt>
      <trkpt lat="50.91895" lon="4.61421">
        <ele>20</ele>
      </trkpt>
      <trkpt lat="50.91977" lon="4.61454">
        <ele>19</ele>
      </trkpt>
      <trkpt lat="50.92" lon="4.6146">
        <ele>20</ele>
      </trkpt>
      <trkpt lat="50.92039" lon="4.61463">
        <ele>21</ele>
      </trkpt>
      <trkpt lat="50.92174" lon="4.61452">
        <ele>20</ele>
      </trkpt>
      <trkpt lat="50.92194" lon="4.61454">
        <ele>19</ele>
      </trkpt>
      <trkpt lat="50.92218" lon="4.61457">
        <ele>18</ele>
      </trkpt>
      <trkpt lat="50.92237" lon="4.61464">
        <ele>18</ele>
      </trkpt>
      <trkpt lat="50.92257" lon="4.61474">
        <ele>18</ele>
      </trkpt>
      <trkpt lat="50.92296" lon="4.61507">
        <ele>18</ele>
      </trkpt>
      <trkpt lat="50.92331" lon="4.61549">
        <ele>18</ele>
      </trkpt>
      <trkpt lat="50.92371" lon="4.61603">
        <ele>17</ele>
      </trkpt>
      <trkpt lat="50.92412" lon="4.61646">
        <ele>17</ele>
      </trkpt>
      <trkpt lat="50.9249" lon="4.61709">
        <ele>17</ele>
      </trkpt>
      <trkpt lat="50.92623" lon="4.61806">
        <ele>17</ele>
      </trkpt>
      <trkpt lat="50.92661" lon="4.61822">
        <ele>17</ele>
      </trkpt>
      <trkpt lat="50.92652" lon="4.6201">
        <ele>17</ele>
      </trkpt>
      <trkpt lat="50.92651" lon="4.62083">
        <ele>17</ele>
      </trkpt>
      <trkpt lat="50.92639" lon="4.62378">
        <ele>18</ele>
      </trkpt>
      <trkpt lat="50.92682" lon="4.6239">
        <ele>18</ele>
      </trkpt>
      <trkpt lat="50.92706" lon="4.62393">
        <ele>17</ele>
      </trkpt>
      <trkpt lat="50.92716" lon="4.62611">
        <ele>17</ele>
      </trkpt>
      <trkpt lat="50.92724" lon="4.62767">
        <ele>17</ele>
      </trkpt>
      <trkpt lat="50.92731" lon="4.62857">
        <ele>18</ele>
      </trkpt>
      <trkpt lat="50.92757" lon="4.63036">
        <ele>18</ele>
      </trkpt>
      <trkpt lat="50.92756" lon="4.63051">
        <ele>18</ele>
      </trkpt>
      <trkpt lat="50.92815" lon="4.63084">
        <ele>17</ele>
      </trkpt>
      <trkpt lat="50.92834" lon="4.63089">
        <ele>17</ele>
      </trkpt>
      <trkpt lat="50.92858" lon="4.6309">
        <ele>17</ele>
      </trkpt>
      <trkpt lat="50.93143" lon="4.63045">
        <ele>17</ele>
      </trkpt>
      <trkpt lat="50.93151" lon="4.63048">
        <ele>18</ele>
      </trkpt>
      <trkpt lat="50.93161" lon="4.63055">
        <ele>18</ele>
      </trkpt>
      <trkpt lat="50.93207" lon="4.63109">
        <ele>17</ele>
      </trkpt>
      <trkpt lat="50.93302" lon="4.63265">
        <ele>17</ele>
      </trkpt>
      <trkpt lat="50.93316" lon="4.63289">
        <ele>17</ele>
      </trkpt>
      <trkpt lat="50.93329" lon="4.63327">
        <ele>17</ele>
      </trkpt>
      <trkpt lat="50.93366" lon="4.63483">
        <ele>17</ele>
      </trkpt>
      <trkpt lat="50.93434" lon="4.63744">
        <ele>16</ele>
      </trkpt>
      <trkpt lat="50.93438" lon="4.63769">
        <ele>16</ele>
      </trkpt>
      <trkpt lat="50.93438" lon="4.63789">
        <ele>16</ele>
      </trkpt>
      <trkpt lat="50.93434" lon="4.63844">
        <ele>15</ele>
      </trkpt>
      <trkpt lat="50.93434" lon="4.63874">
        <ele>15</ele>
      </trkpt>
      <trkpt lat="50.93437" lon="4.63955">
        <ele>15</ele>
      </trkpt>
      <trkpt lat="50.9344" lon="4.64009">
        <ele>16</ele>
      </trkpt>
      <trkpt lat="50.93443" lon="4.64018">
        <ele>16</ele>
      </trkpt>
      <trkpt lat="50.93448" lon="4.64023">
        <ele>16</ele>
      </trkpt>
      <trkpt lat="50.93455" lon="4.64024">
        <ele>16</ele>
      </trkpt>
      <trkpt lat="50.93651" lon="4.63953">
        <ele>16</ele>
      </trkpt>
      <trkpt lat="50.93679" lon="4.63937">
        <ele>16</ele>
      </trkpt>
      <trkpt lat="50.93714" lon="4.6391">
        <ele>15</ele>
      </trkpt>
      <trkpt lat="50.93806" lon="4.63817">
        <ele>15</ele>
      </trkpt>
      <trkpt lat="50.93824" lon="4.63802">
        <ele>15</ele>
      </trkpt>
      <trkpt lat="50.9383" lon="4.63799">
        <ele>15</ele>
      </trkpt>
      <trkpt lat="50.93836" lon="4.638">
        <ele>15</ele>
      </trkpt>
      <trkpt lat="50.93847" lon="4.63806">
        <ele>15</ele>
      </trkpt>
      <trkpt lat="50.93853" lon="4.63812">
        <ele>15</ele>
      </trkpt>
      <trkpt lat="50.94156" lon="4.64226">
        <ele>14</ele>
      </trkpt>
      <trkpt lat="50.94241" lon="4.64336">
        <ele>14</ele>
      </trkpt>
      <trkpt lat="50.94264" lon="4.64366">
        <ele>14</ele>
      </trkpt>
      <trkpt lat="50.94323" lon="4.64458">
        <ele>14</ele>
      </trkpt>
      <trkpt lat="50.94328" lon="4.64463">
        <ele>14</ele>
      </trkpt>
      <trkpt lat="50.94476" lon="4.64505">
        <ele>15</ele>
      </trkpt>
      <trkpt lat="50.94502" lon="4.64502">
        <ele>15</ele>
      </trkpt>
      <trkpt lat="50.94514" lon="4.64496">
        <ele>15</ele>
      </trkpt>
      <trkpt lat="50.94591" lon="4.64425">
        <ele>15</ele>
      </trkpt>
      <trkpt lat="50.94684" lon="4.64343">
        <ele>14</ele>
      </trkpt>
      <trkpt lat="50.94688" lon="4.64348">
        <ele>14</ele>
      </trkpt>
      <trkpt lat="50.94697" lon="4.64324">
        <ele>14</ele>
      </trkpt>
      <trkpt lat="50.94715" lon="4.64245">
        <ele>14</ele>
      </trkpt>
      <trkpt lat="50.94697" lon="4.64324">
        <ele>14</ele>
      </trkpt>
      <trkpt lat="50.94688" lon="4.64348">
        <ele>14</ele>
      </trkpt>
      <trkpt lat="50.94725" lon="4.64364">
        <ele>13</ele>
      </trkpt>
      <trkpt lat="50.94657" lon="4.64733">
        <ele>14</ele>
      </trkpt>
      <trkpt lat="50.94662" lon="4.64735">
        <ele>14</ele>
      </trkpt>
      <trkpt lat="50.94668" lon="4.64755">
        <ele>14</ele>
      </trkpt>
      <trkpt lat="50.94683" lon="4.64832">
        <ele>13</ele>
      </trkpt>
      <trkpt lat="50.94819" lon="4.65539">
        <ele>11</ele>
      </trkpt>
      <trkpt lat="50.94834" lon="4.65624">
        <ele>11</ele>
      </trkpt>
      <trkpt lat="50.94836" lon="4.65651">
        <ele>11</ele>
      </trkpt>
      <trkpt lat="50.94843" lon="4.65769">
        <ele>11</ele>
      </trkpt>
      <trkpt lat="50.94845" lon="4.65918">
        <ele>12</ele>
      </trkpt>
      <trkpt lat="50.94849" lon="4.66054">
        <ele>12</ele>
      </trkpt>
      <trkpt lat="50.94856" lon="4.66106">
        <ele>12</ele>
      </trkpt>
      <trkpt lat="50.94874" lon="4.66185">
        <ele>12</ele>
      </trkpt>
      <trkpt lat="50.94902" lon="4.66281">
        <ele>12</ele>
      </trkpt>
      <trkpt lat="50.94923" lon="4.66372">
        <ele>12</ele>
      </trkpt>
      <trkpt lat="50.94935" lon="4.66465">
        <ele>11</ele>
      </trkpt>
      <trkpt lat="50.9494" lon="4.66486">
        <ele>11</ele>
      </trkpt>
      <trkpt lat="50.94948" lon="4.66498">
        <ele>11</ele>
      </trkpt>
      <trkpt lat="50.9496" lon="4.66513">
        <ele>11</ele>
      </trkpt>
      <trkpt lat="50.94979" lon="4.66529">
        <ele>11</ele>
      </trkpt>
      <trkpt lat="50.94988" lon="4.66534">
        <ele>11</ele>
      </trkpt>
      <trkpt lat="50.95002" lon="4.66541">
        <ele>11</ele>
      </trkpt>
      <trkpt lat="50.95013" lon="4.66539">
        <ele>11</ele>
      </trkpt>
      <trkpt lat="50.95031" lon="4.66481">
        <ele>10</ele>
      </trkpt>
      <trkpt lat="50.95036" lon="4.66469">
        <ele>10</ele>
      </trkpt>
      <trkpt lat="50.95079" lon="4.66413">
        <ele>10</ele>
      </trkpt>
      <trkpt lat="50.95106" lon="4.66366">
        <ele>11</ele>
      </trkpt>
      <trkpt lat="50.95124" lon="4.66317">
        <ele>11</ele>
      </trkpt>
      <trkpt lat="50.9514" lon="4.66261">
        <ele>11</ele>
      </trkpt>
      <trkpt lat="50.95183" lon="4.66142">
        <ele>11</ele>
      </trkpt>
      <trkpt lat="50.9522" lon="4.66081">
        <ele>11</ele>
      </trkpt>
      <trkpt lat="50.9528" lon="4.65975">
        <ele>10</ele>
      </trkpt>
      <trkpt lat="50.95405" lon="4.65746">
        <ele>9</ele>
      </trkpt>
      <trkpt lat="50.95414" lon="4.65724">
        <ele>9</ele>
      </trkpt>
      <trkpt lat="50.95431" lon="4.65667">
        <ele>9</ele>
      </trkpt>
      <trkpt lat="50.95446" lon="4.65669">
        <ele>9</ele>
      </trkpt>
      <trkpt lat="50.95482" lon="4.6571">
        <ele>9</ele>
      </trkpt>
      <trkpt lat="50.95492" lon="4.65711">
        <ele>9</ele>
      </trkpt>
      <trkpt lat="50.95502" lon="4.65707">
        <ele>9</ele>
      </trkpt>
      <trkpt lat="50.95593" lon="4.656">
        <ele>11</ele>
      </trkpt>
      <trkpt lat="50.95601" lon="4.65595">
        <ele>11</ele>
      </trkpt>
      <trkpt lat="50.95625" lon="4.65592">
        <ele>11</ele>
      </trkpt>
      <trkpt lat="50.95639" lon="4.65592">
        <ele>11</ele>
      </trkpt>
      <trkpt lat="50.95658" lon="4.65595">
        <ele>11</ele>
      </trkpt>
      <trkpt lat="50.95676" lon="4.65633">
        <ele>11</ele>
      </trkpt>
      <trkpt lat="50.957" lon="4.6567">
        <ele>11</ele>
      </trkpt>
      <trkpt lat="50.95711" lon="4.65683">
        <ele>11</ele>
      </trkpt>
      <trkpt lat="50.95721" lon="4.65683">
        <ele>11</ele>
      </trkpt>
      <trkpt lat="50.95726" lon="4.65581">
        <ele>12</ele>
      </trkpt>
      <trkpt lat="50.95736" lon="4.65588">
        <ele>12</ele>
      </trkpt>
      <trkpt lat="50.95747" lon="4.65596">
        <ele>12</ele>
      </trkpt>
      <trkpt lat="50.95768" lon="4.65604">
        <ele>11</ele>
      </trkpt>
      <trkpt lat="50.95788" lon="4.65609">
        <ele>11</ele>
      </trkpt>
      <trkpt lat="50.9581" lon="4.65605">
        <ele>11</ele>
      </trkpt>
      <trkpt lat="50.95848" lon="4.65594">
        <ele>10</ele>
      </trkpt>
      <trkpt lat="50.95867" lon="4.65595">
        <ele>9</ele>
      </trkpt>
      <trkpt lat="50.95894" lon="4.6561">
        <ele>9</ele>
      </trkpt>
      <trkpt lat="50.95955" lon="4.65661">
        <ele>9</ele>
      </trkpt>
      <trkpt lat="50.96002" lon="4.65708">
        <ele>9</ele>
      </trkpt>
      <trkpt lat="50.96043" lon="4.6574">
        <ele>9</ele>
      </trkpt>
      <trkpt lat="50.96045" lon="4.65744">
        <ele>9</ele>
      </trkpt>
      <trkpt lat="50.96045" lon="4.65752">
        <ele>8</ele>
      </trkpt>
      <trkpt lat="50.9604" lon="4.65759">
        <ele>8</ele>
      </trkpt>
      <trkpt lat="50.96023" lon="4.65801">
        <ele>8</ele>
      </trkpt>
      <trkpt lat="50.96019" lon="4.65826">
        <ele>8</ele>
      </trkpt>
      <trkpt lat="50.96012" lon="4.65864">
        <ele>8</ele>
      </trkpt>
      <trkpt lat="50.96012" lon="4.65879">
        <ele>8</ele>
      </trkpt>
      <trkpt lat="50.96015" lon="4.65891">
        <ele>8</ele>
      </trkpt>
      <trkpt lat="50.96061" lon="4.65934">
        <ele>8</ele>
      </trkpt>
      <trkpt lat="50.96094" lon="4.6597">
        <ele>8</ele>
      </trkpt>
      <trkpt lat="50.9617" lon="4.66069">
        <ele>7</ele>
      </trkpt>
      <trkpt lat="50.9621" lon="4.66135">
        <ele>7</ele>
      </trkpt>
      <trkpt lat="50.96255" lon="4.66196">
        <ele>7</ele>
      </trkpt>
      <trkpt lat="50.96303" lon="4.66256">
        <ele>7</ele>
      </trkpt>
      <trkpt lat="50.96323" lon="4.6623">
        <ele>7</ele>
      </trkpt>
      <trkpt lat="50.96345" lon="4.66208">
        <ele>7</ele>
      </trkpt>
      <trkpt lat="50.96361" lon="4.662">
        <ele>7</ele>
      </trkpt>
      <trkpt lat="50.964" lon="4.66195">
        <ele>7</ele>
      </trkpt>
      <trkpt lat="50.96623" lon="4.66189">
        <ele>7</ele>
      </trkpt>
      <trkpt lat="50.96889" lon="4.66182">
        <ele>8</ele>
      </trkpt>
      <trkpt lat="50.96931" lon="4.66172">
        <ele>8</ele>
      </trkpt>
      <trkpt lat="50.96982" lon="4.66153">
        <ele>9</ele>
      </trkpt>
      <trkpt lat="50.97154" lon="4.66046">
        <ele>8</ele>
      </trkpt>
      <trkpt lat="50.97167" lon="4.6604">
        <ele>8</ele>
      </trkpt>
      <trkpt lat="50.97198" lon="4.66037">
        <ele>8</ele>
      </trkpt>
      <trkpt lat="50.97245" lon="4.66045">
        <ele>8</ele>
      </trkpt>
      <trkpt lat="50.9726" lon="4.66049">
        <ele>7</ele>
      </trkpt>
      <trkpt lat="50.97269" lon="4.66056">
        <ele>7</ele>
      </trkpt>
      <trkpt lat="50.97288" lon="4.66064">
        <ele>7</ele>
      </trkpt>
      <trkpt lat="50.97291" lon="4.66064">
        <ele>7</ele>
      </trkpt>
      <trkpt lat="50.97463" lon="4.66032">
        <ele>8</ele>
      </trkpt>
      <trkpt lat="50.97489" lon="4.66023">
        <ele>8</ele>
      </trkpt>
      <trkpt lat="50.97517" lon="4.66011">
        <ele>8</ele>
      </trkpt>
      <trkpt lat="50.97585" lon="4.65976">
        <ele>8</ele>
      </trkpt>
      <trkpt lat="50.976" lon="4.66042">
        <ele>8</ele>
      </trkpt>
      <trkpt lat="50.97635" lon="4.66174">
        <ele>7</ele>
      </trkpt>
      <trkpt lat="50.97639" lon="4.66202">
        <ele>7</ele>
      </trkpt>
      <trkpt lat="50.97664" lon="4.66199">
        <ele>7</ele>
      </trkpt>
      <trkpt lat="50.97811" lon="4.66186">
        <ele>6</ele>
      </trkpt>
      <trkpt lat="50.97818" lon="4.66183">
        <ele>6</ele>
      </trkpt>
      <trkpt lat="50.97829" lon="4.66166">
        <ele>6</ele>
      </trkpt>
      <trkpt lat="50.97834" lon="4.66155">
        <ele>7</ele>
      </trkpt>
      <trkpt lat="50.9784" lon="4.66151">
        <ele>7</ele>
      </trkpt>
      <trkpt lat="50.97868" lon="4.66145">
        <ele>6</ele>
      </trkpt>
      <trkpt lat="50.97889" lon="4.66144">
        <ele>6</ele>
      </trkpt>
      <trkpt lat="50.97913" lon="4.6615">
        <ele>6</ele>
      </trkpt>
      <trkpt lat="50.97948" lon="4.66166">
        <ele>5</ele>
      </trkpt>
      <trkpt lat="50.98035" lon="4.66176">
        <ele>6</ele>
      </trkpt>
      <trkpt lat="50.98072" lon="4.66177">
        <ele>6</ele>
      </trkpt>
      <trkpt lat="50.98127" lon="4.66161">
        <ele>8</ele>
      </trkpt>
      <trkpt lat="50.98163" lon="4.66148">
        <ele>8</ele>
      </trkpt>
      <trkpt lat="50.98181" lon="4.66141">
        <ele>8</ele>
      </trkpt>
      <trkpt lat="50.98223" lon="4.66133">
        <ele>7</ele>
      </trkpt>
      <trkpt lat="50.98242" lon="4.66134">
        <ele>7</ele>
      </trkpt>
      <trkpt lat="50.9829" lon="4.66143">
        <ele>6</ele>
      </trkpt>
      <trkpt lat="50.98314" lon="4.66144">
        <ele>6</ele>
      </trkpt>
      <trkpt lat="50.98345" lon="4.66135">
        <ele>7</ele>
      </trkpt>
      <trkpt lat="50.98363" lon="4.66125">
        <ele>7</ele>
      </trkpt>
      <trkpt lat="50.98368" lon="4.66119">
        <ele>7</ele>
      </trkpt>
      <trkpt lat="50.9837" lon="4.66111">
        <ele>7</ele>
      </trkpt>
      <trkpt lat="50.9837" lon="4.66096">
        <ele>7</ele>
      </trkpt>
      <trkpt lat="50.98368" lon="4.66079">
        <ele>7</ele>
      </trkpt>
      <trkpt lat="50.98332" lon="4.65881">
        <ele>8</ele>
      </trkpt>
      <trkpt lat="50.9833" lon="4.65867">
        <ele>8</ele>
      </trkpt>
      <trkpt lat="50.98331" lon="4.65848">
        <ele>8</ele>
      </trkpt>
      <trkpt lat="50.98337" lon="4.65823">
        <ele>8</ele>
      </trkpt>
      <trkpt lat="50.98349" lon="4.65799">
        <ele>8</ele>
      </trkpt>
      <trkpt lat="50.98363" lon="4.65784">
        <ele>9</ele>
      </trkpt>
      <trkpt lat="50.98322" lon="4.6569">
        <ele>9</ele>
      </trkpt>
      <trkpt lat="50.98298" lon="4.6563">
        <ele>9</ele>
      </trkpt>
      <trkpt lat="50.98208" lon="4.65474">
        <ele>10</ele>
      </trkpt>
      <trkpt lat="50.98197" lon="4.65453">
        <ele>9</ele>
      </trkpt>
      <trkpt lat="50.98182" lon="4.6543">
        <ele>9</ele>
      </trkpt>
      <trkpt lat="50.98114" lon="4.65335">
        <ele>8</ele>
      </trkpt>
      <trkpt lat="50.98099" lon="4.6532">
        <ele>7</ele>
      </trkpt>
      <trkpt lat="50.9808" lon="4.65312">
        <ele>7</ele>
      </trkpt>
      <trkpt lat="50.98036" lon="4.65305">
        <ele>7</ele>
      </trkpt>
      <trkpt lat="50.98026" lon="4.65296">
        <ele>7</ele>
      </trkpt>
      <trkpt lat="50.98017" lon="4.65275">
        <ele>7</ele>
      </trkpt>
      <trkpt lat="50.97983" lon="4.65138">
        <ele>7</ele>
      </trkpt>
      <trkpt lat="50.97977" lon="4.65097">
        <ele>7</ele>
      </trkpt>
      <trkpt lat="50.97977" lon="4.65075">
        <ele>6</ele>
      </trkpt>
      <trkpt lat="50.9798" lon="4.65044">
        <ele>7</ele>
      </trkpt>
      <trkpt lat="50.97991" lon="4.65">
        <ele>6</ele>
      </trkpt>
      <trkpt lat="50.97998" lon="4.64981">
        <ele>6</ele>
      </trkpt>
      <trkpt lat="50.98011" lon="4.64958">
        <ele>6</ele>
      </trkpt>
      <trkpt lat="50.98069" lon="4.64875">
        <ele>6</ele>
      </trkpt>
      <trkpt lat="50.98063" lon="4.64866">
        <ele>6</ele>
      </trkpt>
      <trkpt lat="50.98069" lon="4.64875">
        <ele>6</ele>
      </trkpt>
      <trkpt lat="50.98092" lon="4.64842">
        <ele>6</ele>
      </trkpt>
      <trkpt lat="50.98118" lon="4.64798">
        <ele>7</ele>
      </trkpt>
      <trkpt lat="50.98229" lon="4.64583">
        <ele>8</ele>
      </trkpt>
      <trkpt lat="50.9824" lon="4.64555">
        <ele>8</ele>
      </trkpt>
      <trkpt lat="50.98248" lon="4.64523">
        <ele>8</ele>
      </trkpt>
      <trkpt lat="50.98279" lon="4.64354">
        <ele>7</ele>
      </trkpt>
      <trkpt lat="50.98288" lon="4.6434">
        <ele>7</ele>
      </trkpt>
      <trkpt lat="50.98293" lon="4.64321">
        <ele>7</ele>
      </trkpt>
      <trkpt lat="50.98308" lon="4.64325">
        <ele>7</ele>
      </trkpt>
      <trkpt lat="50.98333" lon="4.64326">
        <ele>7</ele>
      </trkpt>
      <trkpt lat="50.98368" lon="4.64323">
        <ele>7</ele>
      </trkpt>
      <trkpt lat="50.9844" lon="4.64307">
        <ele>7</ele>
      </trkpt>
      <trkpt lat="50.98461" lon="4.64309">
        <ele>7</ele>
      </trkpt>
      <trkpt lat="50.98495" lon="4.64316">
        <ele>7</ele>
      </trkpt>
      <trkpt lat="50.98523" lon="4.64328">
        <ele>7</ele>
      </trkpt>
      <trkpt lat="50.98697" lon="4.64432">
        <ele>8</ele>
      </trkpt>
      <trkpt lat="50.98745" lon="4.64459">
        <ele>8</ele>
      </trkpt>
      <trkpt lat="50.98766" lon="4.64469">
        <ele>8</ele>
      </trkpt>
      <trkpt lat="50.98874" lon="4.64494">
        <ele>10</ele>
      </trkpt>
      <trkpt lat="50.99094" lon="4.64555">
        <ele>14</ele>
      </trkpt>
      <trkpt lat="50.99096" lon="4.64484">
        <ele>15</ele>
      </trkpt>
      <trkpt lat="50.99102" lon="4.64425">
        <ele>15</ele>
      </trkpt>
      <trkpt lat="50.9911" lon="4.64378">
        <ele>15</ele>
      </trkpt>
      <trkpt lat="50.99124" lon="4.64362">
        <ele>14</ele>
      </trkpt>
      <trkpt lat="50.9914" lon="4.64355">
        <ele>14</ele>
      </trkpt>
      <trkpt lat="50.99174" lon="4.64361">
        <ele>14</ele>
      </trkpt>
      <trkpt lat="50.99215" lon="4.64366">
        <ele>13</ele>
      </trkpt>
      <trkpt lat="50.99273" lon="4.64363">
        <ele>12</ele>
      </trkpt>
      <trkpt lat="50.99294" lon="4.64366">
        <ele>11</ele>
      </trkpt>
      <trkpt lat="50.99357" lon="4.64392">
        <ele>12</ele>
      </trkpt>
      <trkpt lat="50.99358" lon="4.64362">
        <ele>12</ele>
      </trkpt>
      <trkpt lat="50.99363" lon="4.64324">
        <ele>13</ele>
      </trkpt>
      <trkpt lat="50.99392" lon="4.64107">
        <ele>15</ele>
      </trkpt>
      <trkpt lat="50.99393" lon="4.64078">
        <ele>15</ele>
      </trkpt>
      <trkpt lat="50.99383" lon="4.63949">
        <ele>14</ele>
      </trkpt>
      <trkpt lat="50.99387" lon="4.63915">
        <ele>14</ele>
      </trkpt>
      <trkpt lat="50.99434" lon="4.63758">
        <ele>12</ele>
      </trkpt>
      <trkpt lat="50.99439" lon="4.63729">
        <ele>11</ele>
      </trkpt>
      <trkpt lat="50.99444" lon="4.63687">
        <ele>10</ele>
      </trkpt>
      <trkpt lat="50.99451" lon="4.6366">
        <ele>10</ele>
      </trkpt>
      <trkpt lat="50.99457" lon="4.63641">
        <ele>10</ele>
      </trkpt>
      <trkpt lat="50.99471" lon="4.6361">
        <ele>10</ele>
      </trkpt>
      <trkpt lat="50.99489" lon="4.63582">
        <ele>10</ele>
      </trkpt>
      <trkpt lat="50.99494" lon="4.63579">
        <ele>10</ele>
      </trkpt>
      <trkpt lat="50.99512" lon="4.63547">
        <ele>10</ele>
      </trkpt>
      <trkpt lat="50.99616" lon="4.63352">
        <ele>11</ele>
      </trkpt>
      <trkpt lat="50.99644" lon="4.63283">
        <ele>10</ele>
      </trkpt>
      <trkpt lat="50.99704" lon="4.63119">
        <ele>9</ele>
      </trkpt>
      <trkpt lat="50.99709" lon="4.63098">
        <ele>9</ele>
      </trkpt>
      <trkpt lat="50.99718" lon="4.6304">
        <ele>8</ele>
      </trkpt>
      <trkpt lat="50.99724" lon="4.63017">
        <ele>8</ele>
      </trkpt>
      <trkpt lat="50.99691" lon="4.62951">
        <ele>8</ele>
      </trkpt>
      <trkpt lat="50.99685" lon="4.62932">
        <ele>7</ele>
      </trkpt>
      <trkpt lat="50.99681" lon="4.62911">
        <ele>7</ele>
      </trkpt>
      <trkpt lat="50.99674" lon="4.62778">
        <ele>7</ele>
      </trkpt>
      <trkpt lat="50.99662" lon="4.62643">
        <ele>6</ele>
      </trkpt>
      <trkpt lat="50.99652" lon="4.62579">
        <ele>6</ele>
      </trkpt>
      <trkpt lat="50.99655" lon="4.62577">
        <ele>5</ele>
      </trkpt>
      <trkpt lat="50.99652" lon="4.62579">
        <ele>6</ele>
      </trkpt>
      <trkpt lat="50.99643" lon="4.62543">
        <ele>6</ele>
      </trkpt>
      <trkpt lat="50.99614" lon="4.62467">
        <ele>5</ele>
      </trkpt>
      <trkpt lat="50.99613" lon="4.62442">
        <ele>5</ele>
      </trkpt>
      <trkpt lat="50.99635" lon="4.62371">
        <ele>5</ele>
      </trkpt>
      <trkpt lat="50.99638" lon="4.62343">
        <ele>5</ele>
      </trkpt>
      <trkpt lat="50.9964" lon="4.62306">
        <ele>6</ele>
      </trkpt>
      <trkpt lat="50.99629" lon="4.62277">
        <ele>7</ele>
      </trkpt>
      <trkpt lat="50.99605" lon="4.62247">
        <ele>7</ele>
      </trkpt>
      <trkpt lat="50.99571" lon="4.62226">
        <ele>8</ele>
      </trkpt>
      <trkpt lat="50.99556" lon="4.62211">
        <ele>8</ele>
      </trkpt>
      <trkpt lat="50.99548" lon="4.62195">
        <ele>8</ele>
      </trkpt>
      <trkpt lat="50.99545" lon="4.62182">
        <ele>8</ele>
      </trkpt>
      <trkpt lat="50.9954" lon="4.62124">
        <ele>10</ele>
      </trkpt>
      <trkpt lat="50.99525" lon="4.62">
        <ele>11</ele>
      </trkpt>
      <trkpt lat="50.99526" lon="4.61945">
        <ele>12</ele>
      </trkpt>
      <trkpt lat="50.99529" lon="4.61905">
        <ele>12</ele>
      </trkpt>
      <trkpt lat="50.99529" lon="4.61863">
        <ele>12</ele>
      </trkpt>
      <trkpt lat="50.99527" lon="4.61843">
        <ele>12</ele>
      </trkpt>
      <trkpt lat="50.99524" lon="4.61819">
        <ele>10</ele>
      </trkpt>
      <trkpt lat="50.99512" lon="4.61771">
        <ele>8</ele>
      </trkpt>
      <trkpt lat="50.99493" lon="4.61733">
        <ele>7</ele>
      </trkpt>
      <trkpt lat="50.99475" lon="4.61706">
        <ele>6</ele>
      </trkpt>
      <trkpt lat="50.99459" lon="4.61675">
        <ele>6</ele>
      </trkpt>
      <trkpt lat="50.99449" lon="4.61647">
        <ele>6</ele>
      </trkpt>
      <trkpt lat="50.99423" lon="4.61594">
        <ele>6</ele>
      </trkpt>
      <trkpt lat="50.99421" lon="4.61582">
        <ele>6</ele>
      </trkpt>
      <trkpt lat="50.99422" lon="4.61534">
        <ele>6</ele>
      </trkpt>
      <trkpt lat="50.99417" lon="4.61397">
        <ele>8</ele>
      </trkpt>
      <trkpt lat="50.99418" lon="4.61366">
        <ele>8</ele>
      </trkpt>
      <trkpt lat="50.9946" lon="4.61195">
        <ele>11</ele>
      </trkpt>
      <trkpt lat="50.99471" lon="4.61139">
        <ele>10</ele>
      </trkpt>
      <trkpt lat="50.99469" lon="4.61106">
        <ele>10</ele>
      </trkpt>
      <trkpt lat="50.99458" lon="4.61067">
        <ele>9</ele>
      </trkpt>
      <trkpt lat="50.99409" lon="4.60921">
        <ele>8</ele>
      </trkpt>
      <trkpt lat="50.99396" lon="4.6087">
        <ele>9</ele>
      </trkpt>
      <trkpt lat="50.99395" lon="4.60842">
        <ele>8</ele>
      </trkpt>
      <trkpt lat="50.99402" lon="4.60817">
        <ele>7</ele>
      </trkpt>
      <trkpt lat="50.99414" lon="4.60812">
        <ele>7</ele>
      </trkpt>
      <trkpt lat="50.99458" lon="4.60805">
        <ele>9</ele>
      </trkpt>
      <trkpt lat="50.99514" lon="4.60805">
        <ele>10</ele>
      </trkpt>
      <trkpt lat="50.99532" lon="4.60798">
        <ele>12</ele>
      </trkpt>
      <trkpt lat="50.99552" lon="4.60785">
        <ele>13</ele>
      </trkpt>
      <trkpt lat="50.99603" lon="4.60741">
        <ele>13</ele>
      </trkpt>
      <trkpt lat="50.99626" lon="4.60724">
        <ele>13</ele>
      </trkpt>
      <trkpt lat="50.99674" lon="4.60707">
        <ele>12</ele>
      </trkpt>
      <trkpt lat="50.99719" lon="4.60695">
        <ele>11</ele>
      </trkpt>
      <trkpt lat="50.99742" lon="4.60691">
        <ele>11</ele>
      </trkpt>
      <trkpt lat="50.99753" lon="4.60692">
        <ele>11</ele>
      </trkpt>
      <trkpt lat="50.9981" lon="4.60707">
        <ele>11</ele>
      </trkpt>
      <trkpt lat="50.99852" lon="4.60704">
        <ele>13</ele>
      </trkpt>
      <trkpt lat="50.99869" lon="4.60705">
        <ele>13</ele>
      </trkpt>
      <trkpt lat="50.99894" lon="4.60716">
        <ele>13</ele>
      </trkpt>
      <trkpt lat="50.99901" lon="4.60717">
        <ele>13</ele>
      </trkpt>
      <trkpt lat="50.99921" lon="4.60729">
        <ele>13</ele>
      </trkpt>
      <trkpt lat="50.99921" lon="4.60728">
        <ele>13</ele>
      </trkpt>
      <trkpt lat="50.99938" lon="4.60742">
        <ele>13</ele>
      </trkpt>
      <trkpt lat="50.99941" lon="4.60748">
        <ele>13</ele>
      </trkpt>
      <trkpt lat="50.99955" lon="4.60757">
        <ele>13</ele>
      </trkpt>
      <trkpt lat="50.99992" lon="4.6079">
        <ele>12</ele>
      </trkpt>
      <trkpt lat="50.99997" lon="4.60797">
        <ele>12</ele>
      </trkpt>
      <trkpt lat="51.00024" lon="4.60861">
        <ele>12</ele>
      </trkpt>
      <trkpt lat="51.00074" lon="4.60914">
        <ele>13</ele>
      </trkpt>
      <trkpt lat="51.00084" lon="4.60922">
        <ele>13</ele>
      </trkpt>
      <trkpt lat="51.00123" lon="4.60931">
        <ele>14</ele>
      </trkpt>
      <trkpt lat="51.00158" lon="4.60948">
        <ele>14</ele>
      </trkpt>
      <trkpt lat="51.00167" lon="4.60958">
        <ele>14</ele>
      </trkpt>
      <trkpt lat="51.00214" lon="4.61055">
        <ele>14</ele>
      </trkpt>
      <trkpt lat="51.00243" lon="4.61104">
        <ele>13</ele>
      </trkpt>
      <trkpt lat="51.00259" lon="4.61121">
        <ele>13</ele>
      </trkpt>
      <trkpt lat="51.0029" lon="4.61163">
        <ele>13</ele>
      </trkpt>
      <trkpt lat="51.0029" lon="4.61183">
        <ele>13</ele>
      </trkpt>
      <trkpt lat="51.00321" lon="4.61269">
        <ele>12</ele>
      </trkpt>
      <trkpt lat="51.00392" lon="4.6147">
        <ele>11</ele>
      </trkpt>
      <trkpt lat="51.00462" lon="4.61679">
        <ele>11</ele>
      </trkpt>
      <trkpt lat="51.00483" lon="4.61767">
        <ele>10</ele>
      </trkpt>
      <trkpt lat="51.00577" lon="4.62397">
        <ele>8</ele>
      </trkpt>
      <trkpt lat="51.00597" lon="4.62529">
        <ele>9</ele>
      </trkpt>
      <trkpt lat="51.00632" lon="4.62762">
        <ele>9</ele>
      </trkpt>
      <trkpt lat="51.00646" lon="4.62873">
        <ele>9</ele>
      </trkpt>
      <trkpt lat="51.00647" lon="4.62915">
        <ele>8</ele>
      </trkpt>
      <trkpt lat="51.00646" lon="4.62951">
        <ele>9</ele>
      </trkpt>
      <trkpt lat="51.00671" lon="4.62962">
        <ele>8</ele>
      </trkpt>
      <trkpt lat="51.0071" lon="4.6298">
        <ele>8</ele>
      </trkpt>
      <trkpt lat="51.00739" lon="4.63013">
        <ele>8</ele>
      </trkpt>
      <trkpt lat="51.00814" lon="4.63008">
        <ele>8</ele>
      </trkpt>
      <trkpt lat="51.00916" lon="4.62987">
        <ele>8</ele>
      </trkpt>
      <trkpt lat="51.00993" lon="4.62958">
        <ele>7</ele>
      </trkpt>
      <trkpt lat="51.01016" lon="4.62956">
        <ele>7</ele>
      </trkpt>
      <trkpt lat="51.01034" lon="4.62957">
        <ele>7</ele>
      </trkpt>
      <trkpt lat="51.01046" lon="4.62961">
        <ele>7</ele>
      </trkpt>
      <trkpt lat="51.01066" lon="4.62973">
        <ele>7</ele>
      </trkpt>
      <trkpt lat="51.01081" lon="4.62989">
        <ele>7</ele>
      </trkpt>
      <trkpt lat="51.01106" lon="4.63023">
        <ele>7</ele>
      </trkpt>
      <trkpt lat="51.01124" lon="4.63053">
        <ele>7</ele>
      </trkpt>
      <trkpt lat="51.0114" lon="4.63069">
        <ele>7</ele>
      </trkpt>
      <trkpt lat="51.01187" lon="4.631">
        <ele>8</ele>
      </trkpt>
      <trkpt lat="51.01237" lon="4.6314">
        <ele>9</ele>
      </trkpt>
      <trkpt lat="51.01261" lon="4.63151">
        <ele>9</ele>
      </trkpt>
      <trkpt lat="51.01324" lon="4.63178">
        <ele>10</ele>
      </trkpt>
      <trkpt lat="51.0136" lon="4.63192">
        <ele>10</ele>
      </trkpt>
      <trkpt lat="51.01419" lon="4.63199">
        <ele>10</ele>
      </trkpt>
      <trkpt lat="51.0153" lon="4.63205">
        <ele>9</ele>
      </trkpt>
      <trkpt lat="51.01562" lon="4.63181">
        <ele>9</ele>
      </trkpt>
      <trkpt lat="51.01554" lon="4.63141">
        <ele>9</ele>
      </trkpt>
      <trkpt lat="51.01594" lon="4.63133">
        <ele>9</ele>
      </trkpt>
      <trkpt lat="51.01729" lon="4.63113">
        <ele>10</ele>
      </trkpt>
      <trkpt lat="51.01811" lon="4.63097">
        <ele>9</ele>
      </trkpt>
      <trkpt lat="51.01887" lon="4.6311">
        <ele>9</ele>
      </trkpt>
      <trkpt lat="51.01946" lon="4.63092">
        <ele>8</ele>
      </trkpt>
      <trkpt lat="51.01976" lon="4.63087">
        <ele>8</ele>
      </trkpt>
      <trkpt lat="51.02016" lon="4.63092">
        <ele>8</ele>
      </trkpt>
      <trkpt lat="51.02012" lon="4.63113">
        <ele>8</ele>
      </trkpt>
      <trkpt lat="51.02013" lon="4.63126">
        <ele>8</ele>
      </trkpt>
      <trkpt lat="51.02017" lon="4.63136">
        <ele>8</ele>
      </trkpt>
      <trkpt lat="51.02017" lon="4.63135">
        <ele>8</ele>
      </trkpt>
      <trkpt lat="51.0202" lon="4.63141">
        <ele>7</ele>
      </trkpt>
      <trkpt lat="51.02039" lon="4.63159">
        <ele>7</ele>
      </trkpt>
      <trkpt lat="51.02107" lon="4.63216">
        <ele>6</ele>
      </trkpt>
      <trkpt lat="51.02117" lon="4.63223">
        <ele>6</ele>
      </trkpt>
      <trkpt lat="51.02166" lon="4.63143">
        <ele>7</ele>
      </trkpt>
      <trkpt lat="51.02341" lon="4.62842">
        <ele>6</ele>
      </trkpt>
      <trkpt lat="51.02374" lon="4.62809">
        <ele>6</ele>
      </trkpt>
      <trkpt lat="51.02412" lon="4.62775">
        <ele>7</ele>
      </trkpt>
      <trkpt lat="51.02453" lon="4.62744">
        <ele>8</ele>
      </trkpt>
      <trkpt lat="51.02478" lon="4.62718">
        <ele>8</ele>
      </trkpt>
      <trkpt lat="51.02492" lon="4.62696">
        <ele>8</ele>
      </trkpt>
      <trkpt lat="51.02577" lon="4.62684">
        <ele>8</ele>
      </trkpt>
      <trkpt lat="51.02578" lon="4.62699">
        <ele>8</ele>
      </trkpt>
      <trkpt lat="51.02586" lon="4.62798">
        <ele>8</ele>
      </trkpt>
      <trkpt lat="51.02595" lon="4.62837">
        <ele>8</ele>
      </trkpt>
      <trkpt lat="51.0268" lon="4.63036">
        <ele>8</ele>
      </trkpt>
      <trkpt lat="51.02697" lon="4.6307">
        <ele>7</ele>
      </trkpt>
      <trkpt lat="51.02719" lon="4.63098">
        <ele>7</ele>
      </trkpt>
      <trkpt lat="51.02766" lon="4.63144">
        <ele>7</ele>
      </trkpt>
      <trkpt lat="51.02781" lon="4.63162">
        <ele>7</ele>
      </trkpt>
      <trkpt lat="51.02804" lon="4.63199">
        <ele>6</ele>
      </trkpt>
      <trkpt lat="51.02813" lon="4.63218">
        <ele>6</ele>
      </trkpt>
      <trkpt lat="51.02822" lon="4.63244">
        <ele>7</ele>
      </trkpt>
      <trkpt lat="51.02833" lon="4.6329">
        <ele>7</ele>
      </trkpt>
      <trkpt lat="51.02837" lon="4.63316">
        <ele>7</ele>
      </trkpt>
      <trkpt lat="51.02856" lon="4.63642">
        <ele>9</ele>
      </trkpt>
      <trkpt lat="51.02873" lon="4.63766">
        <ele>9</ele>
      </trkpt>
      <trkpt lat="51.02873" lon="4.63782">
        <ele>9</ele>
      </trkpt>
      <trkpt lat="51.02932" lon="4.6415">
        <ele>9</ele>
      </trkpt>
      <trkpt lat="51.02943" lon="4.64191">
        <ele>7</ele>
      </trkpt>
      <trkpt lat="51.02959" lon="4.64236">
        <ele>7</ele>
      </trkpt>
      <trkpt lat="51.02966" lon="4.64249">
        <ele>7</ele>
      </trkpt>
      <trkpt lat="51.03252" lon="4.6453">
        <ele>6</ele>
      </trkpt>
      <trkpt lat="51.03546" lon="4.64817">
        <ele>7</ele>
      </trkpt>
      <trkpt lat="51.03557" lon="4.64829">
        <ele>7</ele>
      </trkpt>
      <trkpt lat="51.03561" lon="4.64835">
        <ele>7</ele>
      </trkpt>
      <trkpt lat="51.0356" lon="4.6485">
        <ele>6</ele>
      </trkpt>
      <trkpt lat="51.03538" lon="4.64937">
        <ele>6</ele>
      </trkpt>
      <trkpt lat="51.03492" lon="4.65063">
        <ele>6</ele>
      </trkpt>
      <trkpt lat="51.03538" lon="4.65104">
        <ele>7</ele>
      </trkpt>
      <trkpt lat="51.03543" lon="4.65109">
        <ele>7</ele>
      </trkpt>
      <trkpt lat="51.03559" lon="4.65139">
        <ele>7</ele>
      </trkpt>
      <trkpt lat="51.03762" lon="4.65332">
        <ele>8</ele>
      </trkpt>
      <trkpt lat="51.03807" lon="4.6537">
        <ele>9</ele>
      </trkpt>
      <trkpt lat="51.03999" lon="4.6556">
        <ele>9</ele>
      </trkpt>
      <trkpt lat="51.04007" lon="4.65555">
        <ele>9</ele>
      </trkpt>
      <trkpt lat="51.04063" lon="4.6549">
        <ele>9</ele>
      </trkpt>
      <trkpt lat="51.04175" lon="4.65359">
        <ele>9</ele>
      </trkpt>
      <trkpt lat="51.04186" lon="4.65349">
        <ele>9</ele>
      </trkpt>
      <trkpt lat="51.04189" lon="4.65342">
        <ele>9</ele>
      </trkpt>
      <trkpt lat="51.04194" lon="4.65332">
        <ele>9</ele>
      </trkpt>
      <trkpt lat="51.04295" lon="4.65208">
        <ele>9</ele>
      </trkpt>
      <trkpt lat="51.04379" lon="4.65135">
        <ele>9</ele>
      </trkpt>
      <trkpt lat="51.04461" lon="4.65064">
        <ele>9</ele>
      </trkpt>
      <trkpt lat="51.04486" lon="4.65052">
        <ele>9</ele>
      </trkpt>
      <trkpt lat="51.04623" lon="4.64933">
        <ele>11</ele>
      </trkpt>
      <trkpt lat="51.04631" lon="4.64955">
        <ele>11</ele>
      </trkpt>
      <trkpt lat="51.04904" lon="4.65909">
        <ele>14</ele>
      </trkpt>
      <trkpt lat="51.04891" lon="4.65917">
        <ele>14</ele>
      </trkpt>
      <trkpt lat="51.04897" lon="4.65932">
        <ele>14</ele>
      </trkpt>
      <trkpt lat="51.04986" lon="4.66078">
        <ele>16</ele>
      </trkpt>
      <trkpt lat="51.05014" lon="4.66117">
        <ele>16</ele>
      </trkpt>
      <trkpt lat="51.05115" lon="4.66235">
        <ele>18</ele>
      </trkpt>
      <trkpt lat="51.05155" lon="4.66296">
        <ele>19</ele>
      </trkpt>
      <trkpt lat="51.05165" lon="4.66315">
        <ele>18</ele>
      </trkpt>
      <trkpt lat="51.05179" lon="4.66349">
        <ele>18</ele>
      </trkpt>
      <trkpt lat="51.05208" lon="4.66456">
        <ele>18</ele>
      </trkpt>
      <trkpt lat="51.05246" lon="4.66599">
        <ele>20</ele>
      </trkpt>
      <trkpt lat="51.05259" lon="4.66677">
        <ele>19</ele>
      </trkpt>
      <trkpt lat="51.05266" lon="4.66705">
        <ele>19</ele>
      </trkpt>
      <trkpt lat="51.05302" lon="4.66787">
        <ele>20</ele>
      </trkpt>
      <trkpt lat="51.05314" lon="4.66811">
        <ele>20</ele>
      </trkpt>
      <trkpt lat="51.05334" lon="4.66841">
        <ele>20</ele>
      </trkpt>
      <trkpt lat="51.0535" lon="4.66857">
        <ele>20</ele>
      </trkpt>
      <trkpt lat="51.05358" lon="4.66862">
        <ele>21</ele>
      </trkpt>
      <trkpt lat="51.05424" lon="4.66876">
        <ele>21</ele>
      </trkpt>
      <trkpt lat="51.05444" lon="4.66887">
        <ele>22</ele>
      </trkpt>
      <trkpt lat="51.05456" lon="4.66899">
        <ele>22</ele>
      </trkpt>
      <trkpt lat="51.05462" lon="4.66909">
        <ele>22</ele>
      </trkpt>
      <trkpt lat="51.05504" lon="4.66984">
        <ele>22</ele>
      </trkpt>
      <trkpt lat="51.05514" lon="4.67">
        <ele>22</ele>
      </trkpt>
      <trkpt lat="51.05556" lon="4.67045">
        <ele>23</ele>
      </trkpt>
      <trkpt lat="51.05678" lon="4.67143">
        <ele>26</ele>
      </trkpt>
      <trkpt lat="51.05683" lon="4.67144">
        <ele>26</ele>
      </trkpt>
      <trkpt lat="51.05696" lon="4.67137">
        <ele>28</ele>
      </trkpt>
      <trkpt lat="51.05698" lon="4.67133">
        <ele>28</ele>
      </trkpt>
      <trkpt lat="51.057" lon="4.6713">
        <ele>28</ele>
      </trkpt>
      <trkpt lat="51.05707" lon="4.67118">
        <ele>28</ele>
      </trkpt>
      <trkpt lat="51.05748" lon="4.67076">
        <ele>29</ele>
      </trkpt>
      <trkpt lat="51.05755" lon="4.67072">
        <ele>29</ele>
      </trkpt>
      <trkpt lat="51.05763" lon="4.67071">
        <ele>29</ele>
      </trkpt>
      <trkpt lat="51.05757" lon="4.67003">
        <ele>29</ele>
      </trkpt>
      <trkpt lat="51.05755" lon="4.6697">
        <ele>30</ele>
      </trkpt>
      <trkpt lat="51.05757" lon="4.66946">
        <ele>30</ele>
      </trkpt>
      <trkpt lat="51.0577" lon="4.66877">
        <ele>31</ele>
      </trkpt>
      <trkpt lat="51.05778" lon="4.66846">
        <ele>31</ele>
      </trkpt>
      <trkpt lat="51.05789" lon="4.66775">
        <ele>31</ele>
      </trkpt>
      <trkpt lat="51.05779" lon="4.66761">
        <ele>31</ele>
      </trkpt>
      <trkpt lat="51.05696" lon="4.66636">
        <ele>28</ele>
      </trkpt>
      <trkpt lat="51.05683" lon="4.66622">
        <ele>26</ele>
      </trkpt>
      <trkpt lat="51.05671" lon="4.66613">
        <ele>26</ele>
      </trkpt>
      <trkpt lat="51.05658" lon="4.66606">
        <ele>26</ele>
      </trkpt>
      <trkpt lat="51.0564" lon="4.66604">
        <ele>26</ele>
      </trkpt>
      <trkpt lat="51.05593" lon="4.66636">
        <ele>24</ele>
      </trkpt>
      <trkpt lat="51.05581" lon="4.6664">
        <ele>24</ele>
      </trkpt>
      <trkpt lat="51.05567" lon="4.66638">
        <ele>24</ele>
      </trkpt>
      <trkpt lat="51.05458" lon="4.66567">
        <ele>21</ele>
      </trkpt>
      <trkpt lat="51.05443" lon="4.66549">
        <ele>21</ele>
      </trkpt>
      <trkpt lat="51.05398" lon="4.66453">
        <ele>19</ele>
      </trkpt>
      <trkpt lat="51.05374" lon="4.66394">
        <ele>19</ele>
      </trkpt>
      <trkpt lat="51.05373" lon="4.66381">
        <ele>19</ele>
      </trkpt>
      <trkpt lat="51.05365" lon="4.66333">
        <ele>18</ele>
      </trkpt>
      <trkpt lat="51.05334" lon="4.66217">
        <ele>17</ele>
      </trkpt>
      <trkpt lat="51.05322" lon="4.66175">
        <ele>17</ele>
      </trkpt>
      <trkpt lat="51.05312" lon="4.66149">
        <ele>17</ele>
      </trkpt>
      <trkpt lat="51.05294" lon="4.66109">
        <ele>17</ele>
      </trkpt>
      <trkpt lat="51.05272" lon="4.66044">
        <ele>16</ele>
      </trkpt>
      <trkpt lat="51.05024" lon="4.65276">
        <ele>13</ele>
      </trkpt>
      <trkpt lat="51.04899" lon="4.64894">
        <ele>12</ele>
      </trkpt>
      <trkpt lat="51.04857" lon="4.64759">
        <ele>12</ele>
      </trkpt>
      <trkpt lat="51.04853" lon="4.64753">
        <ele>12</ele>
      </trkpt>
      <trkpt lat="51.04837" lon="4.64703">
        <ele>12</ele>
      </trkpt>
      <trkpt lat="51.04836" lon="4.64694">
        <ele>12</ele>
      </trkpt>
      <trkpt lat="51.04789" lon="4.64549">
        <ele>12</ele>
      </trkpt>
      <trkpt lat="51.04783" lon="4.64533">
        <ele>12</ele>
      </trkpt>
      <trkpt lat="51.04764" lon="4.64474">
        <ele>13</ele>
      </trkpt>
      <trkpt lat="51.04743" lon="4.64395">
        <ele>13</ele>
      </trkpt>
      <trkpt lat="51.04657" lon="4.64128">
        <ele>15</ele>
      </trkpt>
      <trkpt lat="51.04628" lon="4.64028">
        <ele>16</ele>
      </trkpt>
      <trkpt lat="51.04569" lon="4.63851">
        <ele>15</ele>
      </trkpt>
      <trkpt lat="51.04566" lon="4.63841">
        <ele>15</ele>
      </trkpt>
      <trkpt lat="51.0453" lon="4.63736">
        <ele>16</ele>
      </trkpt>
      <trkpt lat="51.04526" lon="4.63721">
        <ele>16</ele>
      </trkpt>
      <trkpt lat="51.0449" lon="4.63511">
        <ele>16</ele>
      </trkpt>
      <trkpt lat="51.04484" lon="4.63512">
        <ele>16</ele>
      </trkpt>
      <trkpt lat="51.04458" lon="4.63512">
        <ele>16</ele>
      </trkpt>
      <trkpt lat="51.04132" lon="4.6346">
        <ele>13</ele>
      </trkpt>
      <trkpt lat="51.04119" lon="4.63455">
        <ele>13</ele>
      </trkpt>
      <trkpt lat="51.04125" lon="4.63382">
        <ele>13</ele>
      </trkpt>
      <trkpt lat="51.04127" lon="4.63324">
        <ele>12</ele>
      </trkpt>
      <trkpt lat="51.04126" lon="4.63282">
        <ele>12</ele>
      </trkpt>
      <trkpt lat="51.04117" lon="4.63219">
        <ele>12</ele>
      </trkpt>
      <trkpt lat="51.04023" lon="4.62855">
        <ele>12</ele>
      </trkpt>
      <trkpt lat="51.0399" lon="4.6269">
        <ele>11</ele>
      </trkpt>
      <trkpt lat="51.03978" lon="4.62703">
        <ele>11</ele>
      </trkpt>
      <trkpt lat="51.03951" lon="4.62739">
        <ele>11</ele>
      </trkpt>
      <trkpt lat="51.03836" lon="4.62903">
        <ele>9</ele>
      </trkpt>
      <trkpt lat="51.03826" lon="4.62916">
        <ele>10</ele>
      </trkpt>
      <trkpt lat="51.03818" lon="4.62921">
        <ele>10</ele>
      </trkpt>
      <trkpt lat="51.03809" lon="4.6292">
        <ele>10</ele>
      </trkpt>
      <trkpt lat="51.03671" lon="4.62819">
        <ele>8</ele>
      </trkpt>
      <trkpt lat="51.03666" lon="4.62819">
        <ele>8</ele>
      </trkpt>
      <trkpt lat="51.03662" lon="4.62823">
        <ele>8</ele>
      </trkpt>
      <trkpt lat="51.03657" lon="4.62833">
        <ele>8</ele>
      </trkpt>
      <trkpt lat="51.03645" lon="4.62825">
        <ele>8</ele>
      </trkpt>
      <trkpt lat="51.03542" lon="4.62713">
        <ele>7</ele>
      </trkpt>
      <trkpt lat="51.0346" lon="4.62653">
        <ele>7</ele>
      </trkpt>
      <trkpt lat="51.03356" lon="4.62581">
        <ele>7</ele>
      </trkpt>
      <trkpt lat="51.03354" lon="4.62576">
        <ele>7</ele>
      </trkpt>
      <trkpt lat="51.03364" lon="4.62428">
        <ele>6</ele>
      </trkpt>
      <trkpt lat="51.03364" lon="4.62417">
        <ele>6</ele>
      </trkpt>
      <trkpt lat="51.0336" lon="4.624">
        <ele>6</ele>
      </trkpt>
      <trkpt lat="51.03282" lon="4.62187">
        <ele>6</ele>
      </trkpt>
      <trkpt lat="51.03286" lon="4.62166">
        <ele>6</ele>
      </trkpt>
      <trkpt lat="51.03281" lon="4.62138">
        <ele>6</ele>
      </trkpt>
      <trkpt lat="51.03264" lon="4.62074">
        <ele>7</ele>
      </trkpt>
      <trkpt lat="51.03253" lon="4.62016">
        <ele>7</ele>
      </trkpt>
      <trkpt lat="51.03239" lon="4.61979">
        <ele>7</ele>
      </trkpt>
      <trkpt lat="51.0322" lon="4.61935">
        <ele>7</ele>
      </trkpt>
      <trkpt lat="51.03211" lon="4.61922">
        <ele>7</ele>
      </trkpt>
      <trkpt lat="51.03163" lon="4.61864">
        <ele>9</ele>
      </trkpt>
      <trkpt lat="51.0315" lon="4.61839">
        <ele>9</ele>
      </trkpt>
      <trkpt lat="51.0311" lon="4.61778">
        <ele>9</ele>
      </trkpt>
      <trkpt lat="51.03067" lon="4.61716">
        <ele>9</ele>
      </trkpt>
      <trkpt lat="51.03034" lon="4.61674">
        <ele>9</ele>
      </trkpt>
      <trkpt lat="51.02982" lon="4.61637">
        <ele>11</ele>
      </trkpt>
      <trkpt lat="51.02953" lon="4.61549">
        <ele>13</ele>
      </trkpt>
      <trkpt lat="51.02932" lon="4.61463">
        <ele>13</ele>
      </trkpt>
      <trkpt lat="51.02879" lon="4.61311">
        <ele>15</ele>
      </trkpt>
      <trkpt lat="51.02817" lon="4.61078">
        <ele>15</ele>
      </trkpt>
      <trkpt lat="51.02694" lon="4.61109">
        <ele>11</ele>
      </trkpt>
      <trkpt lat="51.02655" lon="4.61119">
        <ele>8</ele>
      </trkpt>
      <trkpt lat="51.02626" lon="4.61066">
        <ele>8</ele>
      </trkpt>
      <trkpt lat="51.02607" lon="4.61043">
        <ele>8</ele>
      </trkpt>
      <trkpt lat="51.02577" lon="4.61021">
        <ele>7</ele>
      </trkpt>
      <trkpt lat="51.02551" lon="4.60991">
        <ele>7</ele>
      </trkpt>
      <trkpt lat="51.02512" lon="4.60963">
        <ele>6</ele>
      </trkpt>
      <trkpt lat="51.02448" lon="4.60899">
        <ele>6</ele>
      </trkpt>
      <trkpt lat="51.02454" lon="4.60801">
        <ele>6</ele>
      </trkpt>
      <trkpt lat="51.02465" lon="4.60586">
        <ele>7</ele>
      </trkpt>
      <trkpt lat="51.02464" lon="4.60542">
        <ele>8</ele>
      </trkpt>
      <trkpt lat="51.02429" lon="4.60346">
        <ele>9</ele>
      </trkpt>
      <trkpt lat="51.0241" lon="4.60264">
        <ele>8</ele>
      </trkpt>
      <trkpt lat="51.02377" lon="4.6015">
        <ele>8</ele>
      </trkpt>
      <trkpt lat="51.02356" lon="4.6005">
        <ele>7</ele>
      </trkpt>
      <trkpt lat="51.02269" lon="4.59687">
        <ele>6</ele>
      </trkpt>
      <trkpt lat="51.02258" lon="4.59555">
        <ele>6</ele>
      </trkpt>
      <trkpt lat="51.02248" lon="4.59518">
        <ele>6</ele>
      </trkpt>
      <trkpt lat="51.02215" lon="4.59462">
        <ele>6</ele>
      </trkpt>
      <trkpt lat="51.02183" lon="4.59419">
        <ele>7</ele>
      </trkpt>
      <trkpt lat="51.02151" lon="4.59372">
        <ele>7</ele>
      </trkpt>
      <trkpt lat="51.02123" lon="4.59289">
        <ele>7</ele>
      </trkpt>
      <trkpt lat="51.02116" lon="4.59247">
        <ele>7</ele>
      </trkpt>
      <trkpt lat="51.02115" lon="4.59227">
        <ele>6</ele>
      </trkpt>
      <trkpt lat="51.0212" lon="4.59194">
        <ele>6</ele>
      </trkpt>
      <trkpt lat="51.02124" lon="4.5917">
        <ele>6</ele>
      </trkpt>
      <trkpt lat="51.0213" lon="4.59147">
        <ele>6</ele>
      </trkpt>
      <trkpt lat="51.02145" lon="4.59106">
        <ele>6</ele>
      </trkpt>
      <trkpt lat="51.02178" lon="4.59048">
        <ele>6</ele>
      </trkpt>
      <trkpt lat="51.02187" lon="4.59021">
        <ele>6</ele>
      </trkpt>
      <trkpt lat="51.02199" lon="4.58977">
        <ele>6</ele>
      </trkpt>
      <trkpt lat="51.02205" lon="4.5894">
        <ele>6</ele>
      </trkpt>
      <trkpt lat="51.02208" lon="4.5887">
        <ele>7</ele>
      </trkpt>
      <trkpt lat="51.02207" lon="4.58837">
        <ele>8</ele>
      </trkpt>
      <trkpt lat="51.02203" lon="4.58797">
        <ele>9</ele>
      </trkpt>
      <trkpt lat="51.02192" lon="4.58714">
        <ele>11</ele>
      </trkpt>
      <trkpt lat="51.02168" lon="4.5857">
        <ele>12</ele>
      </trkpt>
      <trkpt lat="51.02129" lon="4.58369">
        <ele>14</ele>
      </trkpt>
      <trkpt lat="51.02102" lon="4.58189">
        <ele>14</ele>
      </trkpt>
      <trkpt lat="51.02072" lon="4.58007">
        <ele>15</ele>
      </trkpt>
      <trkpt lat="51.0205" lon="4.57845">
        <ele>14</ele>
      </trkpt>
      <trkpt lat="51.02031" lon="4.57735">
        <ele>12</ele>
      </trkpt>
      <trkpt lat="51.02027" lon="4.57678">
        <ele>12</ele>
      </trkpt>
      <trkpt lat="51.0203" lon="4.5763">
        <ele>12</ele>
      </trkpt>
      <trkpt lat="51.02026" lon="4.57592">
        <ele>12</ele>
      </trkpt>
      <trkpt lat="51.02042" lon="4.57575">
        <ele>11</ele>
      </trkpt>
      <trkpt lat="51.0206" lon="4.57566">
        <ele>11</ele>
      </trkpt>
      <trkpt lat="51.02072" lon="4.5756">
        <ele>11</ele>
      </trkpt>
      <trkpt lat="51.02097" lon="4.57553">
        <ele>11</ele>
      </trkpt>
      <trkpt lat="51.02391" lon="4.57659">
        <ele>6</ele>
      </trkpt>
      <trkpt lat="51.02402" lon="4.57665">
        <ele>7</ele>
      </trkpt>
      <trkpt lat="51.02512" lon="4.57758">
        <ele>7</ele>
      </trkpt>
      <trkpt lat="51.02538" lon="4.57782">
        <ele>7</ele>
      </trkpt>
      <trkpt lat="51.02571" lon="4.57802">
        <ele>7</ele>
      </trkpt>
      <trkpt lat="51.02604" lon="4.57818">
        <ele>7</ele>
      </trkpt>
      <trkpt lat="51.02684" lon="4.57849">
        <ele>6</ele>
      </trkpt>
      <trkpt lat="51.02699" lon="4.57862">
        <ele>6</ele>
      </trkpt>
      <trkpt lat="51.02738" lon="4.57905">
        <ele>6</ele>
      </trkpt>
      <trkpt lat="51.02876" lon="4.58061">
        <ele>6</ele>
      </trkpt>
      <trkpt lat="51.02912" lon="4.58102">
        <ele>6</ele>
      </trkpt>
      <trkpt lat="51.02935" lon="4.58122">
        <ele>7</ele>
      </trkpt>
      <trkpt lat="51.0297" lon="4.58141">
        <ele>7</ele>
      </trkpt>
      <trkpt lat="51.03116" lon="4.58204">
        <ele>8</ele>
      </trkpt>
      <trkpt lat="51.03131" lon="4.58171">
        <ele>8</ele>
      </trkpt>
      <trkpt lat="51.03147" lon="4.58143">
        <ele>9</ele>
      </trkpt>
      <trkpt lat="51.03162" lon="4.58121">
        <ele>9</ele>
      </trkpt>
      <trkpt lat="51.03393" lon="4.57885">
        <ele>8</ele>
      </trkpt>
      <trkpt lat="51.03503" lon="4.57781">
        <ele>7</ele>
      </trkpt>
      <trkpt lat="51.03576" lon="4.57712">
        <ele>7</ele>
      </trkpt>
      <trkpt lat="51.03573" lon="4.57475">
        <ele>10</ele>
      </trkpt>
      <trkpt lat="51.03565" lon="4.57427">
        <ele>11</ele>
      </trkpt>
      <trkpt lat="51.0353" lon="4.57266">
        <ele>12</ele>
      </trkpt>
      <trkpt lat="51.03498" lon="4.57098">
        <ele>15</ele>
      </trkpt>
      <trkpt lat="51.03493" lon="4.57041">
        <ele>15</ele>
      </trkpt>
      <trkpt lat="51.03491" lon="4.56935">
        <ele>13</ele>
      </trkpt>
      <trkpt lat="51.03495" lon="4.56882">
        <ele>12</ele>
      </trkpt>
      <trkpt lat="51.035" lon="4.56847">
        <ele>12</ele>
      </trkpt>
      <trkpt lat="51.03534" lon="4.56664">
        <ele>9</ele>
      </trkpt>
      <trkpt lat="51.03573" lon="4.56478">
        <ele>7</ele>
      </trkpt>
      <trkpt lat="51.03565" lon="4.5636">
        <ele>6</ele>
      </trkpt>
      <trkpt lat="51.03568" lon="4.5633">
        <ele>6</ele>
      </trkpt>
      <trkpt lat="51.03632" lon="4.56055">
        <ele>8</ele>
      </trkpt>
      <trkpt lat="51.03642" lon="4.55992">
        <ele>8</ele>
      </trkpt>
      <trkpt lat="51.03645" lon="4.5589">
        <ele>8</ele>
      </trkpt>
      <trkpt lat="51.03645" lon="4.55791">
        <ele>7</ele>
      </trkpt>
      <trkpt lat="51.03643" lon="4.557">
        <ele>7</ele>
      </trkpt>
      <trkpt lat="51.03638" lon="4.55657">
        <ele>7</ele>
      </trkpt>
      <trkpt lat="51.03631" lon="4.55602">
        <ele>7</ele>
      </trkpt>
      <trkpt lat="51.03593" lon="4.554">
        <ele>6</ele>
      </trkpt>
      <trkpt lat="51.03583" lon="4.55318">
        <ele>6</ele>
      </trkpt>
      <trkpt lat="51.03584" lon="4.5529">
        <ele>6</ele>
      </trkpt>
      <trkpt lat="51.03597" lon="4.55187">
        <ele>5</ele>
      </trkpt>
      <trkpt lat="51.03605" lon="4.54999">
        <ele>6</ele>
      </trkpt>
      <trkpt lat="51.03604" lon="4.54972">
        <ele>6</ele>
      </trkpt>
      <trkpt lat="51.03589" lon="4.54757">
        <ele>6</ele>
      </trkpt>
      <trkpt lat="51.03554" lon="4.54528">
        <ele>7</ele>
      </trkpt>
      <trkpt lat="51.03526" lon="4.5426">
        <ele>8</ele>
      </trkpt>
      <trkpt lat="51.0351" lon="4.54182">
        <ele>8</ele>
      </trkpt>
      <trkpt lat="51.03463" lon="4.53997">
        <ele>7</ele>
      </trkpt>
      <trkpt lat="51.03433" lon="4.53852">
        <ele>8</ele>
      </trkpt>
      <trkpt lat="51.03404" lon="4.53665">
        <ele>6</ele>
      </trkpt>
      <trkpt lat="51.03339" lon="4.53699">
        <ele>7</ele>
      </trkpt>
      <trkpt lat="51.03026" lon="4.53865">
        <ele>12</ele>
      </trkpt>
      <trkpt lat="51.02999" lon="4.5388">
        <ele>12</ele>
      </trkpt>
      <trkpt lat="51.02987" lon="4.53894">
        <ele>12</ele>
      </trkpt>
      <trkpt lat="51.02883" lon="4.53722">
        <ele>9</ele>
      </trkpt>
      <trkpt lat="51.02869" lon="4.53694">
        <ele>9</ele>
      </trkpt>
      <trkpt lat="51.02847" lon="4.53637">
        <ele>6</ele>
      </trkpt>
      <trkpt lat="51.02794" lon="4.53532">
        <ele>5</ele>
      </trkpt>
      <trkpt lat="51.02781" lon="4.53511">
        <ele>5</ele>
      </trkpt>
      <trkpt lat="51.02765" lon="4.53487">
        <ele>6</ele>
      </trkpt>
      <trkpt lat="51.02753" lon="4.5348">
        <ele>6</ele>
      </trkpt>
      <trkpt lat="51.02712" lon="4.53474">
        <ele>7</ele>
      </trkpt>
      <trkpt lat="51.02669" lon="4.53468">
        <ele>8</ele>
      </trkpt>
      <trkpt lat="51.02661" lon="4.53461">
        <ele>8</ele>
      </trkpt>
      <trkpt lat="51.02655" lon="4.53462">
        <ele>8</ele>
      </trkpt>
      <trkpt lat="51.02647" lon="4.53473">
        <ele>8</ele>
      </trkpt>
      <trkpt lat="51.02644" lon="4.53481">
        <ele>8</ele>
      </trkpt>
      <trkpt lat="51.02638" lon="4.53467">
        <ele>8</ele>
      </trkpt>
      <trkpt lat="51.02623" lon="4.5346">
        <ele>8</ele>
      </trkpt>
      <trkpt lat="51.02614" lon="4.53454">
        <ele>8</ele>
      </trkpt>
      <trkpt lat="51.02527" lon="4.53239">
        <ele>9</ele>
      </trkpt>
      <trkpt lat="51.0252" lon="4.53226">
        <ele>9</ele>
      </trkpt>
      <trkpt lat="51.02493" lon="4.53192">
        <ele>9</ele>
      </trkpt>
      <trkpt lat="51.02439" lon="4.53142">
        <ele>9</ele>
      </trkpt>
      <trkpt lat="51.02419" lon="4.5312">
        <ele>9</ele>
      </trkpt>
      <trkpt lat="51.02388" lon="4.53073">
        <ele>9</ele>
      </trkpt>
      <trkpt lat="51.02376" lon="4.53064">
        <ele>9</ele>
      </trkpt>
      <trkpt lat="51.02358" lon="4.53059">
        <ele>8</ele>
      </trkpt>
      <trkpt lat="51.02282" lon="4.53057">
        <ele>8</ele>
      </trkpt>
      <trkpt lat="51.02269" lon="4.53047">
        <ele>7</ele>
      </trkpt>
      <trkpt lat="51.02258" lon="4.53034">
        <ele>6</ele>
      </trkpt>
      <trkpt lat="51.02246" lon="4.53011">
        <ele>6</ele>
      </trkpt>
      <trkpt lat="51.02168" lon="4.52838">
        <ele>3</ele>
      </trkpt>
      <trkpt lat="51.02073" lon="4.52691">
        <ele>3</ele>
      </trkpt>
      <trkpt lat="51.02064" lon="4.5268">
        <ele>3</ele>
      </trkpt>
      <trkpt lat="51.02049" lon="4.52666">
        <ele>3</ele>
      </trkpt>
      <trkpt lat="51.02041" lon="4.52664">
        <ele>3</ele>
      </trkpt>
      <trkpt lat="51.02031" lon="4.52666">
        <ele>3</ele>
      </trkpt>
      <trkpt lat="51.0193" lon="4.52729">
        <ele>6</ele>
      </trkpt>
      <trkpt lat="51.0192" lon="4.52612">
        <ele>5</ele>
      </trkpt>
      <trkpt lat="51.01903" lon="4.52447">
        <ele>2</ele>
      </trkpt>
      <trkpt lat="51.01901" lon="4.52315">
        <ele>1</ele>
      </trkpt>
      <trkpt lat="51.01891" lon="4.52226">
        <ele>2</ele>
      </trkpt>
      <trkpt lat="51.01884" lon="4.52119">
        <ele>2</ele>
      </trkpt>
      <trkpt lat="51.0188" lon="4.52097">
        <ele>2</ele>
      </trkpt>
      <trkpt lat="51.01829" lon="4.51868">
        <ele>2</ele>
      </trkpt>
      <trkpt lat="51.01823" lon="4.51854">
        <ele>2</ele>
      </trkpt>
      <trkpt lat="51.01789" lon="4.51818">
        <ele>2</ele>
      </trkpt>
      <trkpt lat="51.01751" lon="4.51787">
        <ele>3</ele>
      </trkpt>
      <trkpt lat="51.01682" lon="4.5172">
        <ele>4</ele>
      </trkpt>
      <trkpt lat="51.01646" lon="4.5167">
        <ele>4</ele>
      </trkpt>
      <trkpt lat="51.01642" lon="4.51653">
        <ele>4</ele>
      </trkpt>
      <trkpt lat="51.0164" lon="4.51635">
        <ele>4</ele>
      </trkpt>
      <trkpt lat="51.0163" lon="4.51612">
        <ele>4</ele>
      </trkpt>
      <trkpt lat="51.01624" lon="4.51607">
        <ele>4</ele>
      </trkpt>
      <trkpt lat="51.01505" lon="4.51776">
        <ele>3</ele>
      </trkpt>
      <trkpt lat="51.01496" lon="4.51783">
        <ele>3</ele>
      </trkpt>
      <trkpt lat="51.01435" lon="4.51779">
        <ele>4</ele>
      </trkpt>
      <trkpt lat="51.01408" lon="4.51785">
        <ele>3</ele>
      </trkpt>
      <trkpt lat="51.01387" lon="4.51797">
        <ele>3</ele>
      </trkpt>
      <trkpt lat="51.0137" lon="4.51817">
        <ele>3</ele>
      </trkpt>
      <trkpt lat="51.01311" lon="4.519">
        <ele>2</ele>
      </trkpt>
      <trkpt lat="51.01238" lon="4.51994">
        <ele>3</ele>
      </trkpt>
      <trkpt lat="51.01199" lon="4.52045">
        <ele>4</ele>
      </trkpt>
      <trkpt lat="51.01169" lon="4.52112">
        <ele>5</ele>
      </trkpt>
      <trkpt lat="51.01162" lon="4.52134">
        <ele>5</ele>
      </trkpt>
      <trkpt lat="51.01157" lon="4.52123">
        <ele>5</ele>
      </trkpt>
      <trkpt lat="51.0111" lon="4.52047">
        <ele>6</ele>
      </trkpt>
      <trkpt lat="51.01101" lon="4.52037">
        <ele>6</ele>
      </trkpt>
      <trkpt lat="51.0108" lon="4.52018">
        <ele>8</ele>
      </trkpt>
      <trkpt lat="51.01052" lon="4.51998">
        <ele>8</ele>
      </trkpt>
      <trkpt lat="51.0098" lon="4.51944">
        <ele>9</ele>
      </trkpt>
      <trkpt lat="51.00826" lon="4.52255">
        <ele>7</ele>
      </trkpt>
      <trkpt lat="51.00743" lon="4.52398">
        <ele>6</ele>
      </trkpt>
      <trkpt lat="51.00718" lon="4.52444">
        <ele>5</ele>
      </trkpt>
      <trkpt lat="51.00678" lon="4.52546">
        <ele>5</ele>
      </trkpt>
      <trkpt lat="51.00649" lon="4.52608">
        <ele>4</ele>
      </trkpt>
      <trkpt lat="51.00629" lon="4.52641">
        <ele>4</ele>
      </trkpt>
      <trkpt lat="51.0059" lon="4.52698">
        <ele>3</ele>
      </trkpt>
      <trkpt lat="51.00567" lon="4.52723">
        <ele>3</ele>
      </trkpt>
      <trkpt lat="51.00492" lon="4.52782">
        <ele>3</ele>
      </trkpt>
      <trkpt lat="51.00459" lon="4.52798">
        <ele>3</ele>
      </trkpt>
      <trkpt lat="51.0044" lon="4.52811">
        <ele>3</ele>
      </trkpt>
      <trkpt lat="51.00368" lon="4.52878">
        <ele>4</ele>
      </trkpt>
      <trkpt lat="51.00308" lon="4.52941">
        <ele>4</ele>
      </trkpt>
      <trkpt lat="51.0027" lon="4.53008">
        <ele>3</ele>
      </trkpt>
      <trkpt lat="51.0025" lon="4.53034">
        <ele>3</ele>
      </trkpt>
      <trkpt lat="51.00227" lon="4.53067">
        <ele>3</ele>
      </trkpt>
      <trkpt lat="51.00218" lon="4.53075">
        <ele>3</ele>
      </trkpt>
      <trkpt lat="51.00181" lon="4.53091">
        <ele>4</ele>
      </trkpt>
      <trkpt lat="51.00151" lon="4.53109">
        <ele>4</ele>
      </trkpt>
      <trkpt lat="51.00143" lon="4.53125">
        <ele>4</ele>
      </trkpt>
      <trkpt lat="51.00137" lon="4.53146">
        <ele>5</ele>
      </trkpt>
      <trkpt lat="51.00133" lon="4.53179">
        <ele>5</ele>
      </trkpt>
      <trkpt lat="51.00133" lon="4.53267">
        <ele>5</ele>
      </trkpt>
      <trkpt lat="51.00097" lon="4.53385">
        <ele>6</ele>
      </trkpt>
      <trkpt lat="50.99999" lon="4.53635">
        <ele>6</ele>
      </trkpt>
      <trkpt lat="50.9994" lon="4.53798">
        <ele>5</ele>
      </trkpt>
      <trkpt lat="50.99915" lon="4.53839">
        <ele>6</ele>
      </trkpt>
      <trkpt lat="50.99895" lon="4.53858">
        <ele>6</ele>
      </trkpt>
      <trkpt lat="50.99842" lon="4.53901">
        <ele>7</ele>
      </trkpt>
      <trkpt lat="50.99816" lon="4.53924">
        <ele>7</ele>
      </trkpt>
      <trkpt lat="50.99801" lon="4.53925">
        <ele>7</ele>
      </trkpt>
      <trkpt lat="50.99798" lon="4.53957">
        <ele>7</ele>
      </trkpt>
      <trkpt lat="50.99784" lon="4.54038">
        <ele>6</ele>
      </trkpt>
      <trkpt lat="50.99774" lon="4.54089">
        <ele>6</ele>
      </trkpt>
      <trkpt lat="50.99726" lon="4.54361">
        <ele>6</ele>
      </trkpt>
      <trkpt lat="50.99708" lon="4.54504">
        <ele>7</ele>
      </trkpt>
      <trkpt lat="50.99699" lon="4.54592">
        <ele>7</ele>
      </trkpt>
      <trkpt lat="50.9969" lon="4.5475">
        <ele>7</ele>
      </trkpt>
      <trkpt lat="50.99683" lon="4.54815">
        <ele>7</ele>
      </trkpt>
      <trkpt lat="50.9968" lon="4.54826">
        <ele>7</ele>
      </trkpt>
      <trkpt lat="50.99672" lon="4.54865">
        <ele>7</ele>
      </trkpt>
      <trkpt lat="50.9966" lon="4.54901">
        <ele>7</ele>
      </trkpt>
      <trkpt lat="50.99648" lon="4.54932">
        <ele>7</ele>
      </trkpt>
      <trkpt lat="50.99634" lon="4.54961">
        <ele>7</ele>
      </trkpt>
      <trkpt lat="50.99616" lon="4.54994">
        <ele>7</ele>
      </trkpt>
      <trkpt lat="50.9954" lon="4.55091">
        <ele>7</ele>
      </trkpt>
      <trkpt lat="50.99467" lon="4.5518">
        <ele>8</ele>
      </trkpt>
      <trkpt lat="50.99373" lon="4.55304">
        <ele>9</ele>
      </trkpt>
      <trkpt lat="50.99358" lon="4.55328">
        <ele>9</ele>
      </trkpt>
      <trkpt lat="50.99336" lon="4.55373">
        <ele>9</ele>
      </trkpt>
      <trkpt lat="50.99313" lon="4.5543">
        <ele>9</ele>
      </trkpt>
      <trkpt lat="50.99304" lon="4.55439">
        <ele>9</ele>
      </trkpt>
      <trkpt lat="50.99265" lon="4.55467">
        <ele>9</ele>
      </trkpt>
      <trkpt lat="50.9926" lon="4.55474">
        <ele>9</ele>
      </trkpt>
      <trkpt lat="50.99257" lon="4.55481">
        <ele>9</ele>
      </trkpt>
      <trkpt lat="50.99256" lon="4.55514">
        <ele>9</ele>
      </trkpt>
      <trkpt lat="50.99249" lon="4.55525">
        <ele>9</ele>
      </trkpt>
      <trkpt lat="50.9923" lon="4.55535">
        <ele>9</ele>
      </trkpt>
      <trkpt lat="50.99211" lon="4.55552">
        <ele>9</ele>
      </trkpt>
      <trkpt lat="50.99142" lon="4.55631">
        <ele>10</ele>
      </trkpt>
      <trkpt lat="50.99125" lon="4.55643">
        <ele>9</ele>
      </trkpt>
      <trkpt lat="50.99014" lon="4.55709">
        <ele>8</ele>
      </trkpt>
      <trkpt lat="50.98979" lon="4.55733">
        <ele>8</ele>
      </trkpt>
      <trkpt lat="50.98975" lon="4.55739">
        <ele>8</ele>
      </trkpt>
      <trkpt lat="50.98972" lon="4.55735">
        <ele>8</ele>
      </trkpt>
      <trkpt lat="50.98968" lon="4.55734">
        <ele>8</ele>
      </trkpt>
      <trkpt lat="50.98924" lon="4.5576">
        <ele>8</ele>
      </trkpt>
      <trkpt lat="50.98901" lon="4.55763">
        <ele>8</ele>
      </trkpt>
      <trkpt lat="50.98892" lon="4.55759">
        <ele>8</ele>
      </trkpt>
      <trkpt lat="50.98813" lon="4.55698">
        <ele>9</ele>
      </trkpt>
      <trkpt lat="50.98797" lon="4.55683">
        <ele>8</ele>
      </trkpt>
      <trkpt lat="50.98791" lon="4.55693">
        <ele>8</ele>
      </trkpt>
      <trkpt lat="50.9873" lon="4.55742">
        <ele>8</ele>
      </trkpt>
      <trkpt lat="50.98712" lon="4.55776">
        <ele>8</ele>
      </trkpt>
      <trkpt lat="50.98684" lon="4.55844">
        <ele>8</ele>
      </trkpt>
      <trkpt lat="50.98665" lon="4.55873">
        <ele>10</ele>
      </trkpt>
      <trkpt lat="50.98641" lon="4.55885">
        <ele>10</ele>
      </trkpt>
      <trkpt lat="50.98581" lon="4.55901">
        <ele>13</ele>
      </trkpt>
      <trkpt lat="50.98565" lon="4.55907">
        <ele>13</ele>
      </trkpt>
      <trkpt lat="50.98454" lon="4.55978">
        <ele>13</ele>
      </trkpt>
      <trkpt lat="50.98323" lon="4.55913">
        <ele>10</ele>
      </trkpt>
      <trkpt lat="50.98286" lon="4.55892">
        <ele>9</ele>
      </trkpt>
      <trkpt lat="50.98241" lon="4.55867">
        <ele>9</ele>
      </trkpt>
      <trkpt lat="50.98221" lon="4.55848">
        <ele>9</ele>
      </trkpt>
      <trkpt lat="50.98156" lon="4.55805">
        <ele>9</ele>
      </trkpt>
      <trkpt lat="50.98141" lon="4.55799">
        <ele>8</ele>
      </trkpt>
      <trkpt lat="50.98086" lon="4.55791">
        <ele>9</ele>
      </trkpt>
      <trkpt lat="50.97955" lon="4.55782">
        <ele>9</ele>
      </trkpt>
      <trkpt lat="50.97832" lon="4.55774">
        <ele>8</ele>
      </trkpt>
      <trkpt lat="50.97828" lon="4.55771">
        <ele>8</ele>
      </trkpt>
      <trkpt lat="50.97825" lon="4.55765">
        <ele>8</ele>
      </trkpt>
      <trkpt lat="50.97808" lon="4.55793">
        <ele>9</ele>
      </trkpt>
      <trkpt lat="50.97803" lon="4.55785">
        <ele>9</ele>
      </trkpt>
      <trkpt lat="50.97796" lon="4.55782">
        <ele>8</ele>
      </trkpt>
      <trkpt lat="50.97784" lon="4.55786">
        <ele>8</ele>
      </trkpt>
      <trkpt lat="50.97701" lon="4.55833">
        <ele>7</ele>
      </trkpt>
      <trkpt lat="50.97701" lon="4.55834">
        <ele>7</ele>
      </trkpt>
      <trkpt lat="50.97575" lon="4.55906">
        <ele>7</ele>
      </trkpt>
      <trkpt lat="50.97492" lon="4.55949">
        <ele>8</ele>
      </trkpt>
      <trkpt lat="50.97455" lon="4.55891">
        <ele>8</ele>
      </trkpt>
      <trkpt lat="50.97448" lon="4.55877">
        <ele>8</ele>
      </trkpt>
      <trkpt lat="50.97442" lon="4.55882">
        <ele>8</ele>
      </trkpt>
      <trkpt lat="50.974" lon="4.55941">
        <ele>9</ele>
      </trkpt>
      <trkpt lat="50.97367" lon="4.56004">
        <ele>9</ele>
      </trkpt>
      <trkpt lat="50.97321" lon="4.56073">
        <ele>9</ele>
      </trkpt>
      <trkpt lat="50.97289" lon="4.56113">
        <ele>9</ele>
      </trkpt>
      <trkpt lat="50.96981" lon="4.56584">
        <ele>13</ele>
      </trkpt>
      <trkpt lat="50.96829" lon="4.56816">
        <ele>12</ele>
      </trkpt>
      <trkpt lat="50.96691" lon="4.57035">
        <ele>12</ele>
      </trkpt>
      <trkpt lat="50.96665" lon="4.57079">
        <ele>11</ele>
      </trkpt>
      <trkpt lat="50.96629" lon="4.57136">
        <ele>11</ele>
      </trkpt>
      <trkpt lat="50.96242" lon="4.57774">
        <ele>9</ele>
      </trkpt>
      <trkpt lat="50.96029" lon="4.5812">
        <ele>17</ele>
      </trkpt>
      <trkpt lat="50.95808" lon="4.58478">
        <ele>17</ele>
      </trkpt>
      <trkpt lat="50.95494" lon="4.58994">
        <ele>15</ele>
      </trkpt>
      <trkpt lat="50.95487" lon="4.59013">
        <ele>15</ele>
      </trkpt>
      <trkpt lat="50.95481" lon="4.59035">
        <ele>15</ele>
      </trkpt>
      <trkpt lat="50.95477" lon="4.59061">
        <ele>14</ele>
      </trkpt>
      <trkpt lat="50.95476" lon="4.59089">
        <ele>13</ele>
      </trkpt>
      <trkpt lat="50.95478" lon="4.59127">
        <ele>13</ele>
      </trkpt>
      <trkpt lat="50.95484" lon="4.59159">
        <ele>13</ele>
      </trkpt>
      <trkpt lat="50.95507" lon="4.59211">
        <ele>12</ele>
      </trkpt>
      <trkpt lat="50.95512" lon="4.59223">
        <ele>12</ele>
      </trkpt>
      <trkpt lat="50.95569" lon="4.59319">
        <ele>11</ele>
      </trkpt>
      <trkpt lat="50.9558" lon="4.59347">
        <ele>11</ele>
      </trkpt>
      <trkpt lat="50.95593" lon="4.59389">
        <ele>11</ele>
      </trkpt>
      <trkpt lat="50.95602" lon="4.59408">
        <ele>11</ele>
      </trkpt>
      <trkpt lat="50.95606" lon="4.59425">
        <ele>11</ele>
      </trkpt>
      <trkpt lat="50.95606" lon="4.5945">
        <ele>11</ele>
      </trkpt>
      <trkpt lat="50.95601" lon="4.59508">
        <ele>11</ele>
      </trkpt>
      <trkpt lat="50.95593" lon="4.59568">
        <ele>11</ele>
      </trkpt>
      <trkpt lat="50.95576" lon="4.59668">
        <ele>12</ele>
      </trkpt>
      <trkpt lat="50.95409" lon="4.60552">
        <ele>13</ele>
      </trkpt>
      <trkpt lat="50.95391" lon="4.60643">
        <ele>14</ele>
      </trkpt>
      <trkpt lat="50.95356" lon="4.60834">
        <ele>15</ele>
      </trkpt>
      <trkpt lat="50.95321" lon="4.6101">
        <ele>15</ele>
      </trkpt>
      <trkpt lat="50.95318" lon="4.61039">
        <ele>15</ele>
      </trkpt>
      <trkpt lat="50.95306" lon="4.61108">
        <ele>15</ele>
      </trkpt>
      <trkpt lat="50.95189" lon="4.61727">
        <ele>17</ele>
      </trkpt>
      <trkpt lat="50.95082" lon="4.62288">
        <ele>15</ele>
      </trkpt>
      <trkpt lat="50.95076" lon="4.6231">
        <ele>15</ele>
      </trkpt>
      <trkpt lat="50.95071" lon="4.62332">
        <ele>15</ele>
      </trkpt>
      <trkpt lat="50.9507" lon="4.62324">
        <ele>15</ele>
      </trkpt>
      <trkpt lat="50.95075" lon="4.62296">
        <ele>14</ele>
      </trkpt>
      <trkpt lat="50.95076" lon="4.62277">
        <ele>14</ele>
      </trkpt>
      <trkpt lat="50.95064" lon="4.62247">
        <ele>14</ele>
      </trkpt>
      <trkpt lat="50.94938" lon="4.62004">
        <ele>13</ele>
      </trkpt>
      <trkpt lat="50.94923" lon="4.61969">
        <ele>12</ele>
      </trkpt>
      <trkpt lat="50.94908" lon="4.61925">
        <ele>12</ele>
      </trkpt>
      <trkpt lat="50.94902" lon="4.61899">
        <ele>12</ele>
      </trkpt>
      <trkpt lat="50.94898" lon="4.61872">
        <ele>13</ele>
      </trkpt>
      <trkpt lat="50.94895" lon="4.61825">
        <ele>12</ele>
      </trkpt>
      <trkpt lat="50.94897" lon="4.61773">
        <ele>12</ele>
      </trkpt>
      <trkpt lat="50.94902" lon="4.61713">
        <ele>12</ele>
      </trkpt>
      <trkpt lat="50.94901" lon="4.61696">
        <ele>12</ele>
      </trkpt>
      <trkpt lat="50.94863" lon="4.61682">
        <ele>12</ele>
      </trkpt>
      <trkpt lat="50.94847" lon="4.61671">
        <ele>13</ele>
      </trkpt>
      <trkpt lat="50.94766" lon="4.61594">
        <ele>13</ele>
      </trkpt>
      <trkpt lat="50.94743" lon="4.61576">
        <ele>12</ele>
      </trkpt>
      <trkpt lat="50.94643" lon="4.61518">
        <ele>12</ele>
      </trkpt>
      <trkpt lat="50.94625" lon="4.61501">
        <ele>12</ele>
      </trkpt>
      <trkpt lat="50.94584" lon="4.61453">
        <ele>11</ele>
      </trkpt>
      <trkpt lat="50.94575" lon="4.61445">
        <ele>11</ele>
      </trkpt>
      <trkpt lat="50.94588" lon="4.61399">
        <ele>11</ele>
      </trkpt>
      <trkpt lat="50.94597" lon="4.6138">
        <ele>11</ele>
      </trkpt>
      <trkpt lat="50.9461" lon="4.6136">
        <ele>12</ele>
      </trkpt>
      <trkpt lat="50.94638" lon="4.61332">
        <ele>12</ele>
      </trkpt>
      <trkpt lat="50.94656" lon="4.61321">
        <ele>12</ele>
      </trkpt>
      <trkpt lat="50.9481" lon="4.61271">
        <ele>13</ele>
      </trkpt>
      <trkpt lat="50.94824" lon="4.61257">
        <ele>12</ele>
      </trkpt>
      <trkpt lat="50.94829" lon="4.61248">
        <ele>12</ele>
      </trkpt>
      <trkpt lat="50.94833" lon="4.61233">
        <ele>12</ele>
      </trkpt>
      <trkpt lat="50.94852" lon="4.61154">
        <ele>12</ele>
      </trkpt>
      <trkpt lat="50.94907" lon="4.61049">
        <ele>12</ele>
      </trkpt>
      <trkpt lat="50.94912" lon="4.61036">
        <ele>12</ele>
      </trkpt>
      <trkpt lat="50.94914" lon="4.61023">
        <ele>12</ele>
      </trkpt>
      <trkpt lat="50.94887" lon="4.60832">
        <ele>12</ele>
      </trkpt>
      <trkpt lat="50.94879" lon="4.608">
        <ele>12</ele>
      </trkpt>
      <trkpt lat="50.94863" lon="4.60758">
        <ele>12</ele>
      </trkpt>
      <trkpt lat="50.94839" lon="4.60704">
        <ele>12</ele>
      </trkpt>
      <trkpt lat="50.94833" lon="4.60683">
        <ele>12</ele>
      </trkpt>
      <trkpt lat="50.94826" lon="4.60654">
        <ele>12</ele>
      </trkpt>
      <trkpt lat="50.94808" lon="4.60544">
        <ele>12</ele>
      </trkpt>
      <trkpt lat="50.94769" lon="4.60353">
        <ele>12</ele>
      </trkpt>
      <trkpt lat="50.94747" lon="4.60239">
        <ele>13</ele>
      </trkpt>
      <trkpt lat="50.94736" lon="4.60175">
        <ele>13</ele>
      </trkpt>
      <trkpt lat="50.9473" lon="4.60131">
        <ele>12</ele>
      </trkpt>
      <trkpt lat="50.94689" lon="4.60161">
        <ele>12</ele>
      </trkpt>
      <trkpt lat="50.94556" lon="4.60266">
        <ele>11</ele>
      </trkpt>
      <trkpt lat="50.94495" lon="4.6031">
        <ele>11</ele>
      </trkpt>
      <trkpt lat="50.94482" lon="4.6031">
        <ele>11</ele>
      </trkpt>
      <trkpt lat="50.94454" lon="4.60285">
        <ele>11</ele>
      </trkpt>
      <trkpt lat="50.94404" lon="4.60243">
        <ele>11</ele>
      </trkpt>
      <trkpt lat="50.94392" lon="4.60236">
        <ele>11</ele>
      </trkpt>
      <trkpt lat="50.94349" lon="4.60221">
        <ele>11</ele>
      </trkpt>
      <trkpt lat="50.94308" lon="4.60162">
        <ele>11</ele>
      </trkpt>
      <trkpt lat="50.94255" lon="4.60079">
        <ele>11</ele>
      </trkpt>
      <trkpt lat="50.94245" lon="4.60069">
        <ele>11</ele>
      </trkpt>
      <trkpt lat="50.94206" lon="4.60039">
        <ele>11</ele>
      </trkpt>
      <trkpt lat="50.94147" lon="4.5997">
        <ele>10</ele>
      </trkpt>
      <trkpt lat="50.94118" lon="4.59944">
        <ele>10</ele>
      </trkpt>
      <trkpt lat="50.94109" lon="4.59939">
        <ele>10</ele>
      </trkpt>
      <trkpt lat="50.94093" lon="4.59936">
        <ele>10</ele>
      </trkpt>
      <trkpt lat="50.94064" lon="4.59942">
        <ele>10</ele>
      </trkpt>
      <trkpt lat="50.94053" lon="4.59941">
        <ele>10</ele>
      </trkpt>
      <trkpt lat="50.94035" lon="4.59932">
        <ele>11</ele>
      </trkpt>
      <trkpt lat="50.94007" lon="4.59907">
        <ele>12</ele>
      </trkpt>
      <trkpt lat="50.9397" lon="4.59902">
        <ele>12</ele>
      </trkpt>
      <trkpt lat="50.93962" lon="4.59899">
        <ele>12</ele>
      </trkpt>
      <trkpt lat="50.93955" lon="4.5989">
        <ele>12</ele>
      </trkpt>
      <trkpt lat="50.93927" lon="4.59829">
        <ele>14</ele>
      </trkpt>
      <trkpt lat="50.93915" lon="4.59798">
        <ele>14</ele>
      </trkpt>
      <trkpt lat="50.93895" lon="4.59674">
        <ele>14</ele>
      </trkpt>
      <trkpt lat="50.93878" lon="4.59612">
        <ele>14</ele>
      </trkpt>
      <trkpt lat="50.93854" lon="4.59536">
        <ele>13</ele>
      </trkpt>
      <trkpt lat="50.93836" lon="4.5949">
        <ele>13</ele>
      </trkpt>
      <trkpt lat="50.93783" lon="4.59383">
        <ele>13</ele>
      </trkpt>
      <trkpt lat="50.93753" lon="4.59308">
        <ele>13</ele>
      </trkpt>
      <trkpt lat="50.93747" lon="4.59299">
        <ele>13</ele>
      </trkpt>
      <trkpt lat="50.9374" lon="4.59296">
        <ele>13</ele>
      </trkpt>
      <trkpt lat="50.93686" lon="4.59318">
        <ele>13</ele>
      </trkpt>
      <trkpt lat="50.9368" lon="4.59315">
        <ele>13</ele>
      </trkpt>
      <trkpt lat="50.93634" lon="4.59226">
        <ele>12</ele>
      </trkpt>
      <trkpt lat="50.93576" lon="4.59098">
        <ele>13</ele>
      </trkpt>
      <trkpt lat="50.93455" lon="4.58905">
        <ele>14</ele>
      </trkpt>
      <trkpt lat="50.93432" lon="4.58869">
        <ele>14</ele>
      </trkpt>
      <trkpt lat="50.93424" lon="4.5886">
        <ele>14</ele>
      </trkpt>
      <trkpt lat="50.9338" lon="4.58916">
        <ele>14</ele>
      </trkpt>
      <trkpt lat="50.93342" lon="4.58949">
        <ele>14</ele>
      </trkpt>
      <trkpt lat="50.93244" lon="4.59061">
        <ele>14</ele>
      </trkpt>
      <trkpt lat="50.93219" lon="4.59067">
        <ele>14</ele>
      </trkpt>
      <trkpt lat="50.93188" lon="4.59062">
        <ele>14</ele>
      </trkpt>
      <trkpt lat="50.93178" lon="4.59068">
        <ele>15</ele>
      </trkpt>
      <trkpt lat="50.93163" lon="4.59056">
        <ele>15</ele>
      </trkpt>
      <trkpt lat="50.93079" lon="4.59032">
        <ele>15</ele>
      </trkpt>
      <trkpt lat="50.9266" lon="4.58918">
        <ele>16</ele>
      </trkpt>
      <trkpt lat="50.92654" lon="4.58906">
        <ele>16</ele>
      </trkpt>
      <trkpt lat="50.92639" lon="4.58842">
        <ele>16</ele>
      </trkpt>
      <trkpt lat="50.92532" lon="4.58381">
        <ele>16</ele>
      </trkpt>
      <trkpt lat="50.92364" lon="4.57895">
        <ele>16</ele>
      </trkpt>
      <trkpt lat="50.9236" lon="4.57879">
        <ele>16</ele>
      </trkpt>
      <trkpt lat="50.92355" lon="4.57847">
        <ele>16</ele>
      </trkpt>
      <trkpt lat="50.92333" lon="4.57513">
        <ele>15</ele>
      </trkpt>
      <trkpt lat="50.92333" lon="4.57446">
        <ele>16</ele>
      </trkpt>
      <trkpt lat="50.92335" lon="4.57418">
        <ele>16</ele>
      </trkpt>
      <trkpt lat="50.92343" lon="4.57367">
        <ele>16</ele>
      </trkpt>
      <trkpt lat="50.92353" lon="4.57326">
        <ele>17</ele>
      </trkpt>
      <trkpt lat="50.9236" lon="4.57299">
        <ele>17</ele>
      </trkpt>
      <trkpt lat="50.92385" lon="4.57229">
        <ele>17</ele>
      </trkpt>
      <trkpt lat="50.92377" lon="4.57198">
        <ele>18</ele>
      </trkpt>
      <trkpt lat="50.92308" lon="4.57052">
        <ele>18</ele>
      </trkpt>
      <trkpt lat="50.92256" lon="4.56946">
        <ele>18</ele>
      </trkpt>
      <trkpt lat="50.92241" lon="4.56912">
        <ele>18</ele>
      </trkpt>
      <trkpt lat="50.92237" lon="4.56899">
        <ele>19</ele>
      </trkpt>
      <trkpt lat="50.92143" lon="4.56925">
        <ele>18</ele>
      </trkpt>
      <trkpt lat="50.92126" lon="4.56924">
        <ele>19</ele>
      </trkpt>
      <trkpt lat="50.92069" lon="4.56911">
        <ele>19</ele>
      </trkpt>
      <trkpt lat="50.92016" lon="4.56892">
        <ele>19</ele>
      </trkpt>
      <trkpt lat="50.91989" lon="4.56872">
        <ele>19</ele>
      </trkpt>
      <trkpt lat="50.91982" lon="4.56859">
        <ele>19</ele>
      </trkpt>
      <trkpt lat="50.91944" lon="4.5673">
        <ele>20</ele>
      </trkpt>
      <trkpt lat="50.9194" lon="4.56713">
        <ele>20</ele>
      </trkpt>
      <trkpt lat="50.919" lon="4.56526">
        <ele>23</ele>
      </trkpt>
      <trkpt lat="50.91893" lon="4.5652">
        <ele>23</ele>
      </trkpt>
      <trkpt lat="50.91884" lon="4.56503">
        <ele>23</ele>
      </trkpt>
      <trkpt lat="50.91875" lon="4.56485">
        <ele>24</ele>
      </trkpt>
      <trkpt lat="50.91873" lon="4.5647">
        <ele>24</ele>
      </trkpt>
      <trkpt lat="50.91876" lon="4.56446">
        <ele>24</ele>
      </trkpt>
      <trkpt lat="50.91876" lon="4.56398">
        <ele>24</ele>
      </trkpt>
      <trkpt lat="50.91868" lon="4.56357">
        <ele>24</ele>
      </trkpt>
      <trkpt lat="50.91858" lon="4.56305">
        <ele>24</ele>
      </trkpt>
      <trkpt lat="50.91836" lon="4.56303">
        <ele>24</ele>
      </trkpt>
      <trkpt lat="50.91803" lon="4.56307">
        <ele>24</ele>
      </trkpt>
      <trkpt lat="50.91774" lon="4.56321">
        <ele>24</ele>
      </trkpt>
      <trkpt lat="50.91661" lon="4.56403">
        <ele>25</ele>
      </trkpt>
      <trkpt lat="50.91616" lon="4.56428">
        <ele>25</ele>
      </trkpt>
      <trkpt lat="50.916" lon="4.56433">
        <ele>25</ele>
      </trkpt>
      <trkpt lat="50.91572" lon="4.56436">
        <ele>25</ele>
      </trkpt>
      <trkpt lat="50.91543" lon="4.56432">
        <ele>26</ele>
      </trkpt>
      <trkpt lat="50.91366" lon="4.56386">
        <ele>27</ele>
      </trkpt>
      <trkpt lat="50.91255" lon="4.56356">
        <ele>28</ele>
      </trkpt>
      <trkpt lat="50.91152" lon="4.56332">
        <ele>27</ele>
      </trkpt>
      <trkpt lat="50.91119" lon="4.56338">
        <ele>27</ele>
      </trkpt>
      <trkpt lat="50.91098" lon="4.5635">
        <ele>27</ele>
      </trkpt>
      <trkpt lat="50.91083" lon="4.56358">
        <ele>27</ele>
      </trkpt>
      <trkpt lat="50.90995" lon="4.56435">
        <ele>27</ele>
      </trkpt>
      <trkpt lat="50.90861" lon="4.56546">
        <ele>27</ele>
      </trkpt>
      <trkpt lat="50.90839" lon="4.56543">
        <ele>27</ele>
      </trkpt>
      <trkpt lat="50.9082" lon="4.56534">
        <ele>28</ele>
      </trkpt>
      <trkpt lat="50.90651" lon="4.56297">
        <ele>29</ele>
      </trkpt>
      <trkpt lat="50.90551" lon="4.5615">
        <ele>32</ele>
      </trkpt>
      <trkpt lat="50.90543" lon="4.56132">
        <ele>32</ele>
      </trkpt>
      <trkpt lat="50.90515" lon="4.56057">
        <ele>34</ele>
      </trkpt>
      <trkpt lat="50.90466" lon="4.55907">
        <ele>35</ele>
      </trkpt>
      <trkpt lat="50.90442" lon="4.55815">
        <ele>36</ele>
      </trkpt>
      <trkpt lat="50.90437" lon="4.55799">
        <ele>36</ele>
      </trkpt>
      <trkpt lat="50.90401" lon="4.55719">
        <ele>37</ele>
      </trkpt>
      <trkpt lat="50.90382" lon="4.55659">
        <ele>37</ele>
      </trkpt>
      <trkpt lat="50.90338" lon="4.55512">
        <ele>37</ele>
      </trkpt>
      <trkpt lat="50.90287" lon="4.55359">
        <ele>38</ele>
      </trkpt>
      <trkpt lat="50.90276" lon="4.55344">
        <ele>39</ele>
      </trkpt>
      <trkpt lat="50.9019" lon="4.55115">
        <ele>39</ele>
      </trkpt>
      <trkpt lat="50.90169" lon="4.55053">
        <ele>39</ele>
      </trkpt>
      <trkpt lat="50.9014" lon="4.54984">
        <ele>39</ele>
      </trkpt>
      <trkpt lat="50.90072" lon="4.54823">
        <ele>41</ele>
      </trkpt>
      <trkpt lat="50.90037" lon="4.54762">
        <ele>41</ele>
      </trkpt>
      <trkpt lat="50.90028" lon="4.5475">
        <ele>41</ele>
      </trkpt>
      <trkpt lat="50.89939" lon="4.54652">
        <ele>41</ele>
      </trkpt>
      <trkpt lat="50.89919" lon="4.54636">
        <ele>41</ele>
      </trkpt>
      <trkpt lat="50.89894" lon="4.54609">
        <ele>41</ele>
      </trkpt>
      <trkpt lat="50.89775" lon="4.54499">
        <ele>41</ele>
      </trkpt>
      <trkpt lat="50.89751" lon="4.54483">
        <ele>41</ele>
      </trkpt>
      <trkpt lat="50.89666" lon="4.54372">
        <ele>42</ele>
      </trkpt>
      <trkpt lat="50.8963" lon="4.54318">
        <ele>43</ele>
      </trkpt>
      <trkpt lat="50.89372" lon="4.53885">
        <ele>45</ele>
      </trkpt>
      <trkpt lat="50.89363" lon="4.53869">
        <ele>45</ele>
      </trkpt>
      <trkpt lat="50.89356" lon="4.53876">
        <ele>45</ele>
      </trkpt>
      <trkpt lat="50.89352" lon="4.53876">
        <ele>45</ele>
      </trkpt>
      <trkpt lat="50.89342" lon="4.53869">
        <ele>45</ele>
      </trkpt>
      <trkpt lat="50.89339" lon="4.53861">
        <ele>45</ele>
      </trkpt>
      <trkpt lat="50.89334" lon="4.53857">
        <ele>45</ele>
      </trkpt>
      <trkpt lat="50.89298" lon="4.5385">
        <ele>45</ele>
      </trkpt>
      <trkpt lat="50.89287" lon="4.5385">
        <ele>45</ele>
      </trkpt>
      <trkpt lat="50.89275" lon="4.53854">
        <ele>45</ele>
      </trkpt>
      <trkpt lat="50.89261" lon="4.53865">
        <ele>44</ele>
      </trkpt>
      <trkpt lat="50.89247" lon="4.53886">
        <ele>44</ele>
      </trkpt>
      <trkpt lat="50.8924" lon="4.5391">
        <ele>44</ele>
      </trkpt>
      <trkpt lat="50.89238" lon="4.53924">
        <ele>44</ele>
      </trkpt>
      <trkpt lat="50.89238" lon="4.53948">
        <ele>44</ele>
      </trkpt>
      <trkpt lat="50.89249" lon="4.5403">
        <ele>44</ele>
      </trkpt>
      <trkpt lat="50.89245" lon="4.54032">
        <ele>44</ele>
      </trkpt>
      <trkpt lat="50.89242" lon="4.54036">
        <ele>44</ele>
      </trkpt>
      <trkpt lat="50.89245" lon="4.54048">
        <ele>44</ele>
      </trkpt>
      <trkpt lat="50.89249" lon="4.54097">
        <ele>44</ele>
      </trkpt>
      <trkpt lat="50.89256" lon="4.54172">
        <ele>44</ele>
      </trkpt>
      <trkpt lat="50.89254" lon="4.54205">
        <ele>44</ele>
      </trkpt>
      <trkpt lat="50.89244" lon="4.54212">
        <ele>44</ele>
      </trkpt>
      <trkpt lat="50.88927" lon="4.5436">
        <ele>47</ele>
      </trkpt>
      <trkpt lat="50.88883" lon="4.54381">
        <ele>47</ele>
      </trkpt>
      <trkpt lat="50.88839" lon="4.54409">
        <ele>47</ele>
      </trkpt>
      <trkpt lat="50.88837" lon="4.54401">
        <ele>47</ele>
      </trkpt>
      <trkpt lat="50.8871" lon="4.54461">
        <ele>46</ele>
      </trkpt>
      <trkpt lat="50.88559" lon="4.54535">
        <ele>44</ele>
      </trkpt>
      <trkpt lat="50.88536" lon="4.5454">
        <ele>44</ele>
      </trkpt>
      <trkpt lat="50.88495" lon="4.54523">
        <ele>44</ele>
      </trkpt>
      <trkpt lat="50.88432" lon="4.54511">
        <ele>43</ele>
      </trkpt>
      <trkpt lat="50.88392" lon="4.54492">
        <ele>43</ele>
      </trkpt>
      <trkpt lat="50.88349" lon="4.54458">
        <ele>43</ele>
      </trkpt>
      <trkpt lat="50.88337" lon="4.54454">
        <ele>44</ele>
      </trkpt>
      <trkpt lat="50.88261" lon="4.54456">
        <ele>45</ele>
      </trkpt>
      <trkpt lat="50.8825" lon="4.54454">
        <ele>45</ele>
      </trkpt>
      <trkpt lat="50.88242" lon="4.54449">
        <ele>45</ele>
      </trkpt>
      <trkpt lat="50.88235" lon="4.5444">
        <ele>45</ele>
      </trkpt>
      <trkpt lat="50.8822" lon="4.54393">
        <ele>45</ele>
      </trkpt>
      <trkpt lat="50.88212" lon="4.54384">
        <ele>45</ele>
      </trkpt>
      <trkpt lat="50.88204" lon="4.54379">
        <ele>45</ele>
      </trkpt>
      <trkpt lat="50.88149" lon="4.54371">
        <ele>46</ele>
      </trkpt>
      <trkpt lat="50.88131" lon="4.54362">
        <ele>47</ele>
      </trkpt>
      <trkpt lat="50.88123" lon="4.54354">
        <ele>47</ele>
      </trkpt>
      <trkpt lat="50.8809" lon="4.54313">
        <ele>49</ele>
      </trkpt>
      <trkpt lat="50.87989" lon="4.54205">
        <ele>50</ele>
      </trkpt>
      <trkpt lat="50.8792" lon="4.54065">
        <ele>48</ele>
      </trkpt>
      <trkpt lat="50.8791" lon="4.5406">
        <ele>48</ele>
      </trkpt>
      <trkpt lat="50.87866" lon="4.54062">
        <ele>49</ele>
      </trkpt>
      <trkpt lat="50.87818" lon="4.5407">
        <ele>53</ele>
      </trkpt>
      <trkpt lat="50.87776" lon="4.54066">
        <ele>53</ele>
      </trkpt>
      <trkpt lat="50.87753" lon="4.54064">
        <ele>55</ele>
      </trkpt>
      <trkpt lat="50.87728" lon="4.54066">
        <ele>55</ele>
      </trkpt>
      <trkpt lat="50.87633" lon="4.5409">
        <ele>59</ele>
      </trkpt>
      <trkpt lat="50.87622" lon="4.54087">
        <ele>59</ele>
      </trkpt>
      <trkpt lat="50.87605" lon="4.54126">
        <ele>59</ele>
      </trkpt>
      <trkpt lat="50.87598" lon="4.54159">
        <ele>60</ele>
      </trkpt>
      <trkpt lat="50.87594" lon="4.54184">
        <ele>62</ele>
      </trkpt>
      <trkpt lat="50.87593" lon="4.5421">
        <ele>62</ele>
      </trkpt>
      <trkpt lat="50.87595" lon="4.54242">
        <ele>62</ele>
      </trkpt>
      <trkpt lat="50.87604" lon="4.54284">
        <ele>63</ele>
      </trkpt>
      <trkpt lat="50.8763" lon="4.54378">
        <ele>62</ele>
      </trkpt>
      <trkpt lat="50.87632" lon="4.54377">
        <ele>62</ele>
      </trkpt>
      <trkpt lat="50.87637" lon="4.54381">
        <ele>62</ele>
      </trkpt>
      <trkpt lat="50.87644" lon="4.54395">
        <ele>62</ele>
      </trkpt>
      <trkpt lat="50.87645" lon="4.544">
        <ele>62</ele>
      </trkpt>
      <trkpt lat="50.87722" lon="4.54561">
        <ele>60</ele>
      </trkpt>
      <trkpt lat="50.87729" lon="4.5458">
        <ele>59</ele>
      </trkpt>
      <trkpt lat="50.87759" lon="4.54667">
        <ele>59</ele>
      </trkpt>
      <trkpt lat="50.87783" lon="4.54728">
        <ele>65</ele>
      </trkpt>
      <trkpt lat="50.87805" lon="4.54777">
        <ele>61</ele>
      </trkpt>
      <trkpt lat="50.87825" lon="4.5483">
        <ele>60</ele>
      </trkpt>
      <trkpt lat="50.87842" lon="4.54885">
        <ele>60</ele>
      </trkpt>
      <trkpt lat="50.87859" lon="4.54962">
        <ele>62</ele>
      </trkpt>
      <trkpt lat="50.8788" lon="4.5509">
        <ele>55</ele>
      </trkpt>
      <trkpt lat="50.87886" lon="4.55141">
        <ele>54</ele>
      </trkpt>
      <trkpt lat="50.87898" lon="4.5514">
        <ele>54</ele>
      </trkpt>
    </trkseg>
  </trk>
</gpx>