<?xml version='1.0' encoding='UTF-8'?>
<gpx xmlns="http://www.topografix.com/GPX/1/1" xmlns:xsi="http://www.w3.org/2001/XMLSchema-instance" creator="RouteYou" version="1.1" xsi:schemaLocation="http://www.topografix.com/GPX/1/1 http://www.topografix.com/GPX/1/1/gpx.xsd">
  <trk>
    <name>Congo-rit 2025</name>
    <desc />
    <trkseg>
      <trkpt lat="50.87886" lon="4.5514">
        <ele>54</ele>
      </trkpt>
      <trkpt lat="50.87925" lon="4.55463">
        <ele>51</ele>
      </trkpt>
      <trkpt lat="50.87836" lon="4.55445">
        <ele>49</ele>
      </trkpt>
      <trkpt lat="50.87749" lon="4.55446">
        <ele>48</ele>
      </trkpt>
      <trkpt lat="50.87703" lon="4.5544">
        <ele>48</ele>
      </trkpt>
      <trkpt lat="50.87697" lon="4.55438">
        <ele>48</ele>
      </trkpt>
      <trkpt lat="50.87641" lon="4.55417">
        <ele>49</ele>
      </trkpt>
      <trkpt lat="50.87629" lon="4.55405">
        <ele>50</ele>
      </trkpt>
      <trkpt lat="50.87607" lon="4.55464">
        <ele>49</ele>
      </trkpt>
      <trkpt lat="50.87603" lon="4.5548">
        <ele>49</ele>
      </trkpt>
      <trkpt lat="50.876" lon="4.55498">
        <ele>49</ele>
      </trkpt>
      <trkpt lat="50.876" lon="4.55532">
        <ele>49</ele>
      </trkpt>
      <trkpt lat="50.87606" lon="4.55634">
        <ele>48</ele>
      </trkpt>
      <trkpt lat="50.87602" lon="4.55667">
        <ele>48</ele>
      </trkpt>
      <trkpt lat="50.87602" lon="4.55681">
        <ele>48</ele>
      </trkpt>
      <trkpt lat="50.87604" lon="4.55694">
        <ele>48</ele>
      </trkpt>
      <trkpt lat="50.8763" lon="4.55789">
        <ele>47</ele>
      </trkpt>
      <trkpt lat="50.87635" lon="4.55817">
        <ele>47</ele>
      </trkpt>
      <trkpt lat="50.87639" lon="4.5585">
        <ele>47</ele>
      </trkpt>
      <trkpt lat="50.87655" lon="4.56247">
        <ele>47</ele>
      </trkpt>
      <trkpt lat="50.87661" lon="4.56308">
        <ele>47</ele>
      </trkpt>
      <trkpt lat="50.87686" lon="4.56527">
        <ele>49</ele>
      </trkpt>
      <trkpt lat="50.87704" lon="4.56666">
        <ele>52</ele>
      </trkpt>
      <trkpt lat="50.87721" lon="4.56778">
        <ele>54</ele>
      </trkpt>
      <trkpt lat="50.87725" lon="4.56802">
        <ele>53</ele>
      </trkpt>
      <trkpt lat="50.8773" lon="4.568">
        <ele>53</ele>
      </trkpt>
      <trkpt lat="50.87738" lon="4.56806">
        <ele>53</ele>
      </trkpt>
      <trkpt lat="50.8774" lon="4.56818">
        <ele>53</ele>
      </trkpt>
      <trkpt lat="50.87739" lon="4.56825">
        <ele>53</ele>
      </trkpt>
      <trkpt lat="50.87735" lon="4.5683">
        <ele>54</ele>
      </trkpt>
      <trkpt lat="50.87731" lon="4.56833">
        <ele>54</ele>
      </trkpt>
      <trkpt lat="50.87727" lon="4.56833">
        <ele>54</ele>
      </trkpt>
      <trkpt lat="50.87721" lon="4.56826">
        <ele>53</ele>
      </trkpt>
      <trkpt lat="50.87719" lon="4.56816">
        <ele>53</ele>
      </trkpt>
      <trkpt lat="50.87711" lon="4.56815">
        <ele>54</ele>
      </trkpt>
      <trkpt lat="50.87689" lon="4.56818">
        <ele>54</ele>
      </trkpt>
      <trkpt lat="50.87689" lon="4.56819">
        <ele>55</ele>
      </trkpt>
      <trkpt lat="50.87474" lon="4.56871">
        <ele>57</ele>
      </trkpt>
      <trkpt lat="50.8746" lon="4.56864">
        <ele>57</ele>
      </trkpt>
      <trkpt lat="50.87433" lon="4.56852">
        <ele>58</ele>
      </trkpt>
      <trkpt lat="50.87406" lon="4.5684">
        <ele>58</ele>
      </trkpt>
      <trkpt lat="50.8737" lon="4.56826">
        <ele>59</ele>
      </trkpt>
      <trkpt lat="50.87346" lon="4.56797">
        <ele>59</ele>
      </trkpt>
      <trkpt lat="50.87317" lon="4.56686">
        <ele>60</ele>
      </trkpt>
      <trkpt lat="50.87302" lon="4.56586">
        <ele>59</ele>
      </trkpt>
      <trkpt lat="50.87288" lon="4.56547">
        <ele>62</ele>
      </trkpt>
      <trkpt lat="50.87214" lon="4.56506">
        <ele>64</ele>
      </trkpt>
      <trkpt lat="50.8711" lon="4.56465">
        <ele>61</ele>
      </trkpt>
      <trkpt lat="50.87069" lon="4.56434">
        <ele>64</ele>
      </trkpt>
      <trkpt lat="50.87023" lon="4.56387">
        <ele>61</ele>
      </trkpt>
      <trkpt lat="50.86944" lon="4.56285">
        <ele>67</ele>
      </trkpt>
      <trkpt lat="50.86898" lon="4.56226">
        <ele>67</ele>
      </trkpt>
      <trkpt lat="50.86817" lon="4.56168">
        <ele>68</ele>
      </trkpt>
      <trkpt lat="50.86658" lon="4.5604">
        <ele>80</ele>
      </trkpt>
      <trkpt lat="50.86562" lon="4.55918">
        <ele>94</ele>
      </trkpt>
      <trkpt lat="50.86394" lon="4.55756">
        <ele>99</ele>
      </trkpt>
      <trkpt lat="50.8633" lon="4.55712">
        <ele>99</ele>
      </trkpt>
      <trkpt lat="50.86105" lon="4.55688">
        <ele>98</ele>
      </trkpt>
      <trkpt lat="50.86077" lon="4.55677">
        <ele>98</ele>
      </trkpt>
      <trkpt lat="50.8607" lon="4.55683">
        <ele>98</ele>
      </trkpt>
      <trkpt lat="50.86075" lon="4.55693">
        <ele>98</ele>
      </trkpt>
      <trkpt lat="50.86071" lon="4.55685">
        <ele>98</ele>
      </trkpt>
      <trkpt lat="50.86077" lon="4.55677">
        <ele>98</ele>
      </trkpt>
      <trkpt lat="50.85957" lon="4.55453">
        <ele>99</ele>
      </trkpt>
      <trkpt lat="50.85886" lon="4.55343">
        <ele>99</ele>
      </trkpt>
      <trkpt lat="50.85836" lon="4.5527">
        <ele>100</ele>
      </trkpt>
      <trkpt lat="50.85805" lon="4.55239">
        <ele>100</ele>
      </trkpt>
      <trkpt lat="50.8575" lon="4.55214">
        <ele>100</ele>
      </trkpt>
      <trkpt lat="50.85621" lon="4.55219">
        <ele>94</ele>
      </trkpt>
      <trkpt lat="50.85596" lon="4.55221">
        <ele>94</ele>
      </trkpt>
      <trkpt lat="50.85595" lon="4.55206">
        <ele>97</ele>
      </trkpt>
      <trkpt lat="50.85588" lon="4.5511">
        <ele>98</ele>
      </trkpt>
      <trkpt lat="50.85596" lon="4.55079">
        <ele>98</ele>
      </trkpt>
      <trkpt lat="50.85624" lon="4.54997">
        <ele>99</ele>
      </trkpt>
      <trkpt lat="50.85592" lon="4.54917">
        <ele>97</ele>
      </trkpt>
      <trkpt lat="50.85547" lon="4.54808">
        <ele>96</ele>
      </trkpt>
      <trkpt lat="50.85503" lon="4.54698">
        <ele>99</ele>
      </trkpt>
      <trkpt lat="50.85481" lon="4.54641">
        <ele>99</ele>
      </trkpt>
      <trkpt lat="50.85455" lon="4.5458">
        <ele>99</ele>
      </trkpt>
      <trkpt lat="50.85419" lon="4.54491">
        <ele>99</ele>
      </trkpt>
      <trkpt lat="50.85392" lon="4.5442">
        <ele>98</ele>
      </trkpt>
      <trkpt lat="50.85284" lon="4.54161">
        <ele>100</ele>
      </trkpt>
      <trkpt lat="50.85215" lon="4.53995">
        <ele>96</ele>
      </trkpt>
      <trkpt lat="50.8521" lon="4.53984">
        <ele>96</ele>
      </trkpt>
      <trkpt lat="50.85183" lon="4.53984">
        <ele>96</ele>
      </trkpt>
      <trkpt lat="50.85153" lon="4.53984">
        <ele>96</ele>
      </trkpt>
      <trkpt lat="50.85003" lon="4.5398">
        <ele>97</ele>
      </trkpt>
      <trkpt lat="50.84971" lon="4.53966">
        <ele>95</ele>
      </trkpt>
      <trkpt lat="50.8497" lon="4.53971">
        <ele>95</ele>
      </trkpt>
      <trkpt lat="50.84823" lon="4.53841">
        <ele>94</ele>
      </trkpt>
      <trkpt lat="50.84785" lon="4.53819">
        <ele>93</ele>
      </trkpt>
      <trkpt lat="50.84768" lon="4.53814">
        <ele>93</ele>
      </trkpt>
      <trkpt lat="50.84724" lon="4.53812">
        <ele>92</ele>
      </trkpt>
      <trkpt lat="50.84688" lon="4.53805">
        <ele>91</ele>
      </trkpt>
      <trkpt lat="50.84651" lon="4.53792">
        <ele>89</ele>
      </trkpt>
      <trkpt lat="50.84629" lon="4.53781">
        <ele>89</ele>
      </trkpt>
      <trkpt lat="50.84598" lon="4.53765">
        <ele>89</ele>
      </trkpt>
      <trkpt lat="50.84444" lon="4.53887">
        <ele>90</ele>
      </trkpt>
      <trkpt lat="50.84391" lon="4.53932">
        <ele>89</ele>
      </trkpt>
      <trkpt lat="50.84249" lon="4.54044">
        <ele>83</ele>
      </trkpt>
      <trkpt lat="50.84233" lon="4.54054">
        <ele>82</ele>
      </trkpt>
      <trkpt lat="50.84178" lon="4.54078">
        <ele>82</ele>
      </trkpt>
      <trkpt lat="50.84175" lon="4.5408">
        <ele>82</ele>
      </trkpt>
      <trkpt lat="50.84228" lon="4.5445">
        <ele>81</ele>
      </trkpt>
      <trkpt lat="50.84248" lon="4.54601">
        <ele>81</ele>
      </trkpt>
      <trkpt lat="50.84248" lon="4.54616">
        <ele>80</ele>
      </trkpt>
      <trkpt lat="50.84246" lon="4.54627">
        <ele>80</ele>
      </trkpt>
      <trkpt lat="50.84238" lon="4.54652">
        <ele>80</ele>
      </trkpt>
      <trkpt lat="50.8422" lon="4.54672">
        <ele>79</ele>
      </trkpt>
      <trkpt lat="50.84108" lon="4.54985">
        <ele>67</ele>
      </trkpt>
      <trkpt lat="50.84052" lon="4.55117">
        <ele>65</ele>
      </trkpt>
      <trkpt lat="50.83965" lon="4.55322">
        <ele>63</ele>
      </trkpt>
      <trkpt lat="50.83926" lon="4.55401">
        <ele>61</ele>
      </trkpt>
      <trkpt lat="50.83872" lon="4.55492">
        <ele>60</ele>
      </trkpt>
      <trkpt lat="50.83583" lon="4.56016">
        <ele>57</ele>
      </trkpt>
      <trkpt lat="50.83579" lon="4.56023">
        <ele>57</ele>
      </trkpt>
      <trkpt lat="50.835" lon="4.55876">
        <ele>58</ele>
      </trkpt>
      <trkpt lat="50.83494" lon="4.55861">
        <ele>58</ele>
      </trkpt>
      <trkpt lat="50.83487" lon="4.55827">
        <ele>58</ele>
      </trkpt>
      <trkpt lat="50.83483" lon="4.55815">
        <ele>59</ele>
      </trkpt>
      <trkpt lat="50.83474" lon="4.55801">
        <ele>59</ele>
      </trkpt>
      <trkpt lat="50.83465" lon="4.55795">
        <ele>59</ele>
      </trkpt>
      <trkpt lat="50.83452" lon="4.55806">
        <ele>59</ele>
      </trkpt>
      <trkpt lat="50.83442" lon="4.55831">
        <ele>58</ele>
      </trkpt>
      <trkpt lat="50.83442" lon="4.55846">
        <ele>58</ele>
      </trkpt>
      <trkpt lat="50.83447" lon="4.55858">
        <ele>58</ele>
      </trkpt>
      <trkpt lat="50.83446" lon="4.55859">
        <ele>58</ele>
      </trkpt>
      <trkpt lat="50.83445" lon="4.55819">
        <ele>58</ele>
      </trkpt>
      <trkpt lat="50.8346" lon="4.55793">
        <ele>58</ele>
      </trkpt>
      <trkpt lat="50.8347" lon="4.55789">
        <ele>60</ele>
      </trkpt>
      <trkpt lat="50.83478" lon="4.55805">
        <ele>59</ele>
      </trkpt>
      <trkpt lat="50.83477" lon="4.55807">
        <ele>59</ele>
      </trkpt>
      <trkpt lat="50.83474" lon="4.55801">
        <ele>59</ele>
      </trkpt>
      <trkpt lat="50.83465" lon="4.55795">
        <ele>59</ele>
      </trkpt>
      <trkpt lat="50.83458" lon="4.55785">
        <ele>59</ele>
      </trkpt>
      <trkpt lat="50.83447" lon="4.55734">
        <ele>61</ele>
      </trkpt>
      <trkpt lat="50.8338" lon="4.55758">
        <ele>58</ele>
      </trkpt>
      <trkpt lat="50.83314" lon="4.55785">
        <ele>55</ele>
      </trkpt>
      <trkpt lat="50.83287" lon="4.55803">
        <ele>56</ele>
      </trkpt>
      <trkpt lat="50.83272" lon="4.55817">
        <ele>56</ele>
      </trkpt>
      <trkpt lat="50.83241" lon="4.55853">
        <ele>59</ele>
      </trkpt>
      <trkpt lat="50.83243" lon="4.55863">
        <ele>59</ele>
      </trkpt>
      <trkpt lat="50.83239" lon="4.55872">
        <ele>59</ele>
      </trkpt>
      <trkpt lat="50.83245" lon="4.55889">
        <ele>59</ele>
      </trkpt>
      <trkpt lat="50.83256" lon="4.55933">
        <ele>59</ele>
      </trkpt>
      <trkpt lat="50.83287" lon="4.56167">
        <ele>56</ele>
      </trkpt>
      <trkpt lat="50.83298" lon="4.56214">
        <ele>55</ele>
      </trkpt>
      <trkpt lat="50.8333" lon="4.5629">
        <ele>56</ele>
      </trkpt>
      <trkpt lat="50.83364" lon="4.56378">
        <ele>57</ele>
      </trkpt>
      <trkpt lat="50.83371" lon="4.5642">
        <ele>58</ele>
      </trkpt>
      <trkpt lat="50.83371" lon="4.56437">
        <ele>58</ele>
      </trkpt>
      <trkpt lat="50.83369" lon="4.56439">
        <ele>60</ele>
      </trkpt>
      <trkpt lat="50.83185" lon="4.56644">
        <ele>60</ele>
      </trkpt>
      <trkpt lat="50.83165" lon="4.56655">
        <ele>60</ele>
      </trkpt>
      <trkpt lat="50.83147" lon="4.56652">
        <ele>60</ele>
      </trkpt>
      <trkpt lat="50.831" lon="4.56613">
        <ele>61</ele>
      </trkpt>
      <trkpt lat="50.8306" lon="4.56601">
        <ele>61</ele>
      </trkpt>
      <trkpt lat="50.83005" lon="4.56601">
        <ele>65</ele>
      </trkpt>
      <trkpt lat="50.82562" lon="4.56509">
        <ele>84</ele>
      </trkpt>
      <trkpt lat="50.82356" lon="4.56424">
        <ele>95</ele>
      </trkpt>
      <trkpt lat="50.823" lon="4.56389">
        <ele>95</ele>
      </trkpt>
      <trkpt lat="50.8218" lon="4.56311">
        <ele>103</ele>
      </trkpt>
      <trkpt lat="50.8206" lon="4.56238">
        <ele>102</ele>
      </trkpt>
      <trkpt lat="50.82034" lon="4.5621">
        <ele>103</ele>
      </trkpt>
      <trkpt lat="50.82019" lon="4.56192">
        <ele>103</ele>
      </trkpt>
      <trkpt lat="50.81959" lon="4.5606">
        <ele>100</ele>
      </trkpt>
      <trkpt lat="50.81881" lon="4.5586">
        <ele>99</ele>
      </trkpt>
      <trkpt lat="50.81824" lon="4.55696">
        <ele>102</ele>
      </trkpt>
      <trkpt lat="50.81707" lon="4.55353">
        <ele>99</ele>
      </trkpt>
      <trkpt lat="50.81676" lon="4.55308">
        <ele>99</ele>
      </trkpt>
      <trkpt lat="50.8166" lon="4.55286">
        <ele>97</ele>
      </trkpt>
      <trkpt lat="50.81652" lon="4.55274">
        <ele>97</ele>
      </trkpt>
      <trkpt lat="50.81642" lon="4.55262">
        <ele>97</ele>
      </trkpt>
      <trkpt lat="50.81607" lon="4.5519">
        <ele>95</ele>
      </trkpt>
      <trkpt lat="50.81579" lon="4.55193">
        <ele>95</ele>
      </trkpt>
      <trkpt lat="50.81572" lon="4.55179">
        <ele>95</ele>
      </trkpt>
      <trkpt lat="50.81515" lon="4.55051">
        <ele>96</ele>
      </trkpt>
      <trkpt lat="50.81209" lon="4.54388">
        <ele>98</ele>
      </trkpt>
      <trkpt lat="50.8119" lon="4.54335">
        <ele>99</ele>
      </trkpt>
      <trkpt lat="50.81186" lon="4.54326">
        <ele>99</ele>
      </trkpt>
      <trkpt lat="50.81204" lon="4.54297">
        <ele>99</ele>
      </trkpt>
      <trkpt lat="50.81274" lon="4.54227">
        <ele>97</ele>
      </trkpt>
      <trkpt lat="50.81303" lon="4.54202">
        <ele>98</ele>
      </trkpt>
      <trkpt lat="50.81402" lon="4.54158">
        <ele>96</ele>
      </trkpt>
      <trkpt lat="50.81527" lon="4.54102">
        <ele>90</ele>
      </trkpt>
      <trkpt lat="50.81567" lon="4.5407">
        <ele>85</ele>
      </trkpt>
      <trkpt lat="50.81597" lon="4.54019">
        <ele>85</ele>
      </trkpt>
      <trkpt lat="50.81618" lon="4.53937">
        <ele>85</ele>
      </trkpt>
      <trkpt lat="50.81638" lon="4.53818">
        <ele>84</ele>
      </trkpt>
      <trkpt lat="50.81675" lon="4.53676">
        <ele>83</ele>
      </trkpt>
      <trkpt lat="50.81767" lon="4.53402">
        <ele>92</ele>
      </trkpt>
      <trkpt lat="50.81844" lon="4.5315">
        <ele>87</ele>
      </trkpt>
      <trkpt lat="50.8185" lon="4.52968">
        <ele>85</ele>
      </trkpt>
      <trkpt lat="50.81851" lon="4.52955">
        <ele>81</ele>
      </trkpt>
      <trkpt lat="50.81859" lon="4.52916">
        <ele>81</ele>
      </trkpt>
      <trkpt lat="50.81867" lon="4.52901">
        <ele>81</ele>
      </trkpt>
      <trkpt lat="50.81872" lon="4.52894">
        <ele>81</ele>
      </trkpt>
      <trkpt lat="50.81884" lon="4.52876">
        <ele>83</ele>
      </trkpt>
      <trkpt lat="50.81945" lon="4.52781">
        <ele>78</ele>
      </trkpt>
      <trkpt lat="50.8215" lon="4.5247">
        <ele>97</ele>
      </trkpt>
      <trkpt lat="50.82162" lon="4.52443">
        <ele>95</ele>
      </trkpt>
      <trkpt lat="50.82165" lon="4.52405">
        <ele>95</ele>
      </trkpt>
      <trkpt lat="50.82143" lon="4.52032">
        <ele>86</ele>
      </trkpt>
      <trkpt lat="50.82136" lon="4.51923">
        <ele>81</ele>
      </trkpt>
      <trkpt lat="50.82131" lon="4.5184">
        <ele>77</ele>
      </trkpt>
      <trkpt lat="50.82131" lon="4.51774">
        <ele>74</ele>
      </trkpt>
      <trkpt lat="50.8214" lon="4.51738">
        <ele>74</ele>
      </trkpt>
      <trkpt lat="50.82184" lon="4.51667">
        <ele>71</ele>
      </trkpt>
      <trkpt lat="50.8221" lon="4.51632">
        <ele>71</ele>
      </trkpt>
      <trkpt lat="50.82305" lon="4.51504">
        <ele>76</ele>
      </trkpt>
      <trkpt lat="50.8234" lon="4.51446">
        <ele>79</ele>
      </trkpt>
      <trkpt lat="50.82337" lon="4.51437">
        <ele>79</ele>
      </trkpt>
      <trkpt lat="50.82337" lon="4.51436">
        <ele>79</ele>
      </trkpt>
      <trkpt lat="50.82299" lon="4.51328">
        <ele>82</ele>
      </trkpt>
      <trkpt lat="50.82299" lon="4.51329">
        <ele>82</ele>
      </trkpt>
      <trkpt lat="50.82298" lon="4.51326">
        <ele>82</ele>
      </trkpt>
      <trkpt lat="50.8244" lon="4.51331">
        <ele>78</ele>
      </trkpt>
      <trkpt lat="50.82442" lon="4.51308">
        <ele>78</ele>
      </trkpt>
      <trkpt lat="50.8245" lon="4.51308">
        <ele>78</ele>
      </trkpt>
      <trkpt lat="50.82511" lon="4.51307">
        <ele>72</ele>
      </trkpt>
      <trkpt lat="50.82584" lon="4.51307">
        <ele>73</ele>
      </trkpt>
      <trkpt lat="50.82649" lon="4.5129">
        <ele>83</ele>
      </trkpt>
      <trkpt lat="50.82714" lon="4.51253">
        <ele>90</ele>
      </trkpt>
      <trkpt lat="50.82712" lon="4.5124">
        <ele>90</ele>
      </trkpt>
      <trkpt lat="50.82708" lon="4.51216">
        <ele>83</ele>
      </trkpt>
      <trkpt lat="50.82718" lon="4.51195">
        <ele>90</ele>
      </trkpt>
      <trkpt lat="50.82738" lon="4.51189">
        <ele>90</ele>
      </trkpt>
      <trkpt lat="50.82754" lon="4.51215">
        <ele>90</ele>
      </trkpt>
      <trkpt lat="50.82776" lon="4.51206">
        <ele>90</ele>
      </trkpt>
      <trkpt lat="50.82796" lon="4.51201">
        <ele>95</ele>
      </trkpt>
      <trkpt lat="50.82846" lon="4.51214">
        <ele>96</ele>
      </trkpt>
      <trkpt lat="50.82892" lon="4.51245">
        <ele>97</ele>
      </trkpt>
      <trkpt lat="50.82914" lon="4.51273">
        <ele>97</ele>
      </trkpt>
      <trkpt lat="50.82931" lon="4.51303">
        <ele>96</ele>
      </trkpt>
      <trkpt lat="50.82967" lon="4.51384">
        <ele>91</ele>
      </trkpt>
      <trkpt lat="50.82977" lon="4.51412">
        <ele>91</ele>
      </trkpt>
      <trkpt lat="50.83053" lon="4.5162">
        <ele>86</ele>
      </trkpt>
      <trkpt lat="50.83068" lon="4.51604">
        <ele>86</ele>
      </trkpt>
      <trkpt lat="50.83491" lon="4.51184">
        <ele>92</ele>
      </trkpt>
      <trkpt lat="50.83717" lon="4.50992">
        <ele>84</ele>
      </trkpt>
      <trkpt lat="50.83855" lon="4.50853">
        <ele>81</ele>
      </trkpt>
      <trkpt lat="50.83889" lon="4.50806">
        <ele>78</ele>
      </trkpt>
      <trkpt lat="50.84013" lon="4.50635">
        <ele>76</ele>
      </trkpt>
      <trkpt lat="50.84229" lon="4.50432">
        <ele>74</ele>
      </trkpt>
      <trkpt lat="50.84237" lon="4.50425">
        <ele>74</ele>
      </trkpt>
      <trkpt lat="50.84244" lon="4.50436">
        <ele>74</ele>
      </trkpt>
      <trkpt lat="50.84292" lon="4.50558">
        <ele>73</ele>
      </trkpt>
      <trkpt lat="50.84306" lon="4.50601">
        <ele>73</ele>
      </trkpt>
      <trkpt lat="50.84378" lon="4.50779">
        <ele>74</ele>
      </trkpt>
      <trkpt lat="50.84414" lon="4.50891">
        <ele>76</ele>
      </trkpt>
      <trkpt lat="50.84467" lon="4.51062">
        <ele>75</ele>
      </trkpt>
      <trkpt lat="50.84487" lon="4.51041">
        <ele>75</ele>
      </trkpt>
      <trkpt lat="50.84658" lon="4.50864">
        <ele>68</ele>
      </trkpt>
      <trkpt lat="50.84804" lon="4.50709">
        <ele>65</ele>
      </trkpt>
      <trkpt lat="50.85012" lon="4.50499">
        <ele>65</ele>
      </trkpt>
      <trkpt lat="50.85117" lon="4.50393">
        <ele>64</ele>
      </trkpt>
      <trkpt lat="50.8535" lon="4.50148">
        <ele>66</ele>
      </trkpt>
      <trkpt lat="50.85473" lon="4.50022">
        <ele>66</ele>
      </trkpt>
      <trkpt lat="50.85476" lon="4.5002">
        <ele>66</ele>
      </trkpt>
      <trkpt lat="50.85504" lon="4.49993">
        <ele>66</ele>
      </trkpt>
      <trkpt lat="50.85553" lon="4.50088">
        <ele>64</ele>
      </trkpt>
      <trkpt lat="50.856" lon="4.50194">
        <ele>63</ele>
      </trkpt>
      <trkpt lat="50.85698" lon="4.50456">
        <ele>61</ele>
      </trkpt>
      <trkpt lat="50.85733" lon="4.5053">
        <ele>61</ele>
      </trkpt>
      <trkpt lat="50.85772" lon="4.50598">
        <ele>61</ele>
      </trkpt>
      <trkpt lat="50.8596" lon="4.50916">
        <ele>63</ele>
      </trkpt>
      <trkpt lat="50.8602" lon="4.51023">
        <ele>64</ele>
      </trkpt>
      <trkpt lat="50.86069" lon="4.51103">
        <ele>63</ele>
      </trkpt>
      <trkpt lat="50.86094" lon="4.51143">
        <ele>62</ele>
      </trkpt>
      <trkpt lat="50.86101" lon="4.5116">
        <ele>60</ele>
      </trkpt>
      <trkpt lat="50.86111" lon="4.51193">
        <ele>59</ele>
      </trkpt>
      <trkpt lat="50.86116" lon="4.51204">
        <ele>59</ele>
      </trkpt>
      <trkpt lat="50.86163" lon="4.51269">
        <ele>58</ele>
      </trkpt>
      <trkpt lat="50.8617" lon="4.51254">
        <ele>58</ele>
      </trkpt>
      <trkpt lat="50.86199" lon="4.51132">
        <ele>59</ele>
      </trkpt>
      <trkpt lat="50.86249" lon="4.51058">
        <ele>59</ele>
      </trkpt>
      <trkpt lat="50.86271" lon="4.51033">
        <ele>61</ele>
      </trkpt>
      <trkpt lat="50.86289" lon="4.51009">
        <ele>61</ele>
      </trkpt>
      <trkpt lat="50.86442" lon="4.50802">
        <ele>69</ele>
      </trkpt>
      <trkpt lat="50.86467" lon="4.50757">
        <ele>69</ele>
      </trkpt>
      <trkpt lat="50.86523" lon="4.50641">
        <ele>69</ele>
      </trkpt>
      <trkpt lat="50.86517" lon="4.50633">
        <ele>69</ele>
      </trkpt>
      <trkpt lat="50.86523" lon="4.50641">
        <ele>69</ele>
      </trkpt>
      <trkpt lat="50.86602" lon="4.50477">
        <ele>70</ele>
      </trkpt>
      <trkpt lat="50.86636" lon="4.50393">
        <ele>71</ele>
      </trkpt>
      <trkpt lat="50.86658" lon="4.50326">
        <ele>71</ele>
      </trkpt>
      <trkpt lat="50.86669" lon="4.50287">
        <ele>72</ele>
      </trkpt>
      <trkpt lat="50.86696" lon="4.50131">
        <ele>72</ele>
      </trkpt>
      <trkpt lat="50.86749" lon="4.49779">
        <ele>72</ele>
      </trkpt>
      <trkpt lat="50.86771" lon="4.49681">
        <ele>72</ele>
      </trkpt>
      <trkpt lat="50.86809" lon="4.49566">
        <ele>71</ele>
      </trkpt>
      <trkpt lat="50.86834" lon="4.49499">
        <ele>71</ele>
      </trkpt>
      <trkpt lat="50.86841" lon="4.49489">
        <ele>71</ele>
      </trkpt>
      <trkpt lat="50.8684" lon="4.49477">
        <ele>71</ele>
      </trkpt>
      <trkpt lat="50.86845" lon="4.49468">
        <ele>71</ele>
      </trkpt>
      <trkpt lat="50.86833" lon="4.49399">
        <ele>71</ele>
      </trkpt>
      <trkpt lat="50.86812" lon="4.49251">
        <ele>70</ele>
      </trkpt>
      <trkpt lat="50.86803" lon="4.4919">
        <ele>70</ele>
      </trkpt>
      <trkpt lat="50.86791" lon="4.49084">
        <ele>71</ele>
      </trkpt>
      <trkpt lat="50.86782" lon="4.48921">
        <ele>70</ele>
      </trkpt>
      <trkpt lat="50.86783" lon="4.48896">
        <ele>69</ele>
      </trkpt>
      <trkpt lat="50.86787" lon="4.48877">
        <ele>69</ele>
      </trkpt>
      <trkpt lat="50.86793" lon="4.48858">
        <ele>69</ele>
      </trkpt>
      <trkpt lat="50.86802" lon="4.48841">
        <ele>69</ele>
      </trkpt>
      <trkpt lat="50.86808" lon="4.48832">
        <ele>69</ele>
      </trkpt>
      <trkpt lat="50.86822" lon="4.48819">
        <ele>68</ele>
      </trkpt>
      <trkpt lat="50.86974" lon="4.48747">
        <ele>69</ele>
      </trkpt>
      <trkpt lat="50.87117" lon="4.48686">
        <ele>66</ele>
      </trkpt>
      <trkpt lat="50.87139" lon="4.48676">
        <ele>66</ele>
      </trkpt>
      <trkpt lat="50.87149" lon="4.48675">
        <ele>66</ele>
      </trkpt>
      <trkpt lat="50.87153" lon="4.48663">
        <ele>66</ele>
      </trkpt>
      <trkpt lat="50.87161" lon="4.48659">
        <ele>66</ele>
      </trkpt>
      <trkpt lat="50.87165" lon="4.48661">
        <ele>66</ele>
      </trkpt>
      <trkpt lat="50.87169" lon="4.48666">
        <ele>66</ele>
      </trkpt>
      <trkpt lat="50.87171" lon="4.48671">
        <ele>66</ele>
      </trkpt>
      <trkpt lat="50.87172" lon="4.4868">
        <ele>66</ele>
      </trkpt>
      <trkpt lat="50.8717" lon="4.48687">
        <ele>66</ele>
      </trkpt>
      <trkpt lat="50.87164" lon="4.48695">
        <ele>66</ele>
      </trkpt>
      <trkpt lat="50.87158" lon="4.48708">
        <ele>66</ele>
      </trkpt>
      <trkpt lat="50.87154" lon="4.48706">
        <ele>66</ele>
      </trkpt>
      <trkpt lat="50.87152" lon="4.48705">
        <ele>66</ele>
      </trkpt>
      <trkpt lat="50.87125" lon="4.48765">
        <ele>66</ele>
      </trkpt>
      <trkpt lat="50.86991" lon="4.49141">
        <ele>68</ele>
      </trkpt>
      <trkpt lat="50.86983" lon="4.49168">
        <ele>68</ele>
      </trkpt>
      <trkpt lat="50.86979" lon="4.4919">
        <ele>67</ele>
      </trkpt>
      <trkpt lat="50.86974" lon="4.4924">
        <ele>67</ele>
      </trkpt>
      <trkpt lat="50.86965" lon="4.50023">
        <ele>67</ele>
      </trkpt>
      <trkpt lat="50.8697" lon="4.50411">
        <ele>65</ele>
      </trkpt>
      <trkpt lat="50.86973" lon="4.50463">
        <ele>64</ele>
      </trkpt>
      <trkpt lat="50.86985" lon="4.50572">
        <ele>65</ele>
      </trkpt>
      <trkpt lat="50.87019" lon="4.5084">
        <ele>66</ele>
      </trkpt>
      <trkpt lat="50.87029" lon="4.50964">
        <ele>67</ele>
      </trkpt>
      <trkpt lat="50.87035" lon="4.51051">
        <ele>67</ele>
      </trkpt>
      <trkpt lat="50.87038" lon="4.51126">
        <ele>67</ele>
      </trkpt>
      <trkpt lat="50.8706" lon="4.51357">
        <ele>65</ele>
      </trkpt>
      <trkpt lat="50.87075" lon="4.51549">
        <ele>66</ele>
      </trkpt>
      <trkpt lat="50.87115" lon="4.5171">
        <ele>67</ele>
      </trkpt>
      <trkpt lat="50.87167" lon="4.51862">
        <ele>68</ele>
      </trkpt>
      <trkpt lat="50.87203" lon="4.52">
        <ele>68</ele>
      </trkpt>
      <trkpt lat="50.87207" lon="4.52003">
        <ele>68</ele>
      </trkpt>
      <trkpt lat="50.87222" lon="4.52067">
        <ele>69</ele>
      </trkpt>
      <trkpt lat="50.87259" lon="4.52249">
        <ele>72</ele>
      </trkpt>
      <trkpt lat="50.87307" lon="4.52455">
        <ele>71</ele>
      </trkpt>
      <trkpt lat="50.87306" lon="4.52481">
        <ele>71</ele>
      </trkpt>
      <trkpt lat="50.87312" lon="4.52487">
        <ele>71</ele>
      </trkpt>
      <trkpt lat="50.87319" lon="4.52505">
        <ele>71</ele>
      </trkpt>
      <trkpt lat="50.87319" lon="4.52513">
        <ele>71</ele>
      </trkpt>
      <trkpt lat="50.87317" lon="4.52519">
        <ele>71</ele>
      </trkpt>
      <trkpt lat="50.87325" lon="4.52545">
        <ele>71</ele>
      </trkpt>
      <trkpt lat="50.87324" lon="4.52545">
        <ele>71</ele>
      </trkpt>
      <trkpt lat="50.87456" lon="4.52998">
        <ele>62</ele>
      </trkpt>
      <trkpt lat="50.8749" lon="4.53105">
        <ele>61</ele>
      </trkpt>
      <trkpt lat="50.87587" lon="4.53349">
        <ele>55</ele>
      </trkpt>
      <trkpt lat="50.87604" lon="4.53404">
        <ele>53</ele>
      </trkpt>
      <trkpt lat="50.87616" lon="4.53445">
        <ele>53</ele>
      </trkpt>
      <trkpt lat="50.87626" lon="4.53497">
        <ele>53</ele>
      </trkpt>
      <trkpt lat="50.87647" lon="4.53653">
        <ele>54</ele>
      </trkpt>
      <trkpt lat="50.87654" lon="4.53717">
        <ele>55</ele>
      </trkpt>
      <trkpt lat="50.87657" lon="4.53812">
        <ele>55</ele>
      </trkpt>
      <trkpt lat="50.87656" lon="4.53837">
        <ele>56</ele>
      </trkpt>
      <trkpt lat="50.87652" lon="4.53904">
        <ele>56</ele>
      </trkpt>
      <trkpt lat="50.87638" lon="4.54032">
        <ele>55</ele>
      </trkpt>
      <trkpt lat="50.87634" lon="4.54054">
        <ele>57</ele>
      </trkpt>
      <trkpt lat="50.87628" lon="4.54072">
        <ele>57</ele>
      </trkpt>
      <trkpt lat="50.87605" lon="4.54126">
        <ele>59</ele>
      </trkpt>
      <trkpt lat="50.87598" lon="4.54159">
        <ele>60</ele>
      </trkpt>
      <trkpt lat="50.87594" lon="4.54184">
        <ele>62</ele>
      </trkpt>
      <trkpt lat="50.87593" lon="4.5421">
        <ele>62</ele>
      </trkpt>
      <trkpt lat="50.87595" lon="4.54242">
        <ele>62</ele>
      </trkpt>
      <trkpt lat="50.87604" lon="4.54284">
        <ele>63</ele>
      </trkpt>
      <trkpt lat="50.8763" lon="4.54378">
        <ele>62</ele>
      </trkpt>
      <trkpt lat="50.87632" lon="4.54377">
        <ele>62</ele>
      </trkpt>
      <trkpt lat="50.87637" lon="4.54381">
        <ele>62</ele>
      </trkpt>
      <trkpt lat="50.87644" lon="4.54394">
        <ele>62</ele>
      </trkpt>
      <trkpt lat="50.87645" lon="4.544">
        <ele>62</ele>
      </trkpt>
      <trkpt lat="50.87722" lon="4.54561">
        <ele>60</ele>
      </trkpt>
      <trkpt lat="50.87759" lon="4.54667">
        <ele>59</ele>
      </trkpt>
      <trkpt lat="50.87783" lon="4.54728">
        <ele>65</ele>
      </trkpt>
      <trkpt lat="50.87805" lon="4.54777">
        <ele>61</ele>
      </trkpt>
      <trkpt lat="50.87825" lon="4.5483">
        <ele>60</ele>
      </trkpt>
      <trkpt lat="50.87847" lon="4.54906">
        <ele>60</ele>
      </trkpt>
      <trkpt lat="50.87859" lon="4.54962">
        <ele>62</ele>
      </trkpt>
      <trkpt lat="50.8788" lon="4.5509">
        <ele>55</ele>
      </trkpt>
      <trkpt lat="50.87886" lon="4.55137">
        <ele>54</ele>
      </trkpt>
    </trkseg>
  </trk>
</gpx>