<?xml version='1.0' encoding='UTF-8'?>
<gpx xmlns="http://www.topografix.com/GPX/1/1" xmlns:xsi="http://www.w3.org/2001/XMLSchema-instance" creator="RouteYou" version="1.1" xsi:schemaLocation="http://www.topografix.com/GPX/1/1 http://www.topografix.com/GPX/1/1/gpx.xsd">
  <trk>
    <name>OLV-Waver 2025</name>
    <desc />
    <trkseg>
      <trkpt lat="50.87883" lon="4.55114">
        <ele>54</ele>
      </trkpt>
      <trkpt lat="50.87926" lon="4.5547">
        <ele>51</ele>
      </trkpt>
      <trkpt lat="50.87933" lon="4.55516">
        <ele>54</ele>
      </trkpt>
      <trkpt lat="50.87985" lon="4.55718">
        <ele>55</ele>
      </trkpt>
      <trkpt lat="50.88046" lon="4.5608">
        <ele>59</ele>
      </trkpt>
      <trkpt lat="50.88051" lon="4.56137">
        <ele>59</ele>
      </trkpt>
      <trkpt lat="50.88047" lon="4.56195">
        <ele>59</ele>
      </trkpt>
      <trkpt lat="50.88007" lon="4.56408">
        <ele>51</ele>
      </trkpt>
      <trkpt lat="50.88005" lon="4.56437">
        <ele>49</ele>
      </trkpt>
      <trkpt lat="50.88009" lon="4.56619">
        <ele>46</ele>
      </trkpt>
      <trkpt lat="50.88012" lon="4.56619">
        <ele>46</ele>
      </trkpt>
      <trkpt lat="50.88018" lon="4.56624">
        <ele>48</ele>
      </trkpt>
      <trkpt lat="50.8802" lon="4.56633">
        <ele>48</ele>
      </trkpt>
      <trkpt lat="50.88018" lon="4.56641">
        <ele>48</ele>
      </trkpt>
      <trkpt lat="50.88012" lon="4.56647">
        <ele>46</ele>
      </trkpt>
      <trkpt lat="50.88013" lon="4.5667">
        <ele>46</ele>
      </trkpt>
      <trkpt lat="50.88012" lon="4.56689">
        <ele>46</ele>
      </trkpt>
      <trkpt lat="50.8802" lon="4.56788">
        <ele>46</ele>
      </trkpt>
      <trkpt lat="50.88014" lon="4.56811">
        <ele>46</ele>
      </trkpt>
      <trkpt lat="50.87973" lon="4.56874">
        <ele>46</ele>
      </trkpt>
      <trkpt lat="50.87954" lon="4.56903">
        <ele>46</ele>
      </trkpt>
      <trkpt lat="50.87914" lon="4.56977">
        <ele>48</ele>
      </trkpt>
      <trkpt lat="50.87911" lon="4.56987">
        <ele>48</ele>
      </trkpt>
      <trkpt lat="50.8792" lon="4.57054">
        <ele>49</ele>
      </trkpt>
      <trkpt lat="50.87899" lon="4.57089">
        <ele>49</ele>
      </trkpt>
      <trkpt lat="50.87882" lon="4.57121">
        <ele>48</ele>
      </trkpt>
      <trkpt lat="50.87931" lon="4.57211">
        <ele>47</ele>
      </trkpt>
      <trkpt lat="50.8799" lon="4.57392">
        <ele>44</ele>
      </trkpt>
      <trkpt lat="50.88015" lon="4.57443">
        <ele>42</ele>
      </trkpt>
      <trkpt lat="50.88125" lon="4.57644">
        <ele>40</ele>
      </trkpt>
      <trkpt lat="50.88194" lon="4.57805">
        <ele>37</ele>
      </trkpt>
      <trkpt lat="50.8826" lon="4.58019">
        <ele>37</ele>
      </trkpt>
      <trkpt lat="50.88302" lon="4.58173">
        <ele>39</ele>
      </trkpt>
      <trkpt lat="50.88307" lon="4.5819">
        <ele>40</ele>
      </trkpt>
      <trkpt lat="50.88308" lon="4.58191">
        <ele>40</ele>
      </trkpt>
      <trkpt lat="50.88201" lon="4.58382">
        <ele>38</ele>
      </trkpt>
      <trkpt lat="50.88147" lon="4.58463">
        <ele>40</ele>
      </trkpt>
      <trkpt lat="50.8808" lon="4.58543">
        <ele>41</ele>
      </trkpt>
      <trkpt lat="50.88022" lon="4.58613">
        <ele>43</ele>
      </trkpt>
      <trkpt lat="50.88067" lon="4.58698">
        <ele>44</ele>
      </trkpt>
      <trkpt lat="50.88072" lon="4.58693">
        <ele>44</ele>
      </trkpt>
      <trkpt lat="50.88067" lon="4.58698">
        <ele>44</ele>
      </trkpt>
      <trkpt lat="50.88084" lon="4.58736">
        <ele>44</ele>
      </trkpt>
      <trkpt lat="50.88142" lon="4.58848">
        <ele>44</ele>
      </trkpt>
      <trkpt lat="50.88173" lon="4.58903">
        <ele>43</ele>
      </trkpt>
      <trkpt lat="50.88174" lon="4.58901">
        <ele>43</ele>
      </trkpt>
      <trkpt lat="50.88173" lon="4.58903">
        <ele>43</ele>
      </trkpt>
      <trkpt lat="50.88237" lon="4.59015">
        <ele>40</ele>
      </trkpt>
      <trkpt lat="50.88254" lon="4.59057">
        <ele>40</ele>
      </trkpt>
      <trkpt lat="50.88264" lon="4.59101">
        <ele>39</ele>
      </trkpt>
      <trkpt lat="50.88271" lon="4.59193">
        <ele>38</ele>
      </trkpt>
      <trkpt lat="50.88276" lon="4.59233">
        <ele>38</ele>
      </trkpt>
      <trkpt lat="50.8829" lon="4.5928">
        <ele>37</ele>
      </trkpt>
      <trkpt lat="50.88298" lon="4.59299">
        <ele>37</ele>
      </trkpt>
      <trkpt lat="50.88315" lon="4.59329">
        <ele>38</ele>
      </trkpt>
      <trkpt lat="50.88511" lon="4.59672">
        <ele>39</ele>
      </trkpt>
      <trkpt lat="50.88528" lon="4.59687">
        <ele>39</ele>
      </trkpt>
      <trkpt lat="50.88548" lon="4.59699">
        <ele>39</ele>
      </trkpt>
      <trkpt lat="50.88556" lon="4.59707">
        <ele>39</ele>
      </trkpt>
      <trkpt lat="50.88564" lon="4.59719">
        <ele>39</ele>
      </trkpt>
      <trkpt lat="50.88586" lon="4.59767">
        <ele>39</ele>
      </trkpt>
      <trkpt lat="50.88606" lon="4.59804">
        <ele>39</ele>
      </trkpt>
      <trkpt lat="50.88998" lon="4.60338">
        <ele>36</ele>
      </trkpt>
      <trkpt lat="50.8911" lon="4.60475">
        <ele>35</ele>
      </trkpt>
      <trkpt lat="50.89571" lon="4.61014">
        <ele>34</ele>
      </trkpt>
      <trkpt lat="50.89589" lon="4.61033">
        <ele>34</ele>
      </trkpt>
      <trkpt lat="50.89602" lon="4.61049">
        <ele>33</ele>
      </trkpt>
      <trkpt lat="50.89649" lon="4.61116">
        <ele>33</ele>
      </trkpt>
      <trkpt lat="50.89679" lon="4.61181">
        <ele>34</ele>
      </trkpt>
      <trkpt lat="50.89744" lon="4.61323">
        <ele>32</ele>
      </trkpt>
      <trkpt lat="50.89807" lon="4.615">
        <ele>31</ele>
      </trkpt>
      <trkpt lat="50.8985" lon="4.61613">
        <ele>31</ele>
      </trkpt>
      <trkpt lat="50.89861" lon="4.6163">
        <ele>31</ele>
      </trkpt>
      <trkpt lat="50.89885" lon="4.61652">
        <ele>31</ele>
      </trkpt>
      <trkpt lat="50.89987" lon="4.61695">
        <ele>31</ele>
      </trkpt>
      <trkpt lat="50.90001" lon="4.61706">
        <ele>31</ele>
      </trkpt>
      <trkpt lat="50.90013" lon="4.61722">
        <ele>31</ele>
      </trkpt>
      <trkpt lat="50.90022" lon="4.61739">
        <ele>30</ele>
      </trkpt>
      <trkpt lat="50.90032" lon="4.61771">
        <ele>30</ele>
      </trkpt>
      <trkpt lat="50.90038" lon="4.618">
        <ele>30</ele>
      </trkpt>
      <trkpt lat="50.90061" lon="4.61899">
        <ele>30</ele>
      </trkpt>
      <trkpt lat="50.90083" lon="4.6201">
        <ele>30</ele>
      </trkpt>
      <trkpt lat="50.90116" lon="4.62233">
        <ele>30</ele>
      </trkpt>
      <trkpt lat="50.90119" lon="4.62249">
        <ele>30</ele>
      </trkpt>
      <trkpt lat="50.90126" lon="4.62264">
        <ele>30</ele>
      </trkpt>
      <trkpt lat="50.90153" lon="4.6225">
        <ele>30</ele>
      </trkpt>
      <trkpt lat="50.90334" lon="4.62151">
        <ele>28</ele>
      </trkpt>
      <trkpt lat="50.90358" lon="4.62131">
        <ele>28</ele>
      </trkpt>
      <trkpt lat="50.90398" lon="4.62116">
        <ele>27</ele>
      </trkpt>
      <trkpt lat="50.90616" lon="4.62084">
        <ele>26</ele>
      </trkpt>
      <trkpt lat="50.90625" lon="4.6208">
        <ele>26</ele>
      </trkpt>
      <trkpt lat="50.90639" lon="4.62066">
        <ele>26</ele>
      </trkpt>
      <trkpt lat="50.90671" lon="4.62022">
        <ele>25</ele>
      </trkpt>
      <trkpt lat="50.90681" lon="4.6201">
        <ele>25</ele>
      </trkpt>
      <trkpt lat="50.90965" lon="4.61752">
        <ele>22</ele>
      </trkpt>
      <trkpt lat="50.91047" lon="4.6169">
        <ele>22</ele>
      </trkpt>
      <trkpt lat="50.91087" lon="4.61666">
        <ele>22</ele>
      </trkpt>
      <trkpt lat="50.91278" lon="4.61563">
        <ele>21</ele>
      </trkpt>
      <trkpt lat="50.91321" lon="4.61543">
        <ele>21</ele>
      </trkpt>
      <trkpt lat="50.91357" lon="4.61531">
        <ele>21</ele>
      </trkpt>
      <trkpt lat="50.91396" lon="4.61528">
        <ele>20</ele>
      </trkpt>
      <trkpt lat="50.91451" lon="4.61526">
        <ele>20</ele>
      </trkpt>
      <trkpt lat="50.91494" lon="4.61516">
        <ele>20</ele>
      </trkpt>
      <trkpt lat="50.91659" lon="4.61457">
        <ele>19</ele>
      </trkpt>
      <trkpt lat="50.91793" lon="4.61413">
        <ele>20</ele>
      </trkpt>
      <trkpt lat="50.9182" lon="4.61409">
        <ele>20</ele>
      </trkpt>
      <trkpt lat="50.91853" lon="4.6141">
        <ele>20</ele>
      </trkpt>
      <trkpt lat="50.91872" lon="4.61413">
        <ele>20</ele>
      </trkpt>
      <trkpt lat="50.91895" lon="4.61421">
        <ele>20</ele>
      </trkpt>
      <trkpt lat="50.9197" lon="4.61453">
        <ele>19</ele>
      </trkpt>
      <trkpt lat="50.92" lon="4.6146">
        <ele>20</ele>
      </trkpt>
      <trkpt lat="50.92039" lon="4.61463">
        <ele>21</ele>
      </trkpt>
      <trkpt lat="50.92174" lon="4.61452">
        <ele>20</ele>
      </trkpt>
      <trkpt lat="50.92207" lon="4.61455">
        <ele>18</ele>
      </trkpt>
      <trkpt lat="50.92237" lon="4.61464">
        <ele>18</ele>
      </trkpt>
      <trkpt lat="50.92257" lon="4.61474">
        <ele>18</ele>
      </trkpt>
      <trkpt lat="50.92296" lon="4.61507">
        <ele>18</ele>
      </trkpt>
      <trkpt lat="50.92331" lon="4.61549">
        <ele>18</ele>
      </trkpt>
      <trkpt lat="50.92371" lon="4.61603">
        <ele>17</ele>
      </trkpt>
      <trkpt lat="50.92412" lon="4.61646">
        <ele>17</ele>
      </trkpt>
      <trkpt lat="50.9249" lon="4.61709">
        <ele>17</ele>
      </trkpt>
      <trkpt lat="50.92623" lon="4.61806">
        <ele>17</ele>
      </trkpt>
      <trkpt lat="50.92661" lon="4.61822">
        <ele>17</ele>
      </trkpt>
      <trkpt lat="50.92661" lon="4.61822">
        <ele>17</ele>
      </trkpt>
      <trkpt lat="50.92652" lon="4.6201">
        <ele>17</ele>
      </trkpt>
      <trkpt lat="50.92651" lon="4.62083">
        <ele>17</ele>
      </trkpt>
      <trkpt lat="50.92639" lon="4.62378">
        <ele>18</ele>
      </trkpt>
      <trkpt lat="50.92682" lon="4.6239">
        <ele>18</ele>
      </trkpt>
      <trkpt lat="50.92706" lon="4.62393">
        <ele>17</ele>
      </trkpt>
      <trkpt lat="50.92708" lon="4.62427">
        <ele>17</ele>
      </trkpt>
      <trkpt lat="50.92724" lon="4.62767">
        <ele>17</ele>
      </trkpt>
      <trkpt lat="50.92731" lon="4.62857">
        <ele>18</ele>
      </trkpt>
      <trkpt lat="50.92757" lon="4.63036">
        <ele>18</ele>
      </trkpt>
      <trkpt lat="50.92756" lon="4.63051">
        <ele>18</ele>
      </trkpt>
      <trkpt lat="50.92815" lon="4.63084">
        <ele>17</ele>
      </trkpt>
      <trkpt lat="50.92834" lon="4.63089">
        <ele>17</ele>
      </trkpt>
      <trkpt lat="50.92858" lon="4.6309">
        <ele>17</ele>
      </trkpt>
      <trkpt lat="50.93143" lon="4.63045">
        <ele>17</ele>
      </trkpt>
      <trkpt lat="50.93151" lon="4.63048">
        <ele>18</ele>
      </trkpt>
      <trkpt lat="50.93161" lon="4.63055">
        <ele>18</ele>
      </trkpt>
      <trkpt lat="50.93207" lon="4.63109">
        <ele>17</ele>
      </trkpt>
      <trkpt lat="50.93246" lon="4.63172">
        <ele>17</ele>
      </trkpt>
      <trkpt lat="50.93302" lon="4.63265">
        <ele>17</ele>
      </trkpt>
      <trkpt lat="50.93316" lon="4.63289">
        <ele>17</ele>
      </trkpt>
      <trkpt lat="50.93322" lon="4.63307">
        <ele>17</ele>
      </trkpt>
      <trkpt lat="50.93329" lon="4.63327">
        <ele>17</ele>
      </trkpt>
      <trkpt lat="50.93366" lon="4.63483">
        <ele>17</ele>
      </trkpt>
      <trkpt lat="50.93434" lon="4.63744">
        <ele>16</ele>
      </trkpt>
      <trkpt lat="50.93438" lon="4.63769">
        <ele>16</ele>
      </trkpt>
      <trkpt lat="50.93438" lon="4.63789">
        <ele>16</ele>
      </trkpt>
      <trkpt lat="50.93434" lon="4.63844">
        <ele>15</ele>
      </trkpt>
      <trkpt lat="50.93434" lon="4.63874">
        <ele>15</ele>
      </trkpt>
      <trkpt lat="50.9344" lon="4.64009">
        <ele>16</ele>
      </trkpt>
      <trkpt lat="50.93443" lon="4.64016">
        <ele>16</ele>
      </trkpt>
      <trkpt lat="50.93448" lon="4.64023">
        <ele>16</ele>
      </trkpt>
      <trkpt lat="50.93455" lon="4.64024">
        <ele>16</ele>
      </trkpt>
      <trkpt lat="50.93651" lon="4.63953">
        <ele>16</ele>
      </trkpt>
      <trkpt lat="50.93679" lon="4.63937">
        <ele>16</ele>
      </trkpt>
      <trkpt lat="50.93714" lon="4.6391">
        <ele>15</ele>
      </trkpt>
      <trkpt lat="50.93806" lon="4.63817">
        <ele>15</ele>
      </trkpt>
      <trkpt lat="50.93824" lon="4.63802">
        <ele>15</ele>
      </trkpt>
      <trkpt lat="50.9383" lon="4.63799">
        <ele>15</ele>
      </trkpt>
      <trkpt lat="50.93836" lon="4.638">
        <ele>15</ele>
      </trkpt>
      <trkpt lat="50.93847" lon="4.63806">
        <ele>15</ele>
      </trkpt>
      <trkpt lat="50.93853" lon="4.63812">
        <ele>15</ele>
      </trkpt>
      <trkpt lat="50.94156" lon="4.64226">
        <ele>14</ele>
      </trkpt>
      <trkpt lat="50.94264" lon="4.64366">
        <ele>14</ele>
      </trkpt>
      <trkpt lat="50.94323" lon="4.64458">
        <ele>14</ele>
      </trkpt>
      <trkpt lat="50.94328" lon="4.64463">
        <ele>14</ele>
      </trkpt>
      <trkpt lat="50.94356" lon="4.64471">
        <ele>15</ele>
      </trkpt>
      <trkpt lat="50.94476" lon="4.64505">
        <ele>15</ele>
      </trkpt>
      <trkpt lat="50.94502" lon="4.64502">
        <ele>15</ele>
      </trkpt>
      <trkpt lat="50.94514" lon="4.64496">
        <ele>15</ele>
      </trkpt>
      <trkpt lat="50.94591" lon="4.64425">
        <ele>15</ele>
      </trkpt>
      <trkpt lat="50.94684" lon="4.64343">
        <ele>14</ele>
      </trkpt>
      <trkpt lat="50.94688" lon="4.64348">
        <ele>14</ele>
      </trkpt>
      <trkpt lat="50.94725" lon="4.64364">
        <ele>13</ele>
      </trkpt>
      <trkpt lat="50.94748" lon="4.64258">
        <ele>14</ele>
      </trkpt>
      <trkpt lat="50.94758" lon="4.64222">
        <ele>14</ele>
      </trkpt>
      <trkpt lat="50.94768" lon="4.64195">
        <ele>14</ele>
      </trkpt>
      <trkpt lat="50.94781" lon="4.64184">
        <ele>14</ele>
      </trkpt>
      <trkpt lat="50.94785" lon="4.64178">
        <ele>14</ele>
      </trkpt>
      <trkpt lat="50.94801" lon="4.64163">
        <ele>14</ele>
      </trkpt>
      <trkpt lat="50.94822" lon="4.64155">
        <ele>14</ele>
      </trkpt>
      <trkpt lat="50.94848" lon="4.64154">
        <ele>14</ele>
      </trkpt>
      <trkpt lat="50.94864" lon="4.64159">
        <ele>13</ele>
      </trkpt>
      <trkpt lat="50.94883" lon="4.64172">
        <ele>13</ele>
      </trkpt>
      <trkpt lat="50.94912" lon="4.64206">
        <ele>12</ele>
      </trkpt>
      <trkpt lat="50.94927" lon="4.6422">
        <ele>12</ele>
      </trkpt>
      <trkpt lat="50.94941" lon="4.64228">
        <ele>12</ele>
      </trkpt>
      <trkpt lat="50.94954" lon="4.64232">
        <ele>12</ele>
      </trkpt>
      <trkpt lat="50.95022" lon="4.64232">
        <ele>12</ele>
      </trkpt>
      <trkpt lat="50.95066" lon="4.64232">
        <ele>12</ele>
      </trkpt>
      <trkpt lat="50.95089" lon="4.64224">
        <ele>12</ele>
      </trkpt>
      <trkpt lat="50.95101" lon="4.64215">
        <ele>11</ele>
      </trkpt>
      <trkpt lat="50.95132" lon="4.64181">
        <ele>11</ele>
      </trkpt>
      <trkpt lat="50.95157" lon="4.64147">
        <ele>10</ele>
      </trkpt>
      <trkpt lat="50.95177" lon="4.64107">
        <ele>10</ele>
      </trkpt>
      <trkpt lat="50.9519" lon="4.64072">
        <ele>10</ele>
      </trkpt>
      <trkpt lat="50.95196" lon="4.64059">
        <ele>10</ele>
      </trkpt>
      <trkpt lat="50.95214" lon="4.64033">
        <ele>10</ele>
      </trkpt>
      <trkpt lat="50.95282" lon="4.63968">
        <ele>13</ele>
      </trkpt>
      <trkpt lat="50.95296" lon="4.63959">
        <ele>13</ele>
      </trkpt>
      <trkpt lat="50.9531" lon="4.63953">
        <ele>13</ele>
      </trkpt>
      <trkpt lat="50.95353" lon="4.63949">
        <ele>13</ele>
      </trkpt>
      <trkpt lat="50.95409" lon="4.63953">
        <ele>13</ele>
      </trkpt>
      <trkpt lat="50.95476" lon="4.63961">
        <ele>13</ele>
      </trkpt>
      <trkpt lat="50.95502" lon="4.63962">
        <ele>12</ele>
      </trkpt>
      <trkpt lat="50.95519" lon="4.63959">
        <ele>12</ele>
      </trkpt>
      <trkpt lat="50.95541" lon="4.63951">
        <ele>12</ele>
      </trkpt>
      <trkpt lat="50.95573" lon="4.63935">
        <ele>12</ele>
      </trkpt>
      <trkpt lat="50.95575" lon="4.63948">
        <ele>12</ele>
      </trkpt>
      <trkpt lat="50.95574" lon="4.63962">
        <ele>12</ele>
      </trkpt>
      <trkpt lat="50.9556" lon="4.64023">
        <ele>12</ele>
      </trkpt>
      <trkpt lat="50.9555" lon="4.64069">
        <ele>12</ele>
      </trkpt>
      <trkpt lat="50.95546" lon="4.64102">
        <ele>12</ele>
      </trkpt>
      <trkpt lat="50.95545" lon="4.64128">
        <ele>12</ele>
      </trkpt>
      <trkpt lat="50.95547" lon="4.64163">
        <ele>11</ele>
      </trkpt>
      <trkpt lat="50.95564" lon="4.64339">
        <ele>10</ele>
      </trkpt>
      <trkpt lat="50.9557" lon="4.64383">
        <ele>10</ele>
      </trkpt>
      <trkpt lat="50.95617" lon="4.64632">
        <ele>11</ele>
      </trkpt>
      <trkpt lat="50.95634" lon="4.64744">
        <ele>11</ele>
      </trkpt>
      <trkpt lat="50.95642" lon="4.64783">
        <ele>11</ele>
      </trkpt>
      <trkpt lat="50.95644" lon="4.64793">
        <ele>11</ele>
      </trkpt>
      <trkpt lat="50.95654" lon="4.64818">
        <ele>11</ele>
      </trkpt>
      <trkpt lat="50.9568" lon="4.64873">
        <ele>11</ele>
      </trkpt>
      <trkpt lat="50.95684" lon="4.64884">
        <ele>11</ele>
      </trkpt>
      <trkpt lat="50.95696" lon="4.64925">
        <ele>11</ele>
      </trkpt>
      <trkpt lat="50.95705" lon="4.64994">
        <ele>10</ele>
      </trkpt>
      <trkpt lat="50.95707" lon="4.65023">
        <ele>10</ele>
      </trkpt>
      <trkpt lat="50.95711" lon="4.65282">
        <ele>10</ele>
      </trkpt>
      <trkpt lat="50.95726" lon="4.6551">
        <ele>12</ele>
      </trkpt>
      <trkpt lat="50.95726" lon="4.65581">
        <ele>12</ele>
      </trkpt>
      <trkpt lat="50.95747" lon="4.65596">
        <ele>12</ele>
      </trkpt>
      <trkpt lat="50.95768" lon="4.65604">
        <ele>11</ele>
      </trkpt>
      <trkpt lat="50.95788" lon="4.65609">
        <ele>11</ele>
      </trkpt>
      <trkpt lat="50.9581" lon="4.65605">
        <ele>11</ele>
      </trkpt>
      <trkpt lat="50.95848" lon="4.65594">
        <ele>10</ele>
      </trkpt>
      <trkpt lat="50.95867" lon="4.65595">
        <ele>9</ele>
      </trkpt>
      <trkpt lat="50.95894" lon="4.6561">
        <ele>9</ele>
      </trkpt>
      <trkpt lat="50.95955" lon="4.65661">
        <ele>9</ele>
      </trkpt>
      <trkpt lat="50.96002" lon="4.65708">
        <ele>9</ele>
      </trkpt>
      <trkpt lat="50.96043" lon="4.6574">
        <ele>9</ele>
      </trkpt>
      <trkpt lat="50.96045" lon="4.65744">
        <ele>9</ele>
      </trkpt>
      <trkpt lat="50.96045" lon="4.65752">
        <ele>8</ele>
      </trkpt>
      <trkpt lat="50.9604" lon="4.65759">
        <ele>8</ele>
      </trkpt>
      <trkpt lat="50.96023" lon="4.65801">
        <ele>8</ele>
      </trkpt>
      <trkpt lat="50.96012" lon="4.65864">
        <ele>8</ele>
      </trkpt>
      <trkpt lat="50.96012" lon="4.65879">
        <ele>8</ele>
      </trkpt>
      <trkpt lat="50.96015" lon="4.65891">
        <ele>8</ele>
      </trkpt>
      <trkpt lat="50.96061" lon="4.65934">
        <ele>8</ele>
      </trkpt>
      <trkpt lat="50.96094" lon="4.6597">
        <ele>8</ele>
      </trkpt>
      <trkpt lat="50.9617" lon="4.66069">
        <ele>7</ele>
      </trkpt>
      <trkpt lat="50.9621" lon="4.66135">
        <ele>7</ele>
      </trkpt>
      <trkpt lat="50.96255" lon="4.66196">
        <ele>7</ele>
      </trkpt>
      <trkpt lat="50.96303" lon="4.66256">
        <ele>7</ele>
      </trkpt>
      <trkpt lat="50.96323" lon="4.6623">
        <ele>7</ele>
      </trkpt>
      <trkpt lat="50.96345" lon="4.66208">
        <ele>7</ele>
      </trkpt>
      <trkpt lat="50.96361" lon="4.662">
        <ele>7</ele>
      </trkpt>
      <trkpt lat="50.96405" lon="4.66194">
        <ele>7</ele>
      </trkpt>
      <trkpt lat="50.96889" lon="4.66182">
        <ele>8</ele>
      </trkpt>
      <trkpt lat="50.96931" lon="4.66172">
        <ele>8</ele>
      </trkpt>
      <trkpt lat="50.96982" lon="4.66153">
        <ele>9</ele>
      </trkpt>
      <trkpt lat="50.97154" lon="4.66046">
        <ele>8</ele>
      </trkpt>
      <trkpt lat="50.97167" lon="4.6604">
        <ele>8</ele>
      </trkpt>
      <trkpt lat="50.97198" lon="4.66037">
        <ele>8</ele>
      </trkpt>
      <trkpt lat="50.97245" lon="4.66045">
        <ele>8</ele>
      </trkpt>
      <trkpt lat="50.9726" lon="4.66049">
        <ele>7</ele>
      </trkpt>
      <trkpt lat="50.97269" lon="4.66056">
        <ele>7</ele>
      </trkpt>
      <trkpt lat="50.97288" lon="4.66064">
        <ele>7</ele>
      </trkpt>
      <trkpt lat="50.97442" lon="4.66036">
        <ele>7</ele>
      </trkpt>
      <trkpt lat="50.97463" lon="4.66032">
        <ele>8</ele>
      </trkpt>
      <trkpt lat="50.97489" lon="4.66023">
        <ele>8</ele>
      </trkpt>
      <trkpt lat="50.97585" lon="4.65976">
        <ele>8</ele>
      </trkpt>
      <trkpt lat="50.976" lon="4.66042">
        <ele>8</ele>
      </trkpt>
      <trkpt lat="50.97635" lon="4.66174">
        <ele>7</ele>
      </trkpt>
      <trkpt lat="50.97639" lon="4.66202">
        <ele>7</ele>
      </trkpt>
      <trkpt lat="50.97638" lon="4.66307">
        <ele>7</ele>
      </trkpt>
      <trkpt lat="50.9767" lon="4.66311">
        <ele>7</ele>
      </trkpt>
      <trkpt lat="50.97677" lon="4.66313">
        <ele>7</ele>
      </trkpt>
      <trkpt lat="50.97682" lon="4.66318">
        <ele>7</ele>
      </trkpt>
      <trkpt lat="50.97693" lon="4.66359">
        <ele>6</ele>
      </trkpt>
      <trkpt lat="50.97705" lon="4.66384">
        <ele>6</ele>
      </trkpt>
      <trkpt lat="50.97745" lon="4.66438">
        <ele>6</ele>
      </trkpt>
      <trkpt lat="50.97766" lon="4.66458">
        <ele>6</ele>
      </trkpt>
      <trkpt lat="50.97776" lon="4.66464">
        <ele>6</ele>
      </trkpt>
      <trkpt lat="50.97792" lon="4.66467">
        <ele>6</ele>
      </trkpt>
      <trkpt lat="50.97827" lon="4.66459">
        <ele>6</ele>
      </trkpt>
      <trkpt lat="50.97843" lon="4.6646">
        <ele>6</ele>
      </trkpt>
      <trkpt lat="50.97857" lon="4.66466">
        <ele>6</ele>
      </trkpt>
      <trkpt lat="50.97876" lon="4.66483">
        <ele>6</ele>
      </trkpt>
      <trkpt lat="50.97909" lon="4.66541">
        <ele>7</ele>
      </trkpt>
      <trkpt lat="50.97919" lon="4.6656">
        <ele>8</ele>
      </trkpt>
      <trkpt lat="50.97965" lon="4.66678">
        <ele>14</ele>
      </trkpt>
      <trkpt lat="50.97972" lon="4.6669">
        <ele>14</ele>
      </trkpt>
      <trkpt lat="50.9805" lon="4.66787">
        <ele>15</ele>
      </trkpt>
      <trkpt lat="50.9806" lon="4.66792">
        <ele>15</ele>
      </trkpt>
      <trkpt lat="50.98161" lon="4.66805">
        <ele>14</ele>
      </trkpt>
      <trkpt lat="50.98177" lon="4.66811">
        <ele>14</ele>
      </trkpt>
      <trkpt lat="50.98181" lon="4.66816">
        <ele>14</ele>
      </trkpt>
      <trkpt lat="50.98193" lon="4.66857">
        <ele>10</ele>
      </trkpt>
      <trkpt lat="50.98199" lon="4.66865">
        <ele>10</ele>
      </trkpt>
      <trkpt lat="50.98209" lon="4.6687">
        <ele>9</ele>
      </trkpt>
      <trkpt lat="50.98219" lon="4.66873">
        <ele>9</ele>
      </trkpt>
      <trkpt lat="50.98333" lon="4.66892">
        <ele>8</ele>
      </trkpt>
      <trkpt lat="50.9835" lon="4.66893">
        <ele>7</ele>
      </trkpt>
      <trkpt lat="50.98362" lon="4.6689">
        <ele>7</ele>
      </trkpt>
      <trkpt lat="50.98392" lon="4.66875">
        <ele>7</ele>
      </trkpt>
      <trkpt lat="50.98417" lon="4.66851">
        <ele>7</ele>
      </trkpt>
      <trkpt lat="50.98425" lon="4.66841">
        <ele>7</ele>
      </trkpt>
      <trkpt lat="50.98431" lon="4.66826">
        <ele>6</ele>
      </trkpt>
      <trkpt lat="50.98435" lon="4.66806">
        <ele>6</ele>
      </trkpt>
      <trkpt lat="50.98451" lon="4.66695">
        <ele>6</ele>
      </trkpt>
      <trkpt lat="50.98452" lon="4.66669">
        <ele>6</ele>
      </trkpt>
      <trkpt lat="50.98459" lon="4.66585">
        <ele>6</ele>
      </trkpt>
      <trkpt lat="50.98462" lon="4.66563">
        <ele>6</ele>
      </trkpt>
      <trkpt lat="50.98468" lon="4.66531">
        <ele>6</ele>
      </trkpt>
      <trkpt lat="50.98508" lon="4.66379">
        <ele>7</ele>
      </trkpt>
      <trkpt lat="50.98511" lon="4.66361">
        <ele>7</ele>
      </trkpt>
      <trkpt lat="50.98511" lon="4.66337">
        <ele>7</ele>
      </trkpt>
      <trkpt lat="50.98505" lon="4.66287">
        <ele>6</ele>
      </trkpt>
      <trkpt lat="50.98502" lon="4.66276">
        <ele>6</ele>
      </trkpt>
      <trkpt lat="50.98487" lon="4.66248">
        <ele>6</ele>
      </trkpt>
      <trkpt lat="50.98469" lon="4.66202">
        <ele>6</ele>
      </trkpt>
      <trkpt lat="50.98466" lon="4.66191">
        <ele>6</ele>
      </trkpt>
      <trkpt lat="50.98467" lon="4.66175">
        <ele>6</ele>
      </trkpt>
      <trkpt lat="50.98486" lon="4.66003">
        <ele>8</ele>
      </trkpt>
      <trkpt lat="50.98477" lon="4.65985">
        <ele>8</ele>
      </trkpt>
      <trkpt lat="50.98451" lon="4.6592">
        <ele>8</ele>
      </trkpt>
      <trkpt lat="50.98442" lon="4.65906">
        <ele>8</ele>
      </trkpt>
      <trkpt lat="50.98408" lon="4.65868">
        <ele>8</ele>
      </trkpt>
      <trkpt lat="50.98363" lon="4.65784">
        <ele>9</ele>
      </trkpt>
      <trkpt lat="50.98322" lon="4.6569">
        <ele>9</ele>
      </trkpt>
      <trkpt lat="50.98298" lon="4.6563">
        <ele>9</ele>
      </trkpt>
      <trkpt lat="50.98208" lon="4.65474">
        <ele>10</ele>
      </trkpt>
      <trkpt lat="50.98197" lon="4.65453">
        <ele>9</ele>
      </trkpt>
      <trkpt lat="50.98182" lon="4.6543">
        <ele>9</ele>
      </trkpt>
      <trkpt lat="50.98114" lon="4.65335">
        <ele>8</ele>
      </trkpt>
      <trkpt lat="50.98099" lon="4.6532">
        <ele>7</ele>
      </trkpt>
      <trkpt lat="50.9808" lon="4.65312">
        <ele>7</ele>
      </trkpt>
      <trkpt lat="50.98036" lon="4.65305">
        <ele>7</ele>
      </trkpt>
      <trkpt lat="50.98026" lon="4.65296">
        <ele>7</ele>
      </trkpt>
      <trkpt lat="50.98017" lon="4.65275">
        <ele>7</ele>
      </trkpt>
      <trkpt lat="50.97983" lon="4.65138">
        <ele>7</ele>
      </trkpt>
      <trkpt lat="50.97977" lon="4.65097">
        <ele>7</ele>
      </trkpt>
      <trkpt lat="50.97977" lon="4.65075">
        <ele>6</ele>
      </trkpt>
      <trkpt lat="50.9798" lon="4.65044">
        <ele>7</ele>
      </trkpt>
      <trkpt lat="50.97984" lon="4.65026">
        <ele>7</ele>
      </trkpt>
      <trkpt lat="50.97991" lon="4.65">
        <ele>6</ele>
      </trkpt>
      <trkpt lat="50.97998" lon="4.64981">
        <ele>6</ele>
      </trkpt>
      <trkpt lat="50.98011" lon="4.64958">
        <ele>6</ele>
      </trkpt>
      <trkpt lat="50.98092" lon="4.64842">
        <ele>6</ele>
      </trkpt>
      <trkpt lat="50.98118" lon="4.64798">
        <ele>7</ele>
      </trkpt>
      <trkpt lat="50.98148" lon="4.6474">
        <ele>8</ele>
      </trkpt>
      <trkpt lat="50.98214" lon="4.64613">
        <ele>8</ele>
      </trkpt>
      <trkpt lat="50.98229" lon="4.64583">
        <ele>8</ele>
      </trkpt>
      <trkpt lat="50.9824" lon="4.64555">
        <ele>8</ele>
      </trkpt>
      <trkpt lat="50.98248" lon="4.64523">
        <ele>8</ele>
      </trkpt>
      <trkpt lat="50.98279" lon="4.64354">
        <ele>7</ele>
      </trkpt>
      <trkpt lat="50.98288" lon="4.6434">
        <ele>7</ele>
      </trkpt>
      <trkpt lat="50.98293" lon="4.64321">
        <ele>7</ele>
      </trkpt>
      <trkpt lat="50.98325" lon="4.64326">
        <ele>7</ele>
      </trkpt>
      <trkpt lat="50.98368" lon="4.64323">
        <ele>7</ele>
      </trkpt>
      <trkpt lat="50.98389" lon="4.64317">
        <ele>7</ele>
      </trkpt>
      <trkpt lat="50.9839" lon="4.64318">
        <ele>7</ele>
      </trkpt>
      <trkpt lat="50.98389" lon="4.64317">
        <ele>7</ele>
      </trkpt>
      <trkpt lat="50.98433" lon="4.64307">
        <ele>7</ele>
      </trkpt>
      <trkpt lat="50.9845" lon="4.64307">
        <ele>7</ele>
      </trkpt>
      <trkpt lat="50.98509" lon="4.6432">
        <ele>7</ele>
      </trkpt>
      <trkpt lat="50.98697" lon="4.64432">
        <ele>8</ele>
      </trkpt>
      <trkpt lat="50.98745" lon="4.64459">
        <ele>8</ele>
      </trkpt>
      <trkpt lat="50.98766" lon="4.64469">
        <ele>8</ele>
      </trkpt>
      <trkpt lat="50.98843" lon="4.64486">
        <ele>9</ele>
      </trkpt>
      <trkpt lat="50.98966" lon="4.64518">
        <ele>12</ele>
      </trkpt>
      <trkpt lat="50.99243" lon="4.646">
        <ele>14</ele>
      </trkpt>
      <trkpt lat="50.99267" lon="4.64605">
        <ele>14</ele>
      </trkpt>
      <trkpt lat="50.99288" lon="4.64601">
        <ele>14</ele>
      </trkpt>
      <trkpt lat="50.99295" lon="4.64603">
        <ele>14</ele>
      </trkpt>
      <trkpt lat="50.99306" lon="4.64611">
        <ele>13</ele>
      </trkpt>
      <trkpt lat="50.99302" lon="4.64589">
        <ele>14</ele>
      </trkpt>
      <trkpt lat="50.99316" lon="4.64566">
        <ele>13</ele>
      </trkpt>
      <trkpt lat="50.9938" lon="4.64486">
        <ele>13</ele>
      </trkpt>
      <trkpt lat="50.99362" lon="4.64438">
        <ele>12</ele>
      </trkpt>
      <trkpt lat="50.99357" lon="4.64392">
        <ele>12</ele>
      </trkpt>
      <trkpt lat="50.99358" lon="4.64362">
        <ele>12</ele>
      </trkpt>
      <trkpt lat="50.99362" lon="4.64332">
        <ele>13</ele>
      </trkpt>
      <trkpt lat="50.99392" lon="4.64107">
        <ele>15</ele>
      </trkpt>
      <trkpt lat="50.99393" lon="4.64078">
        <ele>15</ele>
      </trkpt>
      <trkpt lat="50.99383" lon="4.63949">
        <ele>14</ele>
      </trkpt>
      <trkpt lat="50.99387" lon="4.63915">
        <ele>14</ele>
      </trkpt>
      <trkpt lat="50.99434" lon="4.63758">
        <ele>12</ele>
      </trkpt>
      <trkpt lat="50.99447" lon="4.63675">
        <ele>10</ele>
      </trkpt>
      <trkpt lat="50.99457" lon="4.63641">
        <ele>10</ele>
      </trkpt>
      <trkpt lat="50.99471" lon="4.6361">
        <ele>10</ele>
      </trkpt>
      <trkpt lat="50.99489" lon="4.63582">
        <ele>10</ele>
      </trkpt>
      <trkpt lat="50.99494" lon="4.63579">
        <ele>10</ele>
      </trkpt>
      <trkpt lat="50.99512" lon="4.63547">
        <ele>10</ele>
      </trkpt>
      <trkpt lat="50.99616" lon="4.63352">
        <ele>11</ele>
      </trkpt>
      <trkpt lat="50.99644" lon="4.63283">
        <ele>10</ele>
      </trkpt>
      <trkpt lat="50.99704" lon="4.63119">
        <ele>9</ele>
      </trkpt>
      <trkpt lat="50.99709" lon="4.63098">
        <ele>9</ele>
      </trkpt>
      <trkpt lat="50.99718" lon="4.6304">
        <ele>8</ele>
      </trkpt>
      <trkpt lat="50.99724" lon="4.63017">
        <ele>8</ele>
      </trkpt>
      <trkpt lat="50.99691" lon="4.62951">
        <ele>8</ele>
      </trkpt>
      <trkpt lat="50.99685" lon="4.62932">
        <ele>7</ele>
      </trkpt>
      <trkpt lat="50.99681" lon="4.62911">
        <ele>7</ele>
      </trkpt>
      <trkpt lat="50.99674" lon="4.62778">
        <ele>7</ele>
      </trkpt>
      <trkpt lat="50.99662" lon="4.62643">
        <ele>6</ele>
      </trkpt>
      <trkpt lat="50.99653" lon="4.62583">
        <ele>6</ele>
      </trkpt>
      <trkpt lat="50.99643" lon="4.62543">
        <ele>6</ele>
      </trkpt>
      <trkpt lat="50.99614" lon="4.62467">
        <ele>5</ele>
      </trkpt>
      <trkpt lat="50.99613" lon="4.62442">
        <ele>5</ele>
      </trkpt>
      <trkpt lat="50.99635" lon="4.62371">
        <ele>5</ele>
      </trkpt>
      <trkpt lat="50.99638" lon="4.62343">
        <ele>5</ele>
      </trkpt>
      <trkpt lat="50.9964" lon="4.62306">
        <ele>6</ele>
      </trkpt>
      <trkpt lat="50.99629" lon="4.62277">
        <ele>7</ele>
      </trkpt>
      <trkpt lat="50.99605" lon="4.62247">
        <ele>7</ele>
      </trkpt>
      <trkpt lat="50.99571" lon="4.62226">
        <ele>8</ele>
      </trkpt>
      <trkpt lat="50.99556" lon="4.62211">
        <ele>8</ele>
      </trkpt>
      <trkpt lat="50.99548" lon="4.62195">
        <ele>8</ele>
      </trkpt>
      <trkpt lat="50.99545" lon="4.62182">
        <ele>8</ele>
      </trkpt>
      <trkpt lat="50.9954" lon="4.62124">
        <ele>10</ele>
      </trkpt>
      <trkpt lat="50.99525" lon="4.62">
        <ele>11</ele>
      </trkpt>
      <trkpt lat="50.99526" lon="4.61945">
        <ele>12</ele>
      </trkpt>
      <trkpt lat="50.99529" lon="4.61905">
        <ele>12</ele>
      </trkpt>
      <trkpt lat="50.99529" lon="4.61863">
        <ele>12</ele>
      </trkpt>
      <trkpt lat="50.99524" lon="4.61819">
        <ele>10</ele>
      </trkpt>
      <trkpt lat="50.99512" lon="4.61771">
        <ele>8</ele>
      </trkpt>
      <trkpt lat="50.99493" lon="4.61733">
        <ele>7</ele>
      </trkpt>
      <trkpt lat="50.99475" lon="4.61706">
        <ele>6</ele>
      </trkpt>
      <trkpt lat="50.99459" lon="4.61675">
        <ele>6</ele>
      </trkpt>
      <trkpt lat="50.99449" lon="4.61647">
        <ele>6</ele>
      </trkpt>
      <trkpt lat="50.99423" lon="4.61594">
        <ele>6</ele>
      </trkpt>
      <trkpt lat="50.99421" lon="4.61582">
        <ele>6</ele>
      </trkpt>
      <trkpt lat="50.99422" lon="4.61534">
        <ele>6</ele>
      </trkpt>
      <trkpt lat="50.99417" lon="4.61397">
        <ele>8</ele>
      </trkpt>
      <trkpt lat="50.99418" lon="4.61366">
        <ele>8</ele>
      </trkpt>
      <trkpt lat="50.99463" lon="4.61182">
        <ele>11</ele>
      </trkpt>
      <trkpt lat="50.99471" lon="4.61139">
        <ele>10</ele>
      </trkpt>
      <trkpt lat="50.99469" lon="4.61106">
        <ele>10</ele>
      </trkpt>
      <trkpt lat="50.99458" lon="4.61067">
        <ele>9</ele>
      </trkpt>
      <trkpt lat="50.99409" lon="4.60921">
        <ele>8</ele>
      </trkpt>
      <trkpt lat="50.99396" lon="4.6087">
        <ele>9</ele>
      </trkpt>
      <trkpt lat="50.99395" lon="4.60842">
        <ele>8</ele>
      </trkpt>
      <trkpt lat="50.99402" lon="4.60817">
        <ele>7</ele>
      </trkpt>
      <trkpt lat="50.99414" lon="4.60812">
        <ele>7</ele>
      </trkpt>
      <trkpt lat="50.99458" lon="4.60805">
        <ele>9</ele>
      </trkpt>
      <trkpt lat="50.99497" lon="4.60805">
        <ele>10</ele>
      </trkpt>
      <trkpt lat="50.99514" lon="4.60805">
        <ele>10</ele>
      </trkpt>
      <trkpt lat="50.99532" lon="4.60798">
        <ele>12</ele>
      </trkpt>
      <trkpt lat="50.99552" lon="4.60785">
        <ele>13</ele>
      </trkpt>
      <trkpt lat="50.99603" lon="4.60741">
        <ele>13</ele>
      </trkpt>
      <trkpt lat="50.99626" lon="4.60724">
        <ele>13</ele>
      </trkpt>
      <trkpt lat="50.99674" lon="4.60707">
        <ele>12</ele>
      </trkpt>
      <trkpt lat="50.99719" lon="4.60695">
        <ele>11</ele>
      </trkpt>
      <trkpt lat="50.99742" lon="4.60691">
        <ele>11</ele>
      </trkpt>
      <trkpt lat="50.99753" lon="4.60692">
        <ele>11</ele>
      </trkpt>
      <trkpt lat="50.9981" lon="4.60707">
        <ele>11</ele>
      </trkpt>
      <trkpt lat="50.99852" lon="4.60704">
        <ele>13</ele>
      </trkpt>
      <trkpt lat="50.99869" lon="4.60705">
        <ele>13</ele>
      </trkpt>
      <trkpt lat="50.99894" lon="4.60716">
        <ele>13</ele>
      </trkpt>
      <trkpt lat="50.99901" lon="4.60717">
        <ele>13</ele>
      </trkpt>
      <trkpt lat="50.99922" lon="4.60729">
        <ele>13</ele>
      </trkpt>
      <trkpt lat="50.99938" lon="4.60742">
        <ele>13</ele>
      </trkpt>
      <trkpt lat="50.99941" lon="4.60748">
        <ele>13</ele>
      </trkpt>
      <trkpt lat="50.99955" lon="4.60757">
        <ele>13</ele>
      </trkpt>
      <trkpt lat="50.99992" lon="4.6079">
        <ele>12</ele>
      </trkpt>
      <trkpt lat="50.99997" lon="4.60797">
        <ele>12</ele>
      </trkpt>
      <trkpt lat="51.00024" lon="4.60861">
        <ele>12</ele>
      </trkpt>
      <trkpt lat="51.00054" lon="4.60894">
        <ele>12</ele>
      </trkpt>
      <trkpt lat="51.00074" lon="4.60914">
        <ele>13</ele>
      </trkpt>
      <trkpt lat="51.00084" lon="4.60922">
        <ele>13</ele>
      </trkpt>
      <trkpt lat="51.00123" lon="4.60931">
        <ele>14</ele>
      </trkpt>
      <trkpt lat="51.00158" lon="4.60948">
        <ele>14</ele>
      </trkpt>
      <trkpt lat="51.00167" lon="4.60958">
        <ele>14</ele>
      </trkpt>
      <trkpt lat="51.00214" lon="4.61055">
        <ele>14</ele>
      </trkpt>
      <trkpt lat="51.00243" lon="4.61104">
        <ele>13</ele>
      </trkpt>
      <trkpt lat="51.00259" lon="4.61121">
        <ele>13</ele>
      </trkpt>
      <trkpt lat="51.0029" lon="4.61163">
        <ele>13</ele>
      </trkpt>
      <trkpt lat="51.0029" lon="4.61183">
        <ele>13</ele>
      </trkpt>
      <trkpt lat="51.00321" lon="4.61269">
        <ele>12</ele>
      </trkpt>
      <trkpt lat="51.00392" lon="4.6147">
        <ele>11</ele>
      </trkpt>
      <trkpt lat="51.00462" lon="4.61679">
        <ele>11</ele>
      </trkpt>
      <trkpt lat="51.00483" lon="4.61767">
        <ele>10</ele>
      </trkpt>
      <trkpt lat="51.00572" lon="4.6236">
        <ele>8</ele>
      </trkpt>
      <trkpt lat="51.00568" lon="4.62368">
        <ele>8</ele>
      </trkpt>
      <trkpt lat="51.00572" lon="4.6236">
        <ele>8</ele>
      </trkpt>
      <trkpt lat="51.00597" lon="4.62529">
        <ele>9</ele>
      </trkpt>
      <trkpt lat="51.00632" lon="4.62762">
        <ele>9</ele>
      </trkpt>
      <trkpt lat="51.00646" lon="4.62873">
        <ele>9</ele>
      </trkpt>
      <trkpt lat="51.00647" lon="4.62915">
        <ele>8</ele>
      </trkpt>
      <trkpt lat="51.00646" lon="4.62944">
        <ele>9</ele>
      </trkpt>
      <trkpt lat="51.00646" lon="4.62951">
        <ele>9</ele>
      </trkpt>
      <trkpt lat="51.0071" lon="4.6298">
        <ele>8</ele>
      </trkpt>
      <trkpt lat="51.00739" lon="4.63013">
        <ele>8</ele>
      </trkpt>
      <trkpt lat="51.00814" lon="4.63008">
        <ele>8</ele>
      </trkpt>
      <trkpt lat="51.00916" lon="4.62987">
        <ele>8</ele>
      </trkpt>
      <trkpt lat="51.00992" lon="4.62959">
        <ele>7</ele>
      </trkpt>
      <trkpt lat="51.01016" lon="4.62956">
        <ele>7</ele>
      </trkpt>
      <trkpt lat="51.01034" lon="4.62957">
        <ele>7</ele>
      </trkpt>
      <trkpt lat="51.01046" lon="4.62961">
        <ele>7</ele>
      </trkpt>
      <trkpt lat="51.01066" lon="4.62973">
        <ele>7</ele>
      </trkpt>
      <trkpt lat="51.01081" lon="4.62989">
        <ele>7</ele>
      </trkpt>
      <trkpt lat="51.01106" lon="4.63023">
        <ele>7</ele>
      </trkpt>
      <trkpt lat="51.01124" lon="4.63053">
        <ele>7</ele>
      </trkpt>
      <trkpt lat="51.0114" lon="4.63069">
        <ele>7</ele>
      </trkpt>
      <trkpt lat="51.01187" lon="4.631">
        <ele>8</ele>
      </trkpt>
      <trkpt lat="51.01237" lon="4.6314">
        <ele>9</ele>
      </trkpt>
      <trkpt lat="51.01342" lon="4.63185">
        <ele>10</ele>
      </trkpt>
      <trkpt lat="51.0136" lon="4.63192">
        <ele>10</ele>
      </trkpt>
      <trkpt lat="51.01419" lon="4.63199">
        <ele>10</ele>
      </trkpt>
      <trkpt lat="51.0153" lon="4.63205">
        <ele>9</ele>
      </trkpt>
      <trkpt lat="51.01562" lon="4.63181">
        <ele>9</ele>
      </trkpt>
      <trkpt lat="51.01554" lon="4.63141">
        <ele>9</ele>
      </trkpt>
      <trkpt lat="51.01577" lon="4.63136">
        <ele>9</ele>
      </trkpt>
      <trkpt lat="51.01729" lon="4.63113">
        <ele>10</ele>
      </trkpt>
      <trkpt lat="51.01811" lon="4.63097">
        <ele>9</ele>
      </trkpt>
      <trkpt lat="51.01887" lon="4.6311">
        <ele>9</ele>
      </trkpt>
      <trkpt lat="51.01946" lon="4.63092">
        <ele>8</ele>
      </trkpt>
      <trkpt lat="51.01976" lon="4.63087">
        <ele>8</ele>
      </trkpt>
      <trkpt lat="51.02016" lon="4.63092">
        <ele>8</ele>
      </trkpt>
      <trkpt lat="51.02022" lon="4.63049">
        <ele>8</ele>
      </trkpt>
      <trkpt lat="51.02022" lon="4.62992">
        <ele>8</ele>
      </trkpt>
      <trkpt lat="51.02014" lon="4.62901">
        <ele>8</ele>
      </trkpt>
      <trkpt lat="51.02009" lon="4.62856">
        <ele>8</ele>
      </trkpt>
      <trkpt lat="51.01946" lon="4.6251">
        <ele>8</ele>
      </trkpt>
      <trkpt lat="51.01865" lon="4.62235">
        <ele>8</ele>
      </trkpt>
      <trkpt lat="51.0186" lon="4.622">
        <ele>8</ele>
      </trkpt>
      <trkpt lat="51.01859" lon="4.62183">
        <ele>8</ele>
      </trkpt>
      <trkpt lat="51.01884" lon="4.62097">
        <ele>7</ele>
      </trkpt>
      <trkpt lat="51.01894" lon="4.62032">
        <ele>7</ele>
      </trkpt>
      <trkpt lat="51.01903" lon="4.6185">
        <ele>6</ele>
      </trkpt>
      <trkpt lat="51.01901" lon="4.61838">
        <ele>6</ele>
      </trkpt>
      <trkpt lat="51.01882" lon="4.61777">
        <ele>7</ele>
      </trkpt>
      <trkpt lat="51.01879" lon="4.61754">
        <ele>7</ele>
      </trkpt>
      <trkpt lat="51.01878" lon="4.61737">
        <ele>8</ele>
      </trkpt>
      <trkpt lat="51.01881" lon="4.61673">
        <ele>8</ele>
      </trkpt>
      <trkpt lat="51.01897" lon="4.61561">
        <ele>8</ele>
      </trkpt>
      <trkpt lat="51.01902" lon="4.61507">
        <ele>8</ele>
      </trkpt>
      <trkpt lat="51.01906" lon="4.61489">
        <ele>8</ele>
      </trkpt>
      <trkpt lat="51.01954" lon="4.61362">
        <ele>7</ele>
      </trkpt>
      <trkpt lat="51.0197" lon="4.61325">
        <ele>7</ele>
      </trkpt>
      <trkpt lat="51.02008" lon="4.61266">
        <ele>7</ele>
      </trkpt>
      <trkpt lat="51.02029" lon="4.61252">
        <ele>7</ele>
      </trkpt>
      <trkpt lat="51.02069" lon="4.61241">
        <ele>7</ele>
      </trkpt>
      <trkpt lat="51.02085" lon="4.6123">
        <ele>7</ele>
      </trkpt>
      <trkpt lat="51.02098" lon="4.61214">
        <ele>7</ele>
      </trkpt>
      <trkpt lat="51.02115" lon="4.61188">
        <ele>7</ele>
      </trkpt>
      <trkpt lat="51.02137" lon="4.61166">
        <ele>7</ele>
      </trkpt>
      <trkpt lat="51.02158" lon="4.61148">
        <ele>7</ele>
      </trkpt>
      <trkpt lat="51.02185" lon="4.6113">
        <ele>7</ele>
      </trkpt>
      <trkpt lat="51.02218" lon="4.61125">
        <ele>7</ele>
      </trkpt>
      <trkpt lat="51.02346" lon="4.61057">
        <ele>7</ele>
      </trkpt>
      <trkpt lat="51.02428" lon="4.60994">
        <ele>7</ele>
      </trkpt>
      <trkpt lat="51.02448" lon="4.60899">
        <ele>6</ele>
      </trkpt>
      <trkpt lat="51.02451" lon="4.60859">
        <ele>6</ele>
      </trkpt>
      <trkpt lat="51.02458" lon="4.60732">
        <ele>7</ele>
      </trkpt>
      <trkpt lat="51.02465" lon="4.60576">
        <ele>8</ele>
      </trkpt>
      <trkpt lat="51.02464" lon="4.60542">
        <ele>8</ele>
      </trkpt>
      <trkpt lat="51.02429" lon="4.60346">
        <ele>9</ele>
      </trkpt>
      <trkpt lat="51.0241" lon="4.60264">
        <ele>8</ele>
      </trkpt>
      <trkpt lat="51.02379" lon="4.60161">
        <ele>8</ele>
      </trkpt>
      <trkpt lat="51.02356" lon="4.6005">
        <ele>7</ele>
      </trkpt>
      <trkpt lat="51.02269" lon="4.59687">
        <ele>6</ele>
      </trkpt>
      <trkpt lat="51.02258" lon="4.59555">
        <ele>6</ele>
      </trkpt>
      <trkpt lat="51.02248" lon="4.59518">
        <ele>6</ele>
      </trkpt>
      <trkpt lat="51.02215" lon="4.59462">
        <ele>6</ele>
      </trkpt>
      <trkpt lat="51.02183" lon="4.59419">
        <ele>7</ele>
      </trkpt>
      <trkpt lat="51.02151" lon="4.59372">
        <ele>7</ele>
      </trkpt>
      <trkpt lat="51.02123" lon="4.59289">
        <ele>7</ele>
      </trkpt>
      <trkpt lat="51.02116" lon="4.59247">
        <ele>7</ele>
      </trkpt>
      <trkpt lat="51.02115" lon="4.59227">
        <ele>6</ele>
      </trkpt>
      <trkpt lat="51.0212" lon="4.59194">
        <ele>6</ele>
      </trkpt>
      <trkpt lat="51.02124" lon="4.5917">
        <ele>6</ele>
      </trkpt>
      <trkpt lat="51.0213" lon="4.59147">
        <ele>6</ele>
      </trkpt>
      <trkpt lat="51.02145" lon="4.59106">
        <ele>6</ele>
      </trkpt>
      <trkpt lat="51.02178" lon="4.59048">
        <ele>6</ele>
      </trkpt>
      <trkpt lat="51.0219" lon="4.59014">
        <ele>6</ele>
      </trkpt>
      <trkpt lat="51.02199" lon="4.58977">
        <ele>6</ele>
      </trkpt>
      <trkpt lat="51.02205" lon="4.5894">
        <ele>6</ele>
      </trkpt>
      <trkpt lat="51.02208" lon="4.5887">
        <ele>7</ele>
      </trkpt>
      <trkpt lat="51.02207" lon="4.58837">
        <ele>8</ele>
      </trkpt>
      <trkpt lat="51.02192" lon="4.58714">
        <ele>11</ele>
      </trkpt>
      <trkpt lat="51.02168" lon="4.5857">
        <ele>12</ele>
      </trkpt>
      <trkpt lat="51.02129" lon="4.58369">
        <ele>14</ele>
      </trkpt>
      <trkpt lat="51.02108" lon="4.58226">
        <ele>14</ele>
      </trkpt>
      <trkpt lat="51.02072" lon="4.58007">
        <ele>15</ele>
      </trkpt>
      <trkpt lat="51.0205" lon="4.57845">
        <ele>14</ele>
      </trkpt>
      <trkpt lat="51.02031" lon="4.57735">
        <ele>12</ele>
      </trkpt>
      <trkpt lat="51.02027" lon="4.57696">
        <ele>12</ele>
      </trkpt>
      <trkpt lat="51.02018" lon="4.57637">
        <ele>12</ele>
      </trkpt>
      <trkpt lat="51.02013" lon="4.57604">
        <ele>13</ele>
      </trkpt>
      <trkpt lat="51.02042" lon="4.57575">
        <ele>11</ele>
      </trkpt>
      <trkpt lat="51.02072" lon="4.5756">
        <ele>11</ele>
      </trkpt>
      <trkpt lat="51.02097" lon="4.57553">
        <ele>11</ele>
      </trkpt>
      <trkpt lat="51.02094" lon="4.57529">
        <ele>11</ele>
      </trkpt>
      <trkpt lat="51.02077" lon="4.57399">
        <ele>9</ele>
      </trkpt>
      <trkpt lat="51.02001" lon="4.56761">
        <ele>8</ele>
      </trkpt>
      <trkpt lat="51.01997" lon="4.56721">
        <ele>9</ele>
      </trkpt>
      <trkpt lat="51.01963" lon="4.56574">
        <ele>10</ele>
      </trkpt>
      <trkpt lat="51.01955" lon="4.56543">
        <ele>10</ele>
      </trkpt>
      <trkpt lat="51.01976" lon="4.56512">
        <ele>10</ele>
      </trkpt>
      <trkpt lat="51.0202" lon="4.56451">
        <ele>9</ele>
      </trkpt>
      <trkpt lat="51.02235" lon="4.56151">
        <ele>6</ele>
      </trkpt>
      <trkpt lat="51.02341" lon="4.56003">
        <ele>6</ele>
      </trkpt>
      <trkpt lat="51.02412" lon="4.55909">
        <ele>7</ele>
      </trkpt>
      <trkpt lat="51.02455" lon="4.55844">
        <ele>7</ele>
      </trkpt>
      <trkpt lat="51.02483" lon="4.55802">
        <ele>7</ele>
      </trkpt>
      <trkpt lat="51.02483" lon="4.55803">
        <ele>7</ele>
      </trkpt>
      <trkpt lat="51.02577" lon="4.55663">
        <ele>7</ele>
      </trkpt>
      <trkpt lat="51.026" lon="4.55717">
        <ele>7</ele>
      </trkpt>
      <trkpt lat="51.02823" lon="4.56241">
        <ele>6</ele>
      </trkpt>
      <trkpt lat="51.02834" lon="4.56272">
        <ele>6</ele>
      </trkpt>
      <trkpt lat="51.02835" lon="4.56291">
        <ele>6</ele>
      </trkpt>
      <trkpt lat="51.02852" lon="4.56286">
        <ele>6</ele>
      </trkpt>
      <trkpt lat="51.02863" lon="4.56275">
        <ele>6</ele>
      </trkpt>
      <trkpt lat="51.02877" lon="4.56268">
        <ele>6</ele>
      </trkpt>
      <trkpt lat="51.02888" lon="4.56268">
        <ele>5</ele>
      </trkpt>
      <trkpt lat="51.02898" lon="4.56261">
        <ele>6</ele>
      </trkpt>
      <trkpt lat="51.0291" lon="4.56247">
        <ele>6</ele>
      </trkpt>
      <trkpt lat="51.02932" lon="4.56216">
        <ele>6</ele>
      </trkpt>
      <trkpt lat="51.02958" lon="4.56185">
        <ele>6</ele>
      </trkpt>
      <trkpt lat="51.03033" lon="4.56106">
        <ele>5</ele>
      </trkpt>
      <trkpt lat="51.03187" lon="4.55932">
        <ele>6</ele>
      </trkpt>
      <trkpt lat="51.03251" lon="4.55856">
        <ele>5</ele>
      </trkpt>
      <trkpt lat="51.03273" lon="4.55845">
        <ele>5</ele>
      </trkpt>
      <trkpt lat="51.03322" lon="4.55833">
        <ele>5</ele>
      </trkpt>
      <trkpt lat="51.03364" lon="4.55817">
        <ele>5</ele>
      </trkpt>
      <trkpt lat="51.03408" lon="4.55807">
        <ele>5</ele>
      </trkpt>
      <trkpt lat="51.03533" lon="4.55807">
        <ele>7</ele>
      </trkpt>
      <trkpt lat="51.03645" lon="4.55791">
        <ele>7</ele>
      </trkpt>
      <trkpt lat="51.03645" lon="4.55856">
        <ele>8</ele>
      </trkpt>
      <trkpt lat="51.03643" lon="4.55976">
        <ele>8</ele>
      </trkpt>
      <trkpt lat="51.03642" lon="4.55992">
        <ele>8</ele>
      </trkpt>
      <trkpt lat="51.03632" lon="4.56055">
        <ele>8</ele>
      </trkpt>
      <trkpt lat="51.03568" lon="4.5633">
        <ele>6</ele>
      </trkpt>
      <trkpt lat="51.03565" lon="4.56351">
        <ele>6</ele>
      </trkpt>
      <trkpt lat="51.03573" lon="4.56478">
        <ele>7</ele>
      </trkpt>
      <trkpt lat="51.03534" lon="4.56664">
        <ele>9</ele>
      </trkpt>
      <trkpt lat="51.035" lon="4.56847">
        <ele>12</ele>
      </trkpt>
      <trkpt lat="51.03495" lon="4.56882">
        <ele>12</ele>
      </trkpt>
      <trkpt lat="51.03492" lon="4.56914">
        <ele>13</ele>
      </trkpt>
      <trkpt lat="51.03491" lon="4.56935">
        <ele>13</ele>
      </trkpt>
      <trkpt lat="51.03493" lon="4.57041">
        <ele>15</ele>
      </trkpt>
      <trkpt lat="51.03498" lon="4.57098">
        <ele>15</ele>
      </trkpt>
      <trkpt lat="51.0353" lon="4.57266">
        <ele>12</ele>
      </trkpt>
      <trkpt lat="51.03565" lon="4.57427">
        <ele>11</ele>
      </trkpt>
      <trkpt lat="51.03573" lon="4.57475">
        <ele>10</ele>
      </trkpt>
      <trkpt lat="51.03574" lon="4.5759">
        <ele>8</ele>
      </trkpt>
      <trkpt lat="51.03575" lon="4.57645">
        <ele>8</ele>
      </trkpt>
      <trkpt lat="51.03759" lon="4.57698">
        <ele>6</ele>
      </trkpt>
      <trkpt lat="51.03805" lon="4.57709">
        <ele>5</ele>
      </trkpt>
      <trkpt lat="51.03819" lon="4.57716">
        <ele>5</ele>
      </trkpt>
      <trkpt lat="51.03865" lon="4.57729">
        <ele>5</ele>
      </trkpt>
      <trkpt lat="51.03893" lon="4.57729">
        <ele>5</ele>
      </trkpt>
      <trkpt lat="51.04032" lon="4.57726">
        <ele>5</ele>
      </trkpt>
      <trkpt lat="51.04075" lon="4.57781">
        <ele>5</ele>
      </trkpt>
      <trkpt lat="51.04101" lon="4.57804">
        <ele>5</ele>
      </trkpt>
      <trkpt lat="51.04168" lon="4.5785">
        <ele>5</ele>
      </trkpt>
      <trkpt lat="51.04265" lon="4.57933">
        <ele>6</ele>
      </trkpt>
      <trkpt lat="51.04339" lon="4.58005">
        <ele>6</ele>
      </trkpt>
      <trkpt lat="51.04416" lon="4.581">
        <ele>7</ele>
      </trkpt>
      <trkpt lat="51.04538" lon="4.58256">
        <ele>7</ele>
      </trkpt>
      <trkpt lat="51.04564" lon="4.58285">
        <ele>6</ele>
      </trkpt>
      <trkpt lat="51.0458" lon="4.58298">
        <ele>7</ele>
      </trkpt>
      <trkpt lat="51.04593" lon="4.58303">
        <ele>7</ele>
      </trkpt>
      <trkpt lat="51.04661" lon="4.58319">
        <ele>7</ele>
      </trkpt>
      <trkpt lat="51.04674" lon="4.5861">
        <ele>8</ele>
      </trkpt>
      <trkpt lat="51.04685" lon="4.58938">
        <ele>11</ele>
      </trkpt>
      <trkpt lat="51.04719" lon="4.58952">
        <ele>10</ele>
      </trkpt>
      <trkpt lat="51.05058" lon="4.59048">
        <ele>10</ele>
      </trkpt>
      <trkpt lat="51.05089" lon="4.59063">
        <ele>10</ele>
      </trkpt>
      <trkpt lat="51.051" lon="4.59073">
        <ele>10</ele>
      </trkpt>
      <trkpt lat="51.05108" lon="4.59057">
        <ele>10</ele>
      </trkpt>
      <trkpt lat="51.05119" lon="4.58797">
        <ele>9</ele>
      </trkpt>
      <trkpt lat="51.05121" lon="4.58748">
        <ele>9</ele>
      </trkpt>
      <trkpt lat="51.05135" lon="4.58535">
        <ele>10</ele>
      </trkpt>
      <trkpt lat="51.05156" lon="4.58401">
        <ele>10</ele>
      </trkpt>
      <trkpt lat="51.05181" lon="4.58289">
        <ele>9</ele>
      </trkpt>
      <trkpt lat="51.0519" lon="4.58258">
        <ele>10</ele>
      </trkpt>
      <trkpt lat="51.05198" lon="4.58244">
        <ele>10</ele>
      </trkpt>
      <trkpt lat="51.05259" lon="4.58187">
        <ele>10</ele>
      </trkpt>
      <trkpt lat="51.05301" lon="4.58145">
        <ele>11</ele>
      </trkpt>
      <trkpt lat="51.05343" lon="4.581">
        <ele>11</ele>
      </trkpt>
      <trkpt lat="51.05353" lon="4.58079">
        <ele>10</ele>
      </trkpt>
      <trkpt lat="51.05362" lon="4.58053">
        <ele>10</ele>
      </trkpt>
      <trkpt lat="51.05373" lon="4.58006">
        <ele>10</ele>
      </trkpt>
      <trkpt lat="51.05385" lon="4.57934">
        <ele>10</ele>
      </trkpt>
      <trkpt lat="51.05392" lon="4.57863">
        <ele>11</ele>
      </trkpt>
      <trkpt lat="51.05402" lon="4.57743">
        <ele>10</ele>
      </trkpt>
      <trkpt lat="51.05402" lon="4.57543">
        <ele>11</ele>
      </trkpt>
      <trkpt lat="51.05406" lon="4.57495">
        <ele>11</ele>
      </trkpt>
      <trkpt lat="51.05405" lon="4.57495">
        <ele>11</ele>
      </trkpt>
      <trkpt lat="51.05413" lon="4.57379">
        <ele>11</ele>
      </trkpt>
      <trkpt lat="51.05416" lon="4.57365">
        <ele>11</ele>
      </trkpt>
      <trkpt lat="51.05421" lon="4.57354">
        <ele>10</ele>
      </trkpt>
      <trkpt lat="51.05491" lon="4.57253">
        <ele>10</ele>
      </trkpt>
      <trkpt lat="51.05503" lon="4.57228">
        <ele>10</ele>
      </trkpt>
      <trkpt lat="51.05494" lon="4.5719">
        <ele>10</ele>
      </trkpt>
      <trkpt lat="51.05493" lon="4.57155">
        <ele>11</ele>
      </trkpt>
      <trkpt lat="51.05497" lon="4.57124">
        <ele>11</ele>
      </trkpt>
      <trkpt lat="51.05534" lon="4.56757">
        <ele>11</ele>
      </trkpt>
      <trkpt lat="51.0555" lon="4.5662">
        <ele>12</ele>
      </trkpt>
      <trkpt lat="51.05547" lon="4.56617">
        <ele>12</ele>
      </trkpt>
      <trkpt lat="51.05547" lon="4.56618">
        <ele>12</ele>
      </trkpt>
      <trkpt lat="51.05524" lon="4.56593">
        <ele>12</ele>
      </trkpt>
      <trkpt lat="51.05514" lon="4.56587">
        <ele>12</ele>
      </trkpt>
      <trkpt lat="51.05421" lon="4.56564">
        <ele>12</ele>
      </trkpt>
      <trkpt lat="51.05348" lon="4.56542">
        <ele>12</ele>
      </trkpt>
      <trkpt lat="51.05296" lon="4.56531">
        <ele>12</ele>
      </trkpt>
      <trkpt lat="51.05201" lon="4.56511">
        <ele>10</ele>
      </trkpt>
      <trkpt lat="51.04833" lon="4.56419">
        <ele>6</ele>
      </trkpt>
      <trkpt lat="51.04818" lon="4.56415">
        <ele>6</ele>
      </trkpt>
      <trkpt lat="51.04799" lon="4.56401">
        <ele>5</ele>
      </trkpt>
      <trkpt lat="51.04792" lon="4.56395">
        <ele>5</ele>
      </trkpt>
      <trkpt lat="51.04767" lon="4.5636">
        <ele>5</ele>
      </trkpt>
      <trkpt lat="51.04755" lon="4.56331">
        <ele>5</ele>
      </trkpt>
      <trkpt lat="51.04747" lon="4.56301">
        <ele>5</ele>
      </trkpt>
      <trkpt lat="51.04742" lon="4.56259">
        <ele>5</ele>
      </trkpt>
      <trkpt lat="51.04738" lon="4.56132">
        <ele>6</ele>
      </trkpt>
      <trkpt lat="51.04729" lon="4.55974">
        <ele>6</ele>
      </trkpt>
      <trkpt lat="51.04722" lon="4.55905">
        <ele>6</ele>
      </trkpt>
      <trkpt lat="51.04712" lon="4.5586">
        <ele>6</ele>
      </trkpt>
      <trkpt lat="51.04706" lon="4.5584">
        <ele>6</ele>
      </trkpt>
      <trkpt lat="51.04695" lon="4.55811">
        <ele>6</ele>
      </trkpt>
      <trkpt lat="51.04679" lon="4.55779">
        <ele>6</ele>
      </trkpt>
      <trkpt lat="51.04628" lon="4.55703">
        <ele>6</ele>
      </trkpt>
      <trkpt lat="51.04582" lon="4.5564">
        <ele>6</ele>
      </trkpt>
      <trkpt lat="51.04556" lon="4.55616">
        <ele>6</ele>
      </trkpt>
      <trkpt lat="51.04558" lon="4.55609">
        <ele>6</ele>
      </trkpt>
      <trkpt lat="51.04556" lon="4.55616">
        <ele>6</ele>
      </trkpt>
      <trkpt lat="51.04532" lon="4.55599">
        <ele>6</ele>
      </trkpt>
      <trkpt lat="51.04502" lon="4.55587">
        <ele>6</ele>
      </trkpt>
      <trkpt lat="51.04404" lon="4.55557">
        <ele>6</ele>
      </trkpt>
      <trkpt lat="51.0438" lon="4.55543">
        <ele>7</ele>
      </trkpt>
      <trkpt lat="51.04147" lon="4.55314">
        <ele>5</ele>
      </trkpt>
      <trkpt lat="51.04114" lon="4.5529">
        <ele>5</ele>
      </trkpt>
      <trkpt lat="51.03839" lon="4.55185">
        <ele>6</ele>
      </trkpt>
      <trkpt lat="51.03812" lon="4.55178">
        <ele>6</ele>
      </trkpt>
      <trkpt lat="51.03774" lon="4.55178">
        <ele>6</ele>
      </trkpt>
      <trkpt lat="51.03718" lon="4.55181">
        <ele>6</ele>
      </trkpt>
      <trkpt lat="51.03597" lon="4.55187">
        <ele>5</ele>
      </trkpt>
      <trkpt lat="51.03605" lon="4.54999">
        <ele>6</ele>
      </trkpt>
      <trkpt lat="51.03599" lon="4.54899">
        <ele>6</ele>
      </trkpt>
      <trkpt lat="51.03589" lon="4.54757">
        <ele>6</ele>
      </trkpt>
      <trkpt lat="51.03554" lon="4.54528">
        <ele>7</ele>
      </trkpt>
      <trkpt lat="51.03526" lon="4.5426">
        <ele>8</ele>
      </trkpt>
      <trkpt lat="51.0351" lon="4.54182">
        <ele>8</ele>
      </trkpt>
      <trkpt lat="51.03463" lon="4.53997">
        <ele>7</ele>
      </trkpt>
      <trkpt lat="51.03433" lon="4.53852">
        <ele>8</ele>
      </trkpt>
      <trkpt lat="51.03415" lon="4.53735">
        <ele>7</ele>
      </trkpt>
      <trkpt lat="51.03404" lon="4.53665">
        <ele>6</ele>
      </trkpt>
      <trkpt lat="51.03397" lon="4.53619">
        <ele>6</ele>
      </trkpt>
      <trkpt lat="51.03387" lon="4.5352">
        <ele>5</ele>
      </trkpt>
      <trkpt lat="51.03388" lon="4.53492">
        <ele>5</ele>
      </trkpt>
      <trkpt lat="51.03397" lon="4.53374">
        <ele>5</ele>
      </trkpt>
      <trkpt lat="51.03384" lon="4.53152">
        <ele>5</ele>
      </trkpt>
      <trkpt lat="51.03382" lon="4.53058">
        <ele>5</ele>
      </trkpt>
      <trkpt lat="51.03381" lon="4.52919">
        <ele>4</ele>
      </trkpt>
      <trkpt lat="51.03383" lon="4.52809">
        <ele>5</ele>
      </trkpt>
      <trkpt lat="51.03386" lon="4.52773">
        <ele>5</ele>
      </trkpt>
      <trkpt lat="51.03403" lon="4.5261">
        <ele>5</ele>
      </trkpt>
      <trkpt lat="51.03401" lon="4.52571">
        <ele>5</ele>
      </trkpt>
      <trkpt lat="51.03394" lon="4.52518">
        <ele>4</ele>
      </trkpt>
      <trkpt lat="51.03382" lon="4.52423">
        <ele>4</ele>
      </trkpt>
      <trkpt lat="51.03381" lon="4.52373">
        <ele>4</ele>
      </trkpt>
      <trkpt lat="51.03383" lon="4.52346">
        <ele>4</ele>
      </trkpt>
      <trkpt lat="51.03388" lon="4.52319">
        <ele>4</ele>
      </trkpt>
      <trkpt lat="51.03414" lon="4.52186">
        <ele>4</ele>
      </trkpt>
      <trkpt lat="51.03422" lon="4.52134">
        <ele>4</ele>
      </trkpt>
      <trkpt lat="51.03426" lon="4.52096">
        <ele>4</ele>
      </trkpt>
      <trkpt lat="51.03426" lon="4.5206">
        <ele>4</ele>
      </trkpt>
      <trkpt lat="51.03416" lon="4.51955">
        <ele>5</ele>
      </trkpt>
      <trkpt lat="51.03416" lon="4.51799">
        <ele>5</ele>
      </trkpt>
      <trkpt lat="51.03399" lon="4.51659">
        <ele>5</ele>
      </trkpt>
      <trkpt lat="51.03395" lon="4.51603">
        <ele>5</ele>
      </trkpt>
      <trkpt lat="51.03379" lon="4.51461">
        <ele>5</ele>
      </trkpt>
      <trkpt lat="51.03373" lon="4.51398">
        <ele>4</ele>
      </trkpt>
      <trkpt lat="51.03372" lon="4.51365">
        <ele>4</ele>
      </trkpt>
      <trkpt lat="51.03383" lon="4.51319">
        <ele>5</ele>
      </trkpt>
      <trkpt lat="51.03387" lon="4.51289">
        <ele>5</ele>
      </trkpt>
      <trkpt lat="51.03401" lon="4.51058">
        <ele>5</ele>
      </trkpt>
      <trkpt lat="51.03401" lon="4.5105">
        <ele>5</ele>
      </trkpt>
      <trkpt lat="51.03396" lon="4.51037">
        <ele>5</ele>
      </trkpt>
      <trkpt lat="51.03404" lon="4.51026">
        <ele>5</ele>
      </trkpt>
      <trkpt lat="51.03424" lon="4.51">
        <ele>4</ele>
      </trkpt>
      <trkpt lat="51.03405" lon="4.50963">
        <ele>4</ele>
      </trkpt>
      <trkpt lat="51.03388" lon="4.50931">
        <ele>4</ele>
      </trkpt>
      <trkpt lat="51.03368" lon="4.50886">
        <ele>4</ele>
      </trkpt>
      <trkpt lat="51.03354" lon="4.50843">
        <ele>4</ele>
      </trkpt>
      <trkpt lat="51.03343" lon="4.50794">
        <ele>4</ele>
      </trkpt>
      <trkpt lat="51.03322" lon="4.50616">
        <ele>5</ele>
      </trkpt>
      <trkpt lat="51.03308" lon="4.50515">
        <ele>5</ele>
      </trkpt>
      <trkpt lat="51.03303" lon="4.50488">
        <ele>5</ele>
      </trkpt>
      <trkpt lat="51.03299" lon="4.50483">
        <ele>5</ele>
      </trkpt>
      <trkpt lat="51.03296" lon="4.50464">
        <ele>5</ele>
      </trkpt>
      <trkpt lat="51.03298" lon="4.50455">
        <ele>5</ele>
      </trkpt>
      <trkpt lat="51.0329" lon="4.50398">
        <ele>5</ele>
      </trkpt>
      <trkpt lat="51.03223" lon="4.50042">
        <ele>4</ele>
      </trkpt>
      <trkpt lat="51.03201" lon="4.49947">
        <ele>5</ele>
      </trkpt>
      <trkpt lat="51.03145" lon="4.49756">
        <ele>4</ele>
      </trkpt>
      <trkpt lat="51.03127" lon="4.49689">
        <ele>4</ele>
      </trkpt>
      <trkpt lat="51.03112" lon="4.49611">
        <ele>5</ele>
      </trkpt>
      <trkpt lat="51.03096" lon="4.49484">
        <ele>6</ele>
      </trkpt>
      <trkpt lat="51.03094" lon="4.49456">
        <ele>6</ele>
      </trkpt>
      <trkpt lat="51.03095" lon="4.4941">
        <ele>6</ele>
      </trkpt>
      <trkpt lat="51.03097" lon="4.4927">
        <ele>7</ele>
      </trkpt>
      <trkpt lat="51.03098" lon="4.49253">
        <ele>7</ele>
      </trkpt>
      <trkpt lat="51.03102" lon="4.49248">
        <ele>7</ele>
      </trkpt>
      <trkpt lat="51.03098" lon="4.4923">
        <ele>7</ele>
      </trkpt>
      <trkpt lat="51.0306" lon="4.49156">
        <ele>8</ele>
      </trkpt>
      <trkpt lat="51.03036" lon="4.49114">
        <ele>8</ele>
      </trkpt>
      <trkpt lat="51.03033" lon="4.49109">
        <ele>8</ele>
      </trkpt>
      <trkpt lat="51.03016" lon="4.49094">
        <ele>7</ele>
      </trkpt>
      <trkpt lat="51.03013" lon="4.49098">
        <ele>7</ele>
      </trkpt>
      <trkpt lat="51.03002" lon="4.49102">
        <ele>8</ele>
      </trkpt>
      <trkpt lat="51.02914" lon="4.49103">
        <ele>8</ele>
      </trkpt>
      <trkpt lat="51.02877" lon="4.49103">
        <ele>8</ele>
      </trkpt>
      <trkpt lat="51.02858" lon="4.49165">
        <ele>7</ele>
      </trkpt>
      <trkpt lat="51.02778" lon="4.49306">
        <ele>6</ele>
      </trkpt>
      <trkpt lat="51.02743" lon="4.49367">
        <ele>6</ele>
      </trkpt>
      <trkpt lat="51.02706" lon="4.49417">
        <ele>5</ele>
      </trkpt>
      <trkpt lat="51.0268" lon="4.49444">
        <ele>5</ele>
      </trkpt>
      <trkpt lat="51.0261" lon="4.4949">
        <ele>5</ele>
      </trkpt>
      <trkpt lat="51.02567" lon="4.49511">
        <ele>5</ele>
      </trkpt>
      <trkpt lat="51.02538" lon="4.4953">
        <ele>5</ele>
      </trkpt>
      <trkpt lat="51.02519" lon="4.49548">
        <ele>5</ele>
      </trkpt>
      <trkpt lat="51.02505" lon="4.49566">
        <ele>5</ele>
      </trkpt>
      <trkpt lat="51.02455" lon="4.49672">
        <ele>5</ele>
      </trkpt>
      <trkpt lat="51.02442" lon="4.49693">
        <ele>4</ele>
      </trkpt>
      <trkpt lat="51.02391" lon="4.49745">
        <ele>4</ele>
      </trkpt>
      <trkpt lat="51.02373" lon="4.49767">
        <ele>4</ele>
      </trkpt>
      <trkpt lat="51.02363" lon="4.49769">
        <ele>4</ele>
      </trkpt>
      <trkpt lat="51.02356" lon="4.49764">
        <ele>4</ele>
      </trkpt>
      <trkpt lat="51.0229" lon="4.49789">
        <ele>4</ele>
      </trkpt>
      <trkpt lat="51.02269" lon="4.49793">
        <ele>4</ele>
      </trkpt>
      <trkpt lat="51.02197" lon="4.49793">
        <ele>5</ele>
      </trkpt>
      <trkpt lat="51.02181" lon="4.49798">
        <ele>5</ele>
      </trkpt>
      <trkpt lat="51.02144" lon="4.49822">
        <ele>5</ele>
      </trkpt>
      <trkpt lat="51.02117" lon="4.49855">
        <ele>5</ele>
      </trkpt>
      <trkpt lat="51.02109" lon="4.49875">
        <ele>5</ele>
      </trkpt>
      <trkpt lat="51.02104" lon="4.49899">
        <ele>5</ele>
      </trkpt>
      <trkpt lat="51.02103" lon="4.49927">
        <ele>5</ele>
      </trkpt>
      <trkpt lat="51.02107" lon="4.50072">
        <ele>5</ele>
      </trkpt>
      <trkpt lat="51.02104" lon="4.50095">
        <ele>5</ele>
      </trkpt>
      <trkpt lat="51.02098" lon="4.50114">
        <ele>5</ele>
      </trkpt>
      <trkpt lat="51.02078" lon="4.50156">
        <ele>5</ele>
      </trkpt>
      <trkpt lat="51.02068" lon="4.5017">
        <ele>4</ele>
      </trkpt>
      <trkpt lat="51.02059" lon="4.50179">
        <ele>4</ele>
      </trkpt>
      <trkpt lat="51.02042" lon="4.50192">
        <ele>4</ele>
      </trkpt>
      <trkpt lat="51.02026" lon="4.50201">
        <ele>3</ele>
      </trkpt>
      <trkpt lat="51.01933" lon="4.50231">
        <ele>4</ele>
      </trkpt>
      <trkpt lat="51.01911" lon="4.50243">
        <ele>4</ele>
      </trkpt>
      <trkpt lat="51.01874" lon="4.50273">
        <ele>4</ele>
      </trkpt>
      <trkpt lat="51.0186" lon="4.50289">
        <ele>4</ele>
      </trkpt>
      <trkpt lat="51.01848" lon="4.50309">
        <ele>6</ele>
      </trkpt>
      <trkpt lat="51.01824" lon="4.50366">
        <ele>6</ele>
      </trkpt>
      <trkpt lat="51.01813" lon="4.50398">
        <ele>6</ele>
      </trkpt>
      <trkpt lat="51.01799" lon="4.50471">
        <ele>5</ele>
      </trkpt>
      <trkpt lat="51.01795" lon="4.50509">
        <ele>4</ele>
      </trkpt>
      <trkpt lat="51.01793" lon="4.50555">
        <ele>4</ele>
      </trkpt>
      <trkpt lat="51.0179" lon="4.50671">
        <ele>3</ele>
      </trkpt>
      <trkpt lat="51.01786" lon="4.50716">
        <ele>2</ele>
      </trkpt>
      <trkpt lat="51.01782" lon="4.50732">
        <ele>2</ele>
      </trkpt>
      <trkpt lat="51.01766" lon="4.50769">
        <ele>3</ele>
      </trkpt>
      <trkpt lat="51.01753" lon="4.5079">
        <ele>3</ele>
      </trkpt>
      <trkpt lat="51.0174" lon="4.50807">
        <ele>3</ele>
      </trkpt>
      <trkpt lat="51.01606" lon="4.50919">
        <ele>4</ele>
      </trkpt>
      <trkpt lat="51.01593" lon="4.50933">
        <ele>5</ele>
      </trkpt>
      <trkpt lat="51.01564" lon="4.50974">
        <ele>5</ele>
      </trkpt>
      <trkpt lat="51.01514" lon="4.5105">
        <ele>5</ele>
      </trkpt>
      <trkpt lat="51.01483" lon="4.51107">
        <ele>5</ele>
      </trkpt>
      <trkpt lat="51.01465" lon="4.51142">
        <ele>4</ele>
      </trkpt>
      <trkpt lat="51.01444" lon="4.51191">
        <ele>4</ele>
      </trkpt>
      <trkpt lat="51.01441" lon="4.5122">
        <ele>4</ele>
      </trkpt>
      <trkpt lat="51.01452" lon="4.51319">
        <ele>3</ele>
      </trkpt>
      <trkpt lat="51.0145" lon="4.51338">
        <ele>3</ele>
      </trkpt>
      <trkpt lat="51.01447" lon="4.51358">
        <ele>3</ele>
      </trkpt>
      <trkpt lat="51.0144" lon="4.51379">
        <ele>3</ele>
      </trkpt>
      <trkpt lat="51.01432" lon="4.51397">
        <ele>4</ele>
      </trkpt>
      <trkpt lat="51.01421" lon="4.51414">
        <ele>4</ele>
      </trkpt>
      <trkpt lat="51.014" lon="4.51436">
        <ele>5</ele>
      </trkpt>
      <trkpt lat="51.01368" lon="4.51447">
        <ele>5</ele>
      </trkpt>
      <trkpt lat="51.01332" lon="4.51457">
        <ele>7</ele>
      </trkpt>
      <trkpt lat="51.01279" lon="4.51465">
        <ele>8</ele>
      </trkpt>
      <trkpt lat="51.01263" lon="4.51469">
        <ele>10</ele>
      </trkpt>
      <trkpt lat="51.0125" lon="4.51476">
        <ele>10</ele>
      </trkpt>
      <trkpt lat="51.01233" lon="4.515">
        <ele>9</ele>
      </trkpt>
      <trkpt lat="51.01225" lon="4.51513">
        <ele>10</ele>
      </trkpt>
      <trkpt lat="51.01216" lon="4.51536">
        <ele>10</ele>
      </trkpt>
      <trkpt lat="51.01207" lon="4.51566">
        <ele>9</ele>
      </trkpt>
      <trkpt lat="51.01201" lon="4.51597">
        <ele>7</ele>
      </trkpt>
      <trkpt lat="51.01192" lon="4.51665">
        <ele>4</ele>
      </trkpt>
      <trkpt lat="51.0119" lon="4.51693">
        <ele>4</ele>
      </trkpt>
      <trkpt lat="51.0119" lon="4.51729">
        <ele>3</ele>
      </trkpt>
      <trkpt lat="51.01195" lon="4.51822">
        <ele>3</ele>
      </trkpt>
      <trkpt lat="51.01199" lon="4.51888">
        <ele>3</ele>
      </trkpt>
      <trkpt lat="51.01199" lon="4.5192">
        <ele>3</ele>
      </trkpt>
      <trkpt lat="51.01195" lon="4.51971">
        <ele>3</ele>
      </trkpt>
      <trkpt lat="51.01189" lon="4.51987">
        <ele>3</ele>
      </trkpt>
      <trkpt lat="51.01169" lon="4.52078">
        <ele>5</ele>
      </trkpt>
      <trkpt lat="51.01179" lon="4.52088">
        <ele>5</ele>
      </trkpt>
      <trkpt lat="51.01171" lon="4.52109">
        <ele>5</ele>
      </trkpt>
      <trkpt lat="51.01162" lon="4.52134">
        <ele>5</ele>
      </trkpt>
      <trkpt lat="51.01157" lon="4.52123">
        <ele>5</ele>
      </trkpt>
      <trkpt lat="51.0111" lon="4.52047">
        <ele>6</ele>
      </trkpt>
      <trkpt lat="51.01101" lon="4.52037">
        <ele>6</ele>
      </trkpt>
      <trkpt lat="51.0108" lon="4.52018">
        <ele>8</ele>
      </trkpt>
      <trkpt lat="51.0098" lon="4.51944">
        <ele>9</ele>
      </trkpt>
      <trkpt lat="51.00989" lon="4.51893">
        <ele>10</ele>
      </trkpt>
      <trkpt lat="51.00996" lon="4.51861">
        <ele>10</ele>
      </trkpt>
      <trkpt lat="51.01034" lon="4.51681">
        <ele>11</ele>
      </trkpt>
      <trkpt lat="51.01038" lon="4.51655">
        <ele>11</ele>
      </trkpt>
      <trkpt lat="51.01046" lon="4.51584">
        <ele>11</ele>
      </trkpt>
      <trkpt lat="51.01011" lon="4.51566">
        <ele>11</ele>
      </trkpt>
      <trkpt lat="51.00982" lon="4.51544">
        <ele>11</ele>
      </trkpt>
      <trkpt lat="51.00954" lon="4.51522">
        <ele>11</ele>
      </trkpt>
      <trkpt lat="51.00943" lon="4.51519">
        <ele>11</ele>
      </trkpt>
      <trkpt lat="51.00927" lon="4.51522">
        <ele>10</ele>
      </trkpt>
      <trkpt lat="51.00796" lon="4.51564">
        <ele>9</ele>
      </trkpt>
      <trkpt lat="51.00779" lon="4.51564">
        <ele>9</ele>
      </trkpt>
      <trkpt lat="51.0076" lon="4.5155">
        <ele>9</ele>
      </trkpt>
      <trkpt lat="51.00736" lon="4.51517">
        <ele>9</ele>
      </trkpt>
      <trkpt lat="51.0073" lon="4.51506">
        <ele>8</ele>
      </trkpt>
      <trkpt lat="51.00727" lon="4.51494">
        <ele>8</ele>
      </trkpt>
      <trkpt lat="51.00728" lon="4.51483">
        <ele>8</ele>
      </trkpt>
      <trkpt lat="51.00764" lon="4.51285">
        <ele>9</ele>
      </trkpt>
      <trkpt lat="51.00765" lon="4.51273">
        <ele>9</ele>
      </trkpt>
      <trkpt lat="51.00765" lon="4.51248">
        <ele>9</ele>
      </trkpt>
      <trkpt lat="51.00761" lon="4.51234">
        <ele>9</ele>
      </trkpt>
      <trkpt lat="51.00756" lon="4.51221">
        <ele>9</ele>
      </trkpt>
      <trkpt lat="51.00738" lon="4.51194">
        <ele>9</ele>
      </trkpt>
      <trkpt lat="51.0079" lon="4.51112">
        <ele>9</ele>
      </trkpt>
      <trkpt lat="51.00775" lon="4.5109">
        <ele>9</ele>
      </trkpt>
      <trkpt lat="51.00766" lon="4.51075">
        <ele>9</ele>
      </trkpt>
      <trkpt lat="51.00762" lon="4.51065">
        <ele>9</ele>
      </trkpt>
      <trkpt lat="51.00755" lon="4.51061">
        <ele>10</ele>
      </trkpt>
      <trkpt lat="51.0067" lon="4.50925">
        <ele>8</ele>
      </trkpt>
      <trkpt lat="51.00625" lon="4.50854">
        <ele>8</ele>
      </trkpt>
      <trkpt lat="51.00621" lon="4.50838">
        <ele>8</ele>
      </trkpt>
      <trkpt lat="51.00621" lon="4.50835">
        <ele>8</ele>
      </trkpt>
      <trkpt lat="51.00624" lon="4.50823">
        <ele>8</ele>
      </trkpt>
      <trkpt lat="51.00655" lon="4.50781">
        <ele>9</ele>
      </trkpt>
      <trkpt lat="51.00656" lon="4.50765">
        <ele>8</ele>
      </trkpt>
      <trkpt lat="51.00512" lon="4.50528">
        <ele>9</ele>
      </trkpt>
      <trkpt lat="51.00463" lon="4.50378">
        <ele>9</ele>
      </trkpt>
      <trkpt lat="51.00446" lon="4.50331">
        <ele>9</ele>
      </trkpt>
      <trkpt lat="51.00425" lon="4.50284">
        <ele>9</ele>
      </trkpt>
      <trkpt lat="51.00417" lon="4.50303">
        <ele>9</ele>
      </trkpt>
      <trkpt lat="50.99689" lon="4.51906">
        <ele>9</ele>
      </trkpt>
      <trkpt lat="50.99673" lon="4.51945">
        <ele>9</ele>
      </trkpt>
      <trkpt lat="50.99629" lon="4.52036">
        <ele>9</ele>
      </trkpt>
      <trkpt lat="50.9927" lon="4.52821">
        <ele>10</ele>
      </trkpt>
      <trkpt lat="50.99258" lon="4.52851">
        <ele>9</ele>
      </trkpt>
      <trkpt lat="50.99247" lon="4.52887">
        <ele>9</ele>
      </trkpt>
      <trkpt lat="50.99245" lon="4.52901">
        <ele>9</ele>
      </trkpt>
      <trkpt lat="50.99242" lon="4.52907">
        <ele>9</ele>
      </trkpt>
      <trkpt lat="50.9923" lon="4.52919">
        <ele>9</ele>
      </trkpt>
      <trkpt lat="50.99135" lon="4.53114">
        <ele>8</ele>
      </trkpt>
      <trkpt lat="50.98947" lon="4.5354">
        <ele>8</ele>
      </trkpt>
      <trkpt lat="50.98843" lon="4.53771">
        <ele>8</ele>
      </trkpt>
      <trkpt lat="50.98708" lon="4.54064">
        <ele>9</ele>
      </trkpt>
      <trkpt lat="50.98686" lon="4.54103">
        <ele>9</ele>
      </trkpt>
      <trkpt lat="50.98601" lon="4.54231">
        <ele>9</ele>
      </trkpt>
      <trkpt lat="50.98277" lon="4.54711">
        <ele>9</ele>
      </trkpt>
      <trkpt lat="50.98268" lon="4.54736">
        <ele>9</ele>
      </trkpt>
      <trkpt lat="50.98256" lon="4.54741">
        <ele>9</ele>
      </trkpt>
      <trkpt lat="50.9813" lon="4.54926">
        <ele>9</ele>
      </trkpt>
      <trkpt lat="50.98067" lon="4.55021">
        <ele>8</ele>
      </trkpt>
      <trkpt lat="50.97783" lon="4.5545">
        <ele>10</ele>
      </trkpt>
      <trkpt lat="50.97481" lon="4.55898">
        <ele>8</ele>
      </trkpt>
      <trkpt lat="50.97472" lon="4.55919">
        <ele>8</ele>
      </trkpt>
      <trkpt lat="50.97448" lon="4.55877">
        <ele>8</ele>
      </trkpt>
      <trkpt lat="50.97433" lon="4.55857">
        <ele>8</ele>
      </trkpt>
      <trkpt lat="50.97412" lon="4.55839">
        <ele>8</ele>
      </trkpt>
      <trkpt lat="50.97397" lon="4.55833">
        <ele>8</ele>
      </trkpt>
      <trkpt lat="50.97366" lon="4.55827">
        <ele>8</ele>
      </trkpt>
      <trkpt lat="50.97365" lon="4.55821">
        <ele>8</ele>
      </trkpt>
      <trkpt lat="50.97366" lon="4.55827">
        <ele>8</ele>
      </trkpt>
      <trkpt lat="50.97273" lon="4.55812">
        <ele>8</ele>
      </trkpt>
      <trkpt lat="50.97241" lon="4.55819">
        <ele>8</ele>
      </trkpt>
      <trkpt lat="50.97095" lon="4.55878">
        <ele>8</ele>
      </trkpt>
      <trkpt lat="50.97063" lon="4.559">
        <ele>8</ele>
      </trkpt>
      <trkpt lat="50.97017" lon="4.55942">
        <ele>8</ele>
      </trkpt>
      <trkpt lat="50.96971" lon="4.55978">
        <ele>9</ele>
      </trkpt>
      <trkpt lat="50.9694" lon="4.55987">
        <ele>9</ele>
      </trkpt>
      <trkpt lat="50.96916" lon="4.55978">
        <ele>9</ele>
      </trkpt>
      <trkpt lat="50.96901" lon="4.55966">
        <ele>9</ele>
      </trkpt>
      <trkpt lat="50.96871" lon="4.55925">
        <ele>9</ele>
      </trkpt>
      <trkpt lat="50.96861" lon="4.55918">
        <ele>9</ele>
      </trkpt>
      <trkpt lat="50.96842" lon="4.55912">
        <ele>9</ele>
      </trkpt>
      <trkpt lat="50.96799" lon="4.5592">
        <ele>9</ele>
      </trkpt>
      <trkpt lat="50.96786" lon="4.55927">
        <ele>9</ele>
      </trkpt>
      <trkpt lat="50.96777" lon="4.55935">
        <ele>9</ele>
      </trkpt>
      <trkpt lat="50.96749" lon="4.55971">
        <ele>8</ele>
      </trkpt>
      <trkpt lat="50.96641" lon="4.56086">
        <ele>8</ele>
      </trkpt>
      <trkpt lat="50.96601" lon="4.56122">
        <ele>8</ele>
      </trkpt>
      <trkpt lat="50.965" lon="4.56219">
        <ele>9</ele>
      </trkpt>
      <trkpt lat="50.96488" lon="4.56233">
        <ele>9</ele>
      </trkpt>
      <trkpt lat="50.96461" lon="4.56273">
        <ele>9</ele>
      </trkpt>
      <trkpt lat="50.96455" lon="4.56278">
        <ele>9</ele>
      </trkpt>
      <trkpt lat="50.9645" lon="4.56275">
        <ele>9</ele>
      </trkpt>
      <trkpt lat="50.96437" lon="4.56255">
        <ele>9</ele>
      </trkpt>
      <trkpt lat="50.96352" lon="4.56123">
        <ele>9</ele>
      </trkpt>
      <trkpt lat="50.96288" lon="4.56042">
        <ele>9</ele>
      </trkpt>
      <trkpt lat="50.96275" lon="4.56022">
        <ele>10</ele>
      </trkpt>
      <trkpt lat="50.96216" lon="4.5581">
        <ele>9</ele>
      </trkpt>
      <trkpt lat="50.96211" lon="4.55799">
        <ele>9</ele>
      </trkpt>
      <trkpt lat="50.96205" lon="4.55789">
        <ele>9</ele>
      </trkpt>
      <trkpt lat="50.961" lon="4.55693">
        <ele>9</ele>
      </trkpt>
      <trkpt lat="50.96083" lon="4.55681">
        <ele>9</ele>
      </trkpt>
      <trkpt lat="50.9603" lon="4.55655">
        <ele>9</ele>
      </trkpt>
      <trkpt lat="50.95977" lon="4.55608">
        <ele>8</ele>
      </trkpt>
      <trkpt lat="50.95962" lon="4.55609">
        <ele>9</ele>
      </trkpt>
      <trkpt lat="50.95884" lon="4.55652">
        <ele>9</ele>
      </trkpt>
      <trkpt lat="50.95871" lon="4.55652">
        <ele>9</ele>
      </trkpt>
      <trkpt lat="50.95863" lon="4.55648">
        <ele>9</ele>
      </trkpt>
      <trkpt lat="50.95841" lon="4.55624">
        <ele>10</ele>
      </trkpt>
      <trkpt lat="50.95765" lon="4.55532">
        <ele>10</ele>
      </trkpt>
      <trkpt lat="50.95756" lon="4.55518">
        <ele>10</ele>
      </trkpt>
      <trkpt lat="50.95747" lon="4.55511">
        <ele>10</ele>
      </trkpt>
      <trkpt lat="50.95744" lon="4.55512">
        <ele>10</ele>
      </trkpt>
      <trkpt lat="50.95665" lon="4.55544">
        <ele>11</ele>
      </trkpt>
      <trkpt lat="50.95647" lon="4.55554">
        <ele>11</ele>
      </trkpt>
      <trkpt lat="50.9563" lon="4.55576">
        <ele>10</ele>
      </trkpt>
      <trkpt lat="50.9563" lon="4.55575">
        <ele>10</ele>
      </trkpt>
      <trkpt lat="50.95618" lon="4.55595">
        <ele>10</ele>
      </trkpt>
      <trkpt lat="50.95589" lon="4.55699">
        <ele>10</ele>
      </trkpt>
      <trkpt lat="50.95572" lon="4.55747">
        <ele>9</ele>
      </trkpt>
      <trkpt lat="50.95554" lon="4.55787">
        <ele>9</ele>
      </trkpt>
      <trkpt lat="50.95404" lon="4.56065">
        <ele>9</ele>
      </trkpt>
      <trkpt lat="50.95327" lon="4.56139">
        <ele>10</ele>
      </trkpt>
      <trkpt lat="50.95146" lon="4.56298">
        <ele>10</ele>
      </trkpt>
      <trkpt lat="50.95075" lon="4.56349">
        <ele>11</ele>
      </trkpt>
      <trkpt lat="50.94984" lon="4.56395">
        <ele>11</ele>
      </trkpt>
      <trkpt lat="50.94761" lon="4.56474">
        <ele>10</ele>
      </trkpt>
      <trkpt lat="50.94734" lon="4.56478">
        <ele>10</ele>
      </trkpt>
      <trkpt lat="50.94525" lon="4.56471">
        <ele>11</ele>
      </trkpt>
      <trkpt lat="50.94506" lon="4.56465">
        <ele>11</ele>
      </trkpt>
      <trkpt lat="50.94477" lon="4.56446">
        <ele>10</ele>
      </trkpt>
      <trkpt lat="50.9445" lon="4.56436">
        <ele>11</ele>
      </trkpt>
      <trkpt lat="50.94409" lon="4.56438">
        <ele>11</ele>
      </trkpt>
      <trkpt lat="50.94354" lon="4.56444">
        <ele>12</ele>
      </trkpt>
      <trkpt lat="50.9433" lon="4.5644">
        <ele>13</ele>
      </trkpt>
      <trkpt lat="50.94281" lon="4.56436">
        <ele>13</ele>
      </trkpt>
      <trkpt lat="50.94258" lon="4.56441">
        <ele>13</ele>
      </trkpt>
      <trkpt lat="50.94133" lon="4.56448">
        <ele>13</ele>
      </trkpt>
      <trkpt lat="50.9411" lon="4.56444">
        <ele>13</ele>
      </trkpt>
      <trkpt lat="50.94038" lon="4.56411">
        <ele>13</ele>
      </trkpt>
      <trkpt lat="50.93803" lon="4.56375">
        <ele>13</ele>
      </trkpt>
      <trkpt lat="50.9378" lon="4.56376">
        <ele>13</ele>
      </trkpt>
      <trkpt lat="50.93763" lon="4.56379">
        <ele>13</ele>
      </trkpt>
      <trkpt lat="50.93729" lon="4.56393">
        <ele>12</ele>
      </trkpt>
      <trkpt lat="50.93688" lon="4.56422">
        <ele>12</ele>
      </trkpt>
      <trkpt lat="50.93627" lon="4.56478">
        <ele>12</ele>
      </trkpt>
      <trkpt lat="50.93529" lon="4.56576">
        <ele>13</ele>
      </trkpt>
      <trkpt lat="50.93226" lon="4.56877">
        <ele>14</ele>
      </trkpt>
      <trkpt lat="50.93099" lon="4.57037">
        <ele>14</ele>
      </trkpt>
      <trkpt lat="50.93087" lon="4.57046">
        <ele>15</ele>
      </trkpt>
      <trkpt lat="50.93078" lon="4.57047">
        <ele>15</ele>
      </trkpt>
      <trkpt lat="50.93066" lon="4.57045">
        <ele>15</ele>
      </trkpt>
      <trkpt lat="50.9305" lon="4.57037">
        <ele>15</ele>
      </trkpt>
      <trkpt lat="50.93038" lon="4.5702">
        <ele>15</ele>
      </trkpt>
      <trkpt lat="50.92954" lon="4.56862">
        <ele>15</ele>
      </trkpt>
      <trkpt lat="50.92875" lon="4.56709">
        <ele>14</ele>
      </trkpt>
      <trkpt lat="50.92856" lon="4.56679">
        <ele>14</ele>
      </trkpt>
      <trkpt lat="50.92825" lon="4.5664">
        <ele>14</ele>
      </trkpt>
      <trkpt lat="50.92595" lon="4.56486">
        <ele>17</ele>
      </trkpt>
      <trkpt lat="50.92575" lon="4.56475">
        <ele>17</ele>
      </trkpt>
      <trkpt lat="50.92554" lon="4.5647">
        <ele>18</ele>
      </trkpt>
      <trkpt lat="50.9252" lon="4.56471">
        <ele>18</ele>
      </trkpt>
      <trkpt lat="50.92486" lon="4.56487">
        <ele>18</ele>
      </trkpt>
      <trkpt lat="50.92467" lon="4.56504">
        <ele>17</ele>
      </trkpt>
      <trkpt lat="50.92421" lon="4.56574">
        <ele>17</ele>
      </trkpt>
      <trkpt lat="50.92357" lon="4.56679">
        <ele>17</ele>
      </trkpt>
      <trkpt lat="50.92309" lon="4.56607">
        <ele>17</ele>
      </trkpt>
      <trkpt lat="50.92293" lon="4.56569">
        <ele>17</ele>
      </trkpt>
      <trkpt lat="50.92268" lon="4.56438">
        <ele>18</ele>
      </trkpt>
      <trkpt lat="50.92264" lon="4.56428">
        <ele>18</ele>
      </trkpt>
      <trkpt lat="50.92167" lon="4.56246">
        <ele>19</ele>
      </trkpt>
      <trkpt lat="50.92157" lon="4.56236">
        <ele>19</ele>
      </trkpt>
      <trkpt lat="50.92139" lon="4.56225">
        <ele>19</ele>
      </trkpt>
      <trkpt lat="50.9213" lon="4.56226">
        <ele>19</ele>
      </trkpt>
      <trkpt lat="50.92125" lon="4.56229">
        <ele>20</ele>
      </trkpt>
      <trkpt lat="50.92043" lon="4.56329">
        <ele>21</ele>
      </trkpt>
      <trkpt lat="50.92043" lon="4.56328">
        <ele>21</ele>
      </trkpt>
      <trkpt lat="50.9197" lon="4.5641">
        <ele>22</ele>
      </trkpt>
      <trkpt lat="50.9193" lon="4.56435">
        <ele>23</ele>
      </trkpt>
      <trkpt lat="50.91908" lon="4.56434">
        <ele>24</ele>
      </trkpt>
      <trkpt lat="50.91908" lon="4.56439">
        <ele>24</ele>
      </trkpt>
      <trkpt lat="50.9191" lon="4.56441">
        <ele>24</ele>
      </trkpt>
      <trkpt lat="50.91908" lon="4.56439">
        <ele>24</ele>
      </trkpt>
      <trkpt lat="50.91908" lon="4.56434">
        <ele>24</ele>
      </trkpt>
      <trkpt lat="50.91895" lon="4.56426">
        <ele>24</ele>
      </trkpt>
      <trkpt lat="50.91876" lon="4.56398">
        <ele>24</ele>
      </trkpt>
      <trkpt lat="50.91858" lon="4.56305">
        <ele>24</ele>
      </trkpt>
      <trkpt lat="50.91853" lon="4.56304">
        <ele>24</ele>
      </trkpt>
      <trkpt lat="50.91836" lon="4.56303">
        <ele>24</ele>
      </trkpt>
      <trkpt lat="50.91803" lon="4.56307">
        <ele>24</ele>
      </trkpt>
      <trkpt lat="50.91774" lon="4.56321">
        <ele>24</ele>
      </trkpt>
      <trkpt lat="50.91661" lon="4.56403">
        <ele>25</ele>
      </trkpt>
      <trkpt lat="50.91616" lon="4.56428">
        <ele>25</ele>
      </trkpt>
      <trkpt lat="50.916" lon="4.56433">
        <ele>25</ele>
      </trkpt>
      <trkpt lat="50.91572" lon="4.56436">
        <ele>25</ele>
      </trkpt>
      <trkpt lat="50.91543" lon="4.56432">
        <ele>26</ele>
      </trkpt>
      <trkpt lat="50.91366" lon="4.56386">
        <ele>27</ele>
      </trkpt>
      <trkpt lat="50.91255" lon="4.56356">
        <ele>28</ele>
      </trkpt>
      <trkpt lat="50.91152" lon="4.56332">
        <ele>27</ele>
      </trkpt>
      <trkpt lat="50.91119" lon="4.56338">
        <ele>27</ele>
      </trkpt>
      <trkpt lat="50.91083" lon="4.56358">
        <ele>27</ele>
      </trkpt>
      <trkpt lat="50.90995" lon="4.56435">
        <ele>27</ele>
      </trkpt>
      <trkpt lat="50.90861" lon="4.56546">
        <ele>27</ele>
      </trkpt>
      <trkpt lat="50.90839" lon="4.56543">
        <ele>27</ele>
      </trkpt>
      <trkpt lat="50.9082" lon="4.56534">
        <ele>28</ele>
      </trkpt>
      <trkpt lat="50.90651" lon="4.56297">
        <ele>29</ele>
      </trkpt>
      <trkpt lat="50.90551" lon="4.5615">
        <ele>32</ele>
      </trkpt>
      <trkpt lat="50.90543" lon="4.56132">
        <ele>32</ele>
      </trkpt>
      <trkpt lat="50.90515" lon="4.56057">
        <ele>34</ele>
      </trkpt>
      <trkpt lat="50.90466" lon="4.55907">
        <ele>35</ele>
      </trkpt>
      <trkpt lat="50.90442" lon="4.55815">
        <ele>36</ele>
      </trkpt>
      <trkpt lat="50.90437" lon="4.55799">
        <ele>36</ele>
      </trkpt>
      <trkpt lat="50.90398" lon="4.55708">
        <ele>37</ele>
      </trkpt>
      <trkpt lat="50.90368" lon="4.55614">
        <ele>37</ele>
      </trkpt>
      <trkpt lat="50.90338" lon="4.55512">
        <ele>37</ele>
      </trkpt>
      <trkpt lat="50.90287" lon="4.55359">
        <ele>38</ele>
      </trkpt>
      <trkpt lat="50.90276" lon="4.55344">
        <ele>39</ele>
      </trkpt>
      <trkpt lat="50.9019" lon="4.55115">
        <ele>39</ele>
      </trkpt>
      <trkpt lat="50.90169" lon="4.55053">
        <ele>39</ele>
      </trkpt>
      <trkpt lat="50.90072" lon="4.54823">
        <ele>41</ele>
      </trkpt>
      <trkpt lat="50.90037" lon="4.54762">
        <ele>41</ele>
      </trkpt>
      <trkpt lat="50.89996" lon="4.54715">
        <ele>41</ele>
      </trkpt>
      <trkpt lat="50.8993" lon="4.54644">
        <ele>41</ele>
      </trkpt>
      <trkpt lat="50.89919" lon="4.54636">
        <ele>41</ele>
      </trkpt>
      <trkpt lat="50.89909" lon="4.54632">
        <ele>41</ele>
      </trkpt>
      <trkpt lat="50.899" lon="4.54631">
        <ele>41</ele>
      </trkpt>
      <trkpt lat="50.89879" lon="4.54636">
        <ele>41</ele>
      </trkpt>
      <trkpt lat="50.8987" lon="4.54644">
        <ele>41</ele>
      </trkpt>
      <trkpt lat="50.89853" lon="4.54668">
        <ele>40</ele>
      </trkpt>
      <trkpt lat="50.89828" lon="4.54617">
        <ele>41</ele>
      </trkpt>
      <trkpt lat="50.89786" lon="4.54534">
        <ele>41</ele>
      </trkpt>
      <trkpt lat="50.89753" lon="4.54486">
        <ele>41</ele>
      </trkpt>
      <trkpt lat="50.89751" lon="4.54483">
        <ele>41</ele>
      </trkpt>
      <trkpt lat="50.89666" lon="4.54372">
        <ele>42</ele>
      </trkpt>
      <trkpt lat="50.8963" lon="4.54318">
        <ele>43</ele>
      </trkpt>
      <trkpt lat="50.89378" lon="4.53895">
        <ele>45</ele>
      </trkpt>
      <trkpt lat="50.89364" lon="4.53871">
        <ele>45</ele>
      </trkpt>
      <trkpt lat="50.8936" lon="4.53862">
        <ele>45</ele>
      </trkpt>
      <trkpt lat="50.89352" lon="4.53866">
        <ele>45</ele>
      </trkpt>
      <trkpt lat="50.89347" lon="4.53863">
        <ele>45</ele>
      </trkpt>
      <trkpt lat="50.89344" lon="4.53855">
        <ele>45</ele>
      </trkpt>
      <trkpt lat="50.89327" lon="4.53848">
        <ele>45</ele>
      </trkpt>
      <trkpt lat="50.89302" lon="4.53842">
        <ele>45</ele>
      </trkpt>
      <trkpt lat="50.89284" lon="4.53843">
        <ele>45</ele>
      </trkpt>
      <trkpt lat="50.8927" lon="4.53848">
        <ele>45</ele>
      </trkpt>
      <trkpt lat="50.89254" lon="4.53863">
        <ele>44</ele>
      </trkpt>
      <trkpt lat="50.89246" lon="4.53876">
        <ele>44</ele>
      </trkpt>
      <trkpt lat="50.89235" lon="4.53909">
        <ele>44</ele>
      </trkpt>
      <trkpt lat="50.89233" lon="4.53923">
        <ele>44</ele>
      </trkpt>
      <trkpt lat="50.89233" lon="4.53951">
        <ele>44</ele>
      </trkpt>
      <trkpt lat="50.89245" lon="4.54032">
        <ele>44</ele>
      </trkpt>
      <trkpt lat="50.89242" lon="4.54036">
        <ele>44</ele>
      </trkpt>
      <trkpt lat="50.89245" lon="4.54048">
        <ele>44</ele>
      </trkpt>
      <trkpt lat="50.89249" lon="4.54097">
        <ele>44</ele>
      </trkpt>
      <trkpt lat="50.89256" lon="4.54172">
        <ele>44</ele>
      </trkpt>
      <trkpt lat="50.89254" lon="4.54205">
        <ele>44</ele>
      </trkpt>
      <trkpt lat="50.8925" lon="4.54209">
        <ele>44</ele>
      </trkpt>
      <trkpt lat="50.89232" lon="4.54218">
        <ele>44</ele>
      </trkpt>
      <trkpt lat="50.89099" lon="4.5428">
        <ele>44</ele>
      </trkpt>
      <trkpt lat="50.88889" lon="4.54378">
        <ele>47</ele>
      </trkpt>
      <trkpt lat="50.88844" lon="4.54404">
        <ele>47</ele>
      </trkpt>
      <trkpt lat="50.88839" lon="4.54409">
        <ele>47</ele>
      </trkpt>
      <trkpt lat="50.88837" lon="4.54401">
        <ele>47</ele>
      </trkpt>
      <trkpt lat="50.88793" lon="4.5442">
        <ele>47</ele>
      </trkpt>
      <trkpt lat="50.88559" lon="4.54535">
        <ele>44</ele>
      </trkpt>
      <trkpt lat="50.88536" lon="4.5454">
        <ele>44</ele>
      </trkpt>
      <trkpt lat="50.88495" lon="4.54523">
        <ele>44</ele>
      </trkpt>
      <trkpt lat="50.88432" lon="4.54511">
        <ele>43</ele>
      </trkpt>
      <trkpt lat="50.88392" lon="4.54492">
        <ele>43</ele>
      </trkpt>
      <trkpt lat="50.88349" lon="4.54458">
        <ele>43</ele>
      </trkpt>
      <trkpt lat="50.88337" lon="4.54454">
        <ele>44</ele>
      </trkpt>
      <trkpt lat="50.88261" lon="4.54456">
        <ele>45</ele>
      </trkpt>
      <trkpt lat="50.8825" lon="4.54454">
        <ele>45</ele>
      </trkpt>
      <trkpt lat="50.88242" lon="4.54449">
        <ele>45</ele>
      </trkpt>
      <trkpt lat="50.88235" lon="4.5444">
        <ele>45</ele>
      </trkpt>
      <trkpt lat="50.8822" lon="4.54393">
        <ele>45</ele>
      </trkpt>
      <trkpt lat="50.88212" lon="4.54384">
        <ele>45</ele>
      </trkpt>
      <trkpt lat="50.88204" lon="4.54379">
        <ele>45</ele>
      </trkpt>
      <trkpt lat="50.88149" lon="4.54371">
        <ele>46</ele>
      </trkpt>
      <trkpt lat="50.88131" lon="4.54362">
        <ele>47</ele>
      </trkpt>
      <trkpt lat="50.88123" lon="4.54354">
        <ele>47</ele>
      </trkpt>
      <trkpt lat="50.8809" lon="4.54313">
        <ele>49</ele>
      </trkpt>
      <trkpt lat="50.87989" lon="4.54205">
        <ele>50</ele>
      </trkpt>
      <trkpt lat="50.8792" lon="4.54065">
        <ele>48</ele>
      </trkpt>
      <trkpt lat="50.8791" lon="4.5406">
        <ele>48</ele>
      </trkpt>
      <trkpt lat="50.87866" lon="4.54062">
        <ele>49</ele>
      </trkpt>
      <trkpt lat="50.87818" lon="4.5407">
        <ele>53</ele>
      </trkpt>
      <trkpt lat="50.87753" lon="4.54064">
        <ele>55</ele>
      </trkpt>
      <trkpt lat="50.87728" lon="4.54066">
        <ele>55</ele>
      </trkpt>
      <trkpt lat="50.87644" lon="4.54087">
        <ele>59</ele>
      </trkpt>
      <trkpt lat="50.87628" lon="4.54072">
        <ele>57</ele>
      </trkpt>
      <trkpt lat="50.87627" lon="4.54076">
        <ele>59</ele>
      </trkpt>
      <trkpt lat="50.87605" lon="4.54126">
        <ele>59</ele>
      </trkpt>
      <trkpt lat="50.87598" lon="4.54159">
        <ele>60</ele>
      </trkpt>
      <trkpt lat="50.87594" lon="4.54184">
        <ele>62</ele>
      </trkpt>
      <trkpt lat="50.87593" lon="4.5421">
        <ele>62</ele>
      </trkpt>
      <trkpt lat="50.87595" lon="4.54242">
        <ele>62</ele>
      </trkpt>
      <trkpt lat="50.87604" lon="4.54284">
        <ele>63</ele>
      </trkpt>
      <trkpt lat="50.8763" lon="4.54378">
        <ele>62</ele>
      </trkpt>
      <trkpt lat="50.87632" lon="4.54377">
        <ele>62</ele>
      </trkpt>
      <trkpt lat="50.87637" lon="4.54381">
        <ele>62</ele>
      </trkpt>
      <trkpt lat="50.87644" lon="4.54395">
        <ele>62</ele>
      </trkpt>
      <trkpt lat="50.87645" lon="4.544">
        <ele>62</ele>
      </trkpt>
      <trkpt lat="50.87722" lon="4.54561">
        <ele>60</ele>
      </trkpt>
      <trkpt lat="50.87759" lon="4.54667">
        <ele>59</ele>
      </trkpt>
      <trkpt lat="50.87783" lon="4.54728">
        <ele>65</ele>
      </trkpt>
      <trkpt lat="50.87805" lon="4.54777">
        <ele>61</ele>
      </trkpt>
      <trkpt lat="50.87825" lon="4.5483">
        <ele>60</ele>
      </trkpt>
      <trkpt lat="50.87847" lon="4.54906">
        <ele>60</ele>
      </trkpt>
      <trkpt lat="50.87859" lon="4.54962">
        <ele>62</ele>
      </trkpt>
      <trkpt lat="50.87875" lon="4.55058">
        <ele>57</ele>
      </trkpt>
      <trkpt lat="50.87883" lon="4.55116">
        <ele>54</ele>
      </trkpt>
    </trkseg>
  </trk>
</gpx>