<?xml version='1.0' encoding='UTF-8'?>
<gpx xmlns="http://www.topografix.com/GPX/1/1" xmlns:xsi="http://www.w3.org/2001/XMLSchema-instance" creator="RouteYou" version="1.1" xsi:schemaLocation="http://www.topografix.com/GPX/1/1 http://www.topografix.com/GPX/1/1/gpx.xsd">
  <trk>
    <name>Tisselt 2025</name>
    <desc />
    <trkseg>
      <trkpt lat="50.8789" lon="4.55175">
        <ele>48</ele>
      </trkpt>
      <trkpt lat="50.87926" lon="4.5547">
        <ele>48</ele>
      </trkpt>
      <trkpt lat="50.87933" lon="4.55516">
        <ele>49</ele>
      </trkpt>
      <trkpt lat="50.87985" lon="4.55718">
        <ele>52</ele>
      </trkpt>
      <trkpt lat="50.88046" lon="4.5608">
        <ele>49</ele>
      </trkpt>
      <trkpt lat="50.88051" lon="4.56157">
        <ele>49</ele>
      </trkpt>
      <trkpt lat="50.88048" lon="4.56195">
        <ele>48</ele>
      </trkpt>
      <trkpt lat="50.88021" lon="4.56336">
        <ele>46</ele>
      </trkpt>
      <trkpt lat="50.88009" lon="4.56401">
        <ele>44</ele>
      </trkpt>
      <trkpt lat="50.88006" lon="4.56426">
        <ele>44</ele>
      </trkpt>
      <trkpt lat="50.88009" lon="4.56619">
        <ele>43</ele>
      </trkpt>
      <trkpt lat="50.88016" lon="4.56621">
        <ele>43</ele>
      </trkpt>
      <trkpt lat="50.8802" lon="4.56633">
        <ele>43</ele>
      </trkpt>
      <trkpt lat="50.88018" lon="4.56641">
        <ele>43</ele>
      </trkpt>
      <trkpt lat="50.88012" lon="4.56647">
        <ele>43</ele>
      </trkpt>
      <trkpt lat="50.88013" lon="4.5667">
        <ele>42</ele>
      </trkpt>
      <trkpt lat="50.88012" lon="4.56689">
        <ele>42</ele>
      </trkpt>
      <trkpt lat="50.8802" lon="4.56788">
        <ele>42</ele>
      </trkpt>
      <trkpt lat="50.88014" lon="4.56811">
        <ele>42</ele>
      </trkpt>
      <trkpt lat="50.87948" lon="4.56914">
        <ele>43</ele>
      </trkpt>
      <trkpt lat="50.87938" lon="4.56931">
        <ele>44</ele>
      </trkpt>
      <trkpt lat="50.87914" lon="4.56977">
        <ele>44</ele>
      </trkpt>
      <trkpt lat="50.87911" lon="4.56987">
        <ele>44</ele>
      </trkpt>
      <trkpt lat="50.8792" lon="4.57044">
        <ele>45</ele>
      </trkpt>
      <trkpt lat="50.87919" lon="4.57056">
        <ele>45</ele>
      </trkpt>
      <trkpt lat="50.87899" lon="4.57089">
        <ele>45</ele>
      </trkpt>
      <trkpt lat="50.87882" lon="4.57121">
        <ele>45</ele>
      </trkpt>
      <trkpt lat="50.87922" lon="4.57197">
        <ele>44</ele>
      </trkpt>
      <trkpt lat="50.8794" lon="4.57243">
        <ele>44</ele>
      </trkpt>
      <trkpt lat="50.8799" lon="4.57392">
        <ele>42</ele>
      </trkpt>
      <trkpt lat="50.88015" lon="4.57443">
        <ele>42</ele>
      </trkpt>
      <trkpt lat="50.88092" lon="4.57579">
        <ele>40</ele>
      </trkpt>
      <trkpt lat="50.88131" lon="4.57656">
        <ele>40</ele>
      </trkpt>
      <trkpt lat="50.88162" lon="4.57722">
        <ele>39</ele>
      </trkpt>
      <trkpt lat="50.88195" lon="4.57805">
        <ele>39</ele>
      </trkpt>
      <trkpt lat="50.88228" lon="4.57907">
        <ele>38</ele>
      </trkpt>
      <trkpt lat="50.88309" lon="4.58195">
        <ele>37</ele>
      </trkpt>
      <trkpt lat="50.88345" lon="4.58133">
        <ele>36</ele>
      </trkpt>
      <trkpt lat="50.88389" lon="4.58071">
        <ele>36</ele>
      </trkpt>
      <trkpt lat="50.8843" lon="4.58023">
        <ele>35</ele>
      </trkpt>
      <trkpt lat="50.88539" lon="4.57909">
        <ele>34</ele>
      </trkpt>
      <trkpt lat="50.88625" lon="4.57824">
        <ele>34</ele>
      </trkpt>
      <trkpt lat="50.88683" lon="4.57761">
        <ele>33</ele>
      </trkpt>
      <trkpt lat="50.88719" lon="4.57719">
        <ele>33</ele>
      </trkpt>
      <trkpt lat="50.88743" lon="4.5768">
        <ele>33</ele>
      </trkpt>
      <trkpt lat="50.88757" lon="4.57651">
        <ele>33</ele>
      </trkpt>
      <trkpt lat="50.88812" lon="4.57508">
        <ele>34</ele>
      </trkpt>
      <trkpt lat="50.8883" lon="4.57476">
        <ele>34</ele>
      </trkpt>
      <trkpt lat="50.88868" lon="4.57423">
        <ele>35</ele>
      </trkpt>
      <trkpt lat="50.89021" lon="4.57268">
        <ele>36</ele>
      </trkpt>
      <trkpt lat="50.8905" lon="4.57229">
        <ele>36</ele>
      </trkpt>
      <trkpt lat="50.89088" lon="4.57167">
        <ele>36</ele>
      </trkpt>
      <trkpt lat="50.89093" lon="4.57154">
        <ele>36</ele>
      </trkpt>
      <trkpt lat="50.89102" lon="4.57116">
        <ele>36</ele>
      </trkpt>
      <trkpt lat="50.89106" lon="4.57089">
        <ele>36</ele>
      </trkpt>
      <trkpt lat="50.89112" lon="4.57073">
        <ele>36</ele>
      </trkpt>
      <trkpt lat="50.8913" lon="4.57043">
        <ele>36</ele>
      </trkpt>
      <trkpt lat="50.89138" lon="4.57017">
        <ele>36</ele>
      </trkpt>
      <trkpt lat="50.89139" lon="4.57004">
        <ele>36</ele>
      </trkpt>
      <trkpt lat="50.89157" lon="4.56998">
        <ele>36</ele>
      </trkpt>
      <trkpt lat="50.89158" lon="4.57006">
        <ele>36</ele>
      </trkpt>
      <trkpt lat="50.8916" lon="4.57011">
        <ele>36</ele>
      </trkpt>
      <trkpt lat="50.89167" lon="4.57015">
        <ele>36</ele>
      </trkpt>
      <trkpt lat="50.89172" lon="4.57022">
        <ele>36</ele>
      </trkpt>
      <trkpt lat="50.89179" lon="4.57023">
        <ele>36</ele>
      </trkpt>
      <trkpt lat="50.89192" lon="4.57015">
        <ele>36</ele>
      </trkpt>
      <trkpt lat="50.89265" lon="4.56915">
        <ele>35</ele>
      </trkpt>
      <trkpt lat="50.89299" lon="4.56873">
        <ele>35</ele>
      </trkpt>
      <trkpt lat="50.89385" lon="4.56778">
        <ele>38</ele>
      </trkpt>
      <trkpt lat="50.89474" lon="4.56666">
        <ele>44</ele>
      </trkpt>
      <trkpt lat="50.89504" lon="4.56638">
        <ele>42</ele>
      </trkpt>
      <trkpt lat="50.89516" lon="4.56629">
        <ele>44</ele>
      </trkpt>
      <trkpt lat="50.8961" lon="4.56542">
        <ele>36</ele>
      </trkpt>
      <trkpt lat="50.89624" lon="4.56534">
        <ele>36</ele>
      </trkpt>
      <trkpt lat="50.89716" lon="4.5644">
        <ele>37</ele>
      </trkpt>
      <trkpt lat="50.90068" lon="4.56066">
        <ele>34</ele>
      </trkpt>
      <trkpt lat="50.90087" lon="4.56125">
        <ele>36</ele>
      </trkpt>
      <trkpt lat="50.90138" lon="4.56217">
        <ele>36</ele>
      </trkpt>
      <trkpt lat="50.90169" lon="4.56283">
        <ele>35</ele>
      </trkpt>
      <trkpt lat="50.90316" lon="4.566">
        <ele>33</ele>
      </trkpt>
      <trkpt lat="50.90398" lon="4.56765">
        <ele>34</ele>
      </trkpt>
      <trkpt lat="50.90455" lon="4.56894">
        <ele>32</ele>
      </trkpt>
      <trkpt lat="50.90457" lon="4.569">
        <ele>32</ele>
      </trkpt>
      <trkpt lat="50.90473" lon="4.56917">
        <ele>32</ele>
      </trkpt>
      <trkpt lat="50.90495" lon="4.56963">
        <ele>31</ele>
      </trkpt>
      <trkpt lat="50.90503" lon="4.56975">
        <ele>31</ele>
      </trkpt>
      <trkpt lat="50.90545" lon="4.5693">
        <ele>31</ele>
      </trkpt>
      <trkpt lat="50.90561" lon="4.56905">
        <ele>31</ele>
      </trkpt>
      <trkpt lat="50.90633" lon="4.56782">
        <ele>27</ele>
      </trkpt>
      <trkpt lat="50.90672" lon="4.56708">
        <ele>26</ele>
      </trkpt>
      <trkpt lat="50.9072" lon="4.5663">
        <ele>26</ele>
      </trkpt>
      <trkpt lat="50.90788" lon="4.5652">
        <ele>27</ele>
      </trkpt>
      <trkpt lat="50.90801" lon="4.56511">
        <ele>27</ele>
      </trkpt>
      <trkpt lat="50.90838" lon="4.56537">
        <ele>27</ele>
      </trkpt>
      <trkpt lat="50.90854" lon="4.56539">
        <ele>27</ele>
      </trkpt>
      <trkpt lat="50.90867" lon="4.56536">
        <ele>27</ele>
      </trkpt>
      <trkpt lat="50.90874" lon="4.56532">
        <ele>27</ele>
      </trkpt>
      <trkpt lat="50.91071" lon="4.56359">
        <ele>28</ele>
      </trkpt>
      <trkpt lat="50.91088" lon="4.56348">
        <ele>28</ele>
      </trkpt>
      <trkpt lat="50.91108" lon="4.56337">
        <ele>28</ele>
      </trkpt>
      <trkpt lat="50.91138" lon="4.56328">
        <ele>28</ele>
      </trkpt>
      <trkpt lat="50.91155" lon="4.56327">
        <ele>28</ele>
      </trkpt>
      <trkpt lat="50.91191" lon="4.56333">
        <ele>28</ele>
      </trkpt>
      <trkpt lat="50.91466" lon="4.56406">
        <ele>27</ele>
      </trkpt>
      <trkpt lat="50.91493" lon="4.56413">
        <ele>26</ele>
      </trkpt>
      <trkpt lat="50.91504" lon="4.56413">
        <ele>26</ele>
      </trkpt>
      <trkpt lat="50.91528" lon="4.5642">
        <ele>26</ele>
      </trkpt>
      <trkpt lat="50.91532" lon="4.56421">
        <ele>26</ele>
      </trkpt>
      <trkpt lat="50.91543" lon="4.56432">
        <ele>26</ele>
      </trkpt>
      <trkpt lat="50.91575" lon="4.56434">
        <ele>25</ele>
      </trkpt>
      <trkpt lat="50.91608" lon="4.5643">
        <ele>25</ele>
      </trkpt>
      <trkpt lat="50.9164" lon="4.56416">
        <ele>25</ele>
      </trkpt>
      <trkpt lat="50.91661" lon="4.56403">
        <ele>25</ele>
      </trkpt>
      <trkpt lat="50.91738" lon="4.56346">
        <ele>24</ele>
      </trkpt>
      <trkpt lat="50.91786" lon="4.56314">
        <ele>24</ele>
      </trkpt>
      <trkpt lat="50.91811" lon="4.56305">
        <ele>24</ele>
      </trkpt>
      <trkpt lat="50.91837" lon="4.56303">
        <ele>24</ele>
      </trkpt>
      <trkpt lat="50.91858" lon="4.56305">
        <ele>24</ele>
      </trkpt>
      <trkpt lat="50.91869" lon="4.56301">
        <ele>23</ele>
      </trkpt>
      <trkpt lat="50.91934" lon="4.56254">
        <ele>23</ele>
      </trkpt>
      <trkpt lat="50.91987" lon="4.56206">
        <ele>22</ele>
      </trkpt>
      <trkpt lat="50.91992" lon="4.56197">
        <ele>22</ele>
      </trkpt>
      <trkpt lat="50.91999" lon="4.56156">
        <ele>21</ele>
      </trkpt>
      <trkpt lat="50.92006" lon="4.56136">
        <ele>21</ele>
      </trkpt>
      <trkpt lat="50.92034" lon="4.56095">
        <ele>20</ele>
      </trkpt>
      <trkpt lat="50.92043" lon="4.5608">
        <ele>20</ele>
      </trkpt>
      <trkpt lat="50.92052" lon="4.56057">
        <ele>20</ele>
      </trkpt>
      <trkpt lat="50.92043" lon="4.56031">
        <ele>20</ele>
      </trkpt>
      <trkpt lat="50.92022" lon="4.55994">
        <ele>20</ele>
      </trkpt>
      <trkpt lat="50.92" lon="4.55964">
        <ele>20</ele>
      </trkpt>
      <trkpt lat="50.92015" lon="4.55893">
        <ele>21</ele>
      </trkpt>
      <trkpt lat="50.92023" lon="4.55861">
        <ele>21</ele>
      </trkpt>
      <trkpt lat="50.92029" lon="4.55835">
        <ele>21</ele>
      </trkpt>
      <trkpt lat="50.92057" lon="4.55744">
        <ele>22</ele>
      </trkpt>
      <trkpt lat="50.92191" lon="4.55366">
        <ele>24</ele>
      </trkpt>
      <trkpt lat="50.92208" lon="4.55325">
        <ele>24</ele>
      </trkpt>
      <trkpt lat="50.92204" lon="4.55318">
        <ele>24</ele>
      </trkpt>
      <trkpt lat="50.92204" lon="4.5531">
        <ele>24</ele>
      </trkpt>
      <trkpt lat="50.92208" lon="4.55303">
        <ele>23</ele>
      </trkpt>
      <trkpt lat="50.92211" lon="4.55302">
        <ele>23</ele>
      </trkpt>
      <trkpt lat="50.92203" lon="4.55284">
        <ele>24</ele>
      </trkpt>
      <trkpt lat="50.92199" lon="4.55264">
        <ele>24</ele>
      </trkpt>
      <trkpt lat="50.92199" lon="4.55216">
        <ele>23</ele>
      </trkpt>
      <trkpt lat="50.92217" lon="4.55047">
        <ele>23</ele>
      </trkpt>
      <trkpt lat="50.92219" lon="4.55016">
        <ele>23</ele>
      </trkpt>
      <trkpt lat="50.92219" lon="4.54961">
        <ele>22</ele>
      </trkpt>
      <trkpt lat="50.9222" lon="4.549">
        <ele>22</ele>
      </trkpt>
      <trkpt lat="50.92223" lon="4.54867">
        <ele>22</ele>
      </trkpt>
      <trkpt lat="50.92234" lon="4.54809">
        <ele>21</ele>
      </trkpt>
      <trkpt lat="50.92341" lon="4.54814">
        <ele>19</ele>
      </trkpt>
      <trkpt lat="50.92407" lon="4.54809">
        <ele>18</ele>
      </trkpt>
      <trkpt lat="50.92432" lon="4.54822">
        <ele>18</ele>
      </trkpt>
      <trkpt lat="50.92454" lon="4.5485">
        <ele>17</ele>
      </trkpt>
      <trkpt lat="50.92484" lon="4.54932">
        <ele>17</ele>
      </trkpt>
      <trkpt lat="50.9253" lon="4.5499">
        <ele>18</ele>
      </trkpt>
      <trkpt lat="50.92556" lon="4.55004">
        <ele>19</ele>
      </trkpt>
      <trkpt lat="50.92582" lon="4.55009">
        <ele>20</ele>
      </trkpt>
      <trkpt lat="50.92755" lon="4.55031">
        <ele>20</ele>
      </trkpt>
      <trkpt lat="50.92778" lon="4.55027">
        <ele>18</ele>
      </trkpt>
      <trkpt lat="50.92803" lon="4.55017">
        <ele>17</ele>
      </trkpt>
      <trkpt lat="50.92825" lon="4.55">
        <ele>17</ele>
      </trkpt>
      <trkpt lat="50.92848" lon="4.54975">
        <ele>17</ele>
      </trkpt>
      <trkpt lat="50.92875" lon="4.54939">
        <ele>16</ele>
      </trkpt>
      <trkpt lat="50.92934" lon="4.54861">
        <ele>16</ele>
      </trkpt>
      <trkpt lat="50.92972" lon="4.54818">
        <ele>16</ele>
      </trkpt>
      <trkpt lat="50.9298" lon="4.54801">
        <ele>16</ele>
      </trkpt>
      <trkpt lat="50.92985" lon="4.54786">
        <ele>16</ele>
      </trkpt>
      <trkpt lat="50.93018" lon="4.54637">
        <ele>16</ele>
      </trkpt>
      <trkpt lat="50.93035" lon="4.54559">
        <ele>17</ele>
      </trkpt>
      <trkpt lat="50.93037" lon="4.54533">
        <ele>17</ele>
      </trkpt>
      <trkpt lat="50.93037" lon="4.54507">
        <ele>18</ele>
      </trkpt>
      <trkpt lat="50.93031" lon="4.5445">
        <ele>19</ele>
      </trkpt>
      <trkpt lat="50.9303" lon="4.54427">
        <ele>19</ele>
      </trkpt>
      <trkpt lat="50.93033" lon="4.54374">
        <ele>19</ele>
      </trkpt>
      <trkpt lat="50.9304" lon="4.54326">
        <ele>20</ele>
      </trkpt>
      <trkpt lat="50.93077" lon="4.54187">
        <ele>20</ele>
      </trkpt>
      <trkpt lat="50.93083" lon="4.54157">
        <ele>20</ele>
      </trkpt>
      <trkpt lat="50.93087" lon="4.54129">
        <ele>20</ele>
      </trkpt>
      <trkpt lat="50.93086" lon="4.54081">
        <ele>20</ele>
      </trkpt>
      <trkpt lat="50.93081" lon="4.54013">
        <ele>19</ele>
      </trkpt>
      <trkpt lat="50.93096" lon="4.53942">
        <ele>18</ele>
      </trkpt>
      <trkpt lat="50.93109" lon="4.539">
        <ele>17</ele>
      </trkpt>
      <trkpt lat="50.93127" lon="4.53853">
        <ele>17</ele>
      </trkpt>
      <trkpt lat="50.93157" lon="4.53777">
        <ele>16</ele>
      </trkpt>
      <trkpt lat="50.93192" lon="4.53726">
        <ele>15</ele>
      </trkpt>
      <trkpt lat="50.93215" lon="4.53698">
        <ele>16</ele>
      </trkpt>
      <trkpt lat="50.93248" lon="4.53798">
        <ele>16</ele>
      </trkpt>
      <trkpt lat="50.93249" lon="4.53794">
        <ele>16</ele>
      </trkpt>
      <trkpt lat="50.93248" lon="4.53795">
        <ele>16</ele>
      </trkpt>
      <trkpt lat="50.93286" lon="4.5391">
        <ele>16</ele>
      </trkpt>
      <trkpt lat="50.9335" lon="4.53885">
        <ele>14</ele>
      </trkpt>
      <trkpt lat="50.93457" lon="4.53846">
        <ele>14</ele>
      </trkpt>
      <trkpt lat="50.93491" lon="4.53843">
        <ele>14</ele>
      </trkpt>
      <trkpt lat="50.93524" lon="4.53847">
        <ele>14</ele>
      </trkpt>
      <trkpt lat="50.93583" lon="4.53845">
        <ele>14</ele>
      </trkpt>
      <trkpt lat="50.93625" lon="4.53835">
        <ele>13</ele>
      </trkpt>
      <trkpt lat="50.93772" lon="4.53769">
        <ele>13</ele>
      </trkpt>
      <trkpt lat="50.9382" lon="4.53741">
        <ele>13</ele>
      </trkpt>
      <trkpt lat="50.93869" lon="4.53708">
        <ele>13</ele>
      </trkpt>
      <trkpt lat="50.93942" lon="4.5365">
        <ele>12</ele>
      </trkpt>
      <trkpt lat="50.94003" lon="4.5359">
        <ele>12</ele>
      </trkpt>
      <trkpt lat="50.9417" lon="4.53395">
        <ele>11</ele>
      </trkpt>
      <trkpt lat="50.9421" lon="4.53358">
        <ele>11</ele>
      </trkpt>
      <trkpt lat="50.94213" lon="4.53349">
        <ele>11</ele>
      </trkpt>
      <trkpt lat="50.94209" lon="4.53119">
        <ele>12</ele>
      </trkpt>
      <trkpt lat="50.94211" lon="4.53046">
        <ele>12</ele>
      </trkpt>
      <trkpt lat="50.94215" lon="4.52994">
        <ele>12</ele>
      </trkpt>
      <trkpt lat="50.94222" lon="4.5293">
        <ele>12</ele>
      </trkpt>
      <trkpt lat="50.94225" lon="4.52908">
        <ele>12</ele>
      </trkpt>
      <trkpt lat="50.94242" lon="4.52825">
        <ele>12</ele>
      </trkpt>
      <trkpt lat="50.94269" lon="4.52733">
        <ele>12</ele>
      </trkpt>
      <trkpt lat="50.94324" lon="4.5259">
        <ele>11</ele>
      </trkpt>
      <trkpt lat="50.94333" lon="4.52566">
        <ele>11</ele>
      </trkpt>
      <trkpt lat="50.9434" lon="4.52541">
        <ele>11</ele>
      </trkpt>
      <trkpt lat="50.94347" lon="4.52501">
        <ele>10</ele>
      </trkpt>
      <trkpt lat="50.9435" lon="4.52477">
        <ele>10</ele>
      </trkpt>
      <trkpt lat="50.9435" lon="4.52422">
        <ele>10</ele>
      </trkpt>
      <trkpt lat="50.94341" lon="4.52324">
        <ele>12</ele>
      </trkpt>
      <trkpt lat="50.94333" lon="4.52237">
        <ele>14</ele>
      </trkpt>
      <trkpt lat="50.94333" lon="4.5217">
        <ele>14</ele>
      </trkpt>
      <trkpt lat="50.9434" lon="4.52107">
        <ele>15</ele>
      </trkpt>
      <trkpt lat="50.9437" lon="4.51886">
        <ele>16</ele>
      </trkpt>
      <trkpt lat="50.94388" lon="4.51592">
        <ele>11</ele>
      </trkpt>
      <trkpt lat="50.94386" lon="4.51532">
        <ele>10</ele>
      </trkpt>
      <trkpt lat="50.94382" lon="4.51496">
        <ele>10</ele>
      </trkpt>
      <trkpt lat="50.94294" lon="4.51145">
        <ele>10</ele>
      </trkpt>
      <trkpt lat="50.94288" lon="4.51125">
        <ele>10</ele>
      </trkpt>
      <trkpt lat="50.94213" lon="4.5098">
        <ele>11</ele>
      </trkpt>
      <trkpt lat="50.94089" lon="4.50748">
        <ele>11</ele>
      </trkpt>
      <trkpt lat="50.94079" lon="4.50735">
        <ele>11</ele>
      </trkpt>
      <trkpt lat="50.94063" lon="4.50719">
        <ele>11</ele>
      </trkpt>
      <trkpt lat="50.94077" lon="4.50698">
        <ele>11</ele>
      </trkpt>
      <trkpt lat="50.94152" lon="4.50634">
        <ele>10</ele>
      </trkpt>
      <trkpt lat="50.94152" lon="4.50633">
        <ele>10</ele>
      </trkpt>
      <trkpt lat="50.94343" lon="4.50472">
        <ele>14</ele>
      </trkpt>
      <trkpt lat="50.94476" lon="4.50358">
        <ele>18</ele>
      </trkpt>
      <trkpt lat="50.94511" lon="4.50331">
        <ele>18</ele>
      </trkpt>
      <trkpt lat="50.94538" lon="4.5032">
        <ele>17</ele>
      </trkpt>
      <trkpt lat="50.9455" lon="4.50318">
        <ele>17</ele>
      </trkpt>
      <trkpt lat="50.94652" lon="4.50343">
        <ele>13</ele>
      </trkpt>
      <trkpt lat="50.94689" lon="4.50337">
        <ele>11</ele>
      </trkpt>
      <trkpt lat="50.94711" lon="4.50329">
        <ele>10</ele>
      </trkpt>
      <trkpt lat="50.94792" lon="4.50282">
        <ele>9</ele>
      </trkpt>
      <trkpt lat="50.94805" lon="4.50281">
        <ele>9</ele>
      </trkpt>
      <trkpt lat="50.95074" lon="4.50283">
        <ele>10</ele>
      </trkpt>
      <trkpt lat="50.95118" lon="4.50274">
        <ele>10</ele>
      </trkpt>
      <trkpt lat="50.95133" lon="4.50268">
        <ele>10</ele>
      </trkpt>
      <trkpt lat="50.95149" lon="4.50255">
        <ele>10</ele>
      </trkpt>
      <trkpt lat="50.95256" lon="4.50117">
        <ele>8</ele>
      </trkpt>
      <trkpt lat="50.95271" lon="4.50095">
        <ele>8</ele>
      </trkpt>
      <trkpt lat="50.95307" lon="4.50024">
        <ele>8</ele>
      </trkpt>
      <trkpt lat="50.95319" lon="4.49983">
        <ele>9</ele>
      </trkpt>
      <trkpt lat="50.95334" lon="4.49907">
        <ele>8</ele>
      </trkpt>
      <trkpt lat="50.95384" lon="4.49659">
        <ele>7</ele>
      </trkpt>
      <trkpt lat="50.95391" lon="4.49662">
        <ele>7</ele>
      </trkpt>
      <trkpt lat="50.95717" lon="4.49757">
        <ele>7</ele>
      </trkpt>
      <trkpt lat="50.95808" lon="4.49783">
        <ele>7</ele>
      </trkpt>
      <trkpt lat="50.95813" lon="4.49777">
        <ele>7</ele>
      </trkpt>
      <trkpt lat="50.95829" lon="4.49778">
        <ele>6</ele>
      </trkpt>
      <trkpt lat="50.95848" lon="4.49775">
        <ele>6</ele>
      </trkpt>
      <trkpt lat="50.95935" lon="4.49747">
        <ele>8</ele>
      </trkpt>
      <trkpt lat="50.9598" lon="4.49725">
        <ele>8</ele>
      </trkpt>
      <trkpt lat="50.9601" lon="4.4971">
        <ele>9</ele>
      </trkpt>
      <trkpt lat="50.9605" lon="4.49668">
        <ele>8</ele>
      </trkpt>
      <trkpt lat="50.9608" lon="4.49645">
        <ele>8</ele>
      </trkpt>
      <trkpt lat="50.96103" lon="4.4963">
        <ele>8</ele>
      </trkpt>
      <trkpt lat="50.96171" lon="4.49593">
        <ele>7</ele>
      </trkpt>
      <trkpt lat="50.96186" lon="4.49585">
        <ele>7</ele>
      </trkpt>
      <trkpt lat="50.96197" lon="4.49577">
        <ele>7</ele>
      </trkpt>
      <trkpt lat="50.96229" lon="4.49457">
        <ele>6</ele>
      </trkpt>
      <trkpt lat="50.96239" lon="4.49425">
        <ele>6</ele>
      </trkpt>
      <trkpt lat="50.96302" lon="4.49295">
        <ele>7</ele>
      </trkpt>
      <trkpt lat="50.96303" lon="4.49292">
        <ele>7</ele>
      </trkpt>
      <trkpt lat="50.96308" lon="4.49297">
        <ele>7</ele>
      </trkpt>
      <trkpt lat="50.96325" lon="4.49263">
        <ele>8</ele>
      </trkpt>
      <trkpt lat="50.96322" lon="4.49259">
        <ele>8</ele>
      </trkpt>
      <trkpt lat="50.96511" lon="4.48883">
        <ele>7</ele>
      </trkpt>
      <trkpt lat="50.96526" lon="4.48844">
        <ele>6</ele>
      </trkpt>
      <trkpt lat="50.96531" lon="4.48825">
        <ele>6</ele>
      </trkpt>
      <trkpt lat="50.96535" lon="4.48803">
        <ele>6</ele>
      </trkpt>
      <trkpt lat="50.96535" lon="4.48771">
        <ele>6</ele>
      </trkpt>
      <trkpt lat="50.96548" lon="4.48769">
        <ele>6</ele>
      </trkpt>
      <trkpt lat="50.96551" lon="4.48778">
        <ele>6</ele>
      </trkpt>
      <trkpt lat="50.96559" lon="4.48781">
        <ele>6</ele>
      </trkpt>
      <trkpt lat="50.96562" lon="4.4878">
        <ele>6</ele>
      </trkpt>
      <trkpt lat="50.96572" lon="4.48769">
        <ele>6</ele>
      </trkpt>
      <trkpt lat="50.96616" lon="4.48682">
        <ele>6</ele>
      </trkpt>
      <trkpt lat="50.96934" lon="4.48051">
        <ele>6</ele>
      </trkpt>
      <trkpt lat="50.96945" lon="4.48021">
        <ele>6</ele>
      </trkpt>
      <trkpt lat="50.96955" lon="4.47986">
        <ele>7</ele>
      </trkpt>
      <trkpt lat="50.96958" lon="4.47968">
        <ele>7</ele>
      </trkpt>
      <trkpt lat="50.96966" lon="4.47881">
        <ele>7</ele>
      </trkpt>
      <trkpt lat="50.96963" lon="4.4787">
        <ele>7</ele>
      </trkpt>
      <trkpt lat="50.96964" lon="4.47858">
        <ele>7</ele>
      </trkpt>
      <trkpt lat="50.96972" lon="4.47725">
        <ele>8</ele>
      </trkpt>
      <trkpt lat="50.9698" lon="4.47683">
        <ele>8</ele>
      </trkpt>
      <trkpt lat="50.96988" lon="4.47661">
        <ele>8</ele>
      </trkpt>
      <trkpt lat="50.96995" lon="4.47646">
        <ele>8</ele>
      </trkpt>
      <trkpt lat="50.97003" lon="4.47633">
        <ele>8</ele>
      </trkpt>
      <trkpt lat="50.97017" lon="4.47617">
        <ele>9</ele>
      </trkpt>
      <trkpt lat="50.97058" lon="4.47568">
        <ele>9</ele>
      </trkpt>
      <trkpt lat="50.97088" lon="4.47537">
        <ele>9</ele>
      </trkpt>
      <trkpt lat="50.97111" lon="4.47517">
        <ele>9</ele>
      </trkpt>
      <trkpt lat="50.97132" lon="4.47504">
        <ele>9</ele>
      </trkpt>
      <trkpt lat="50.97153" lon="4.47496">
        <ele>9</ele>
      </trkpt>
      <trkpt lat="50.9719" lon="4.4749">
        <ele>9</ele>
      </trkpt>
      <trkpt lat="50.97232" lon="4.47486">
        <ele>8</ele>
      </trkpt>
      <trkpt lat="50.97247" lon="4.47475">
        <ele>8</ele>
      </trkpt>
      <trkpt lat="50.97263" lon="4.47454">
        <ele>8</ele>
      </trkpt>
      <trkpt lat="50.97282" lon="4.47426">
        <ele>8</ele>
      </trkpt>
      <trkpt lat="50.97289" lon="4.47417">
        <ele>8</ele>
      </trkpt>
      <trkpt lat="50.97299" lon="4.47397">
        <ele>8</ele>
      </trkpt>
      <trkpt lat="50.97306" lon="4.47376">
        <ele>8</ele>
      </trkpt>
      <trkpt lat="50.97314" lon="4.47335">
        <ele>8</ele>
      </trkpt>
      <trkpt lat="50.97327" lon="4.4721">
        <ele>8</ele>
      </trkpt>
      <trkpt lat="50.97336" lon="4.47138">
        <ele>9</ele>
      </trkpt>
      <trkpt lat="50.97348" lon="4.47089">
        <ele>9</ele>
      </trkpt>
      <trkpt lat="50.97364" lon="4.47041">
        <ele>10</ele>
      </trkpt>
      <trkpt lat="50.97412" lon="4.46901">
        <ele>10</ele>
      </trkpt>
      <trkpt lat="50.97424" lon="4.46865">
        <ele>10</ele>
      </trkpt>
      <trkpt lat="50.97425" lon="4.46853">
        <ele>10</ele>
      </trkpt>
      <trkpt lat="50.97437" lon="4.46812">
        <ele>8</ele>
      </trkpt>
      <trkpt lat="50.97443" lon="4.46791">
        <ele>8</ele>
      </trkpt>
      <trkpt lat="50.9745" lon="4.46775">
        <ele>8</ele>
      </trkpt>
      <trkpt lat="50.97459" lon="4.46742">
        <ele>8</ele>
      </trkpt>
      <trkpt lat="50.97464" lon="4.46714">
        <ele>7</ele>
      </trkpt>
      <trkpt lat="50.97473" lon="4.46719">
        <ele>7</ele>
      </trkpt>
      <trkpt lat="50.97466" lon="4.46745">
        <ele>8</ele>
      </trkpt>
      <trkpt lat="50.97517" lon="4.4677">
        <ele>7</ele>
      </trkpt>
      <trkpt lat="50.9757" lon="4.46798">
        <ele>7</ele>
      </trkpt>
      <trkpt lat="50.97626" lon="4.46838">
        <ele>8</ele>
      </trkpt>
      <trkpt lat="50.97644" lon="4.46856">
        <ele>8</ele>
      </trkpt>
      <trkpt lat="50.97811" lon="4.4706">
        <ele>9</ele>
      </trkpt>
      <trkpt lat="50.97873" lon="4.47105">
        <ele>9</ele>
      </trkpt>
      <trkpt lat="50.97889" lon="4.47111">
        <ele>9</ele>
      </trkpt>
      <trkpt lat="50.97908" lon="4.47111">
        <ele>9</ele>
      </trkpt>
      <trkpt lat="50.97998" lon="4.47073">
        <ele>8</ele>
      </trkpt>
      <trkpt lat="50.98025" lon="4.47071">
        <ele>7</ele>
      </trkpt>
      <trkpt lat="50.9803" lon="4.47073">
        <ele>7</ele>
      </trkpt>
      <trkpt lat="50.98038" lon="4.47085">
        <ele>7</ele>
      </trkpt>
      <trkpt lat="50.98045" lon="4.47074">
        <ele>7</ele>
      </trkpt>
      <trkpt lat="50.98127" lon="4.46959">
        <ele>7</ele>
      </trkpt>
      <trkpt lat="50.98133" lon="4.46946">
        <ele>7</ele>
      </trkpt>
      <trkpt lat="50.98267" lon="4.46762">
        <ele>9</ele>
      </trkpt>
      <trkpt lat="50.98398" lon="4.46577">
        <ele>11</ele>
      </trkpt>
      <trkpt lat="50.98419" lon="4.46557">
        <ele>11</ele>
      </trkpt>
      <trkpt lat="50.98479" lon="4.46519">
        <ele>10</ele>
      </trkpt>
      <trkpt lat="50.9851" lon="4.46487">
        <ele>11</ele>
      </trkpt>
      <trkpt lat="50.9854" lon="4.46443">
        <ele>9</ele>
      </trkpt>
      <trkpt lat="50.98549" lon="4.46425">
        <ele>9</ele>
      </trkpt>
      <trkpt lat="50.98562" lon="4.46382">
        <ele>10</ele>
      </trkpt>
      <trkpt lat="50.98569" lon="4.46311">
        <ele>11</ele>
      </trkpt>
      <trkpt lat="50.98574" lon="4.46277">
        <ele>11</ele>
      </trkpt>
      <trkpt lat="50.98577" lon="4.46261">
        <ele>11</ele>
      </trkpt>
      <trkpt lat="50.98582" lon="4.46246">
        <ele>11</ele>
      </trkpt>
      <trkpt lat="50.98674" lon="4.46032">
        <ele>12</ele>
      </trkpt>
      <trkpt lat="50.98718" lon="4.4592">
        <ele>12</ele>
      </trkpt>
      <trkpt lat="50.98732" lon="4.45891">
        <ele>12</ele>
      </trkpt>
      <trkpt lat="50.98779" lon="4.45802">
        <ele>11</ele>
      </trkpt>
      <trkpt lat="50.98797" lon="4.45774">
        <ele>11</ele>
      </trkpt>
      <trkpt lat="50.98846" lon="4.45715">
        <ele>11</ele>
      </trkpt>
      <trkpt lat="50.98864" lon="4.45682">
        <ele>10</ele>
      </trkpt>
      <trkpt lat="50.98878" lon="4.45645">
        <ele>9</ele>
      </trkpt>
      <trkpt lat="50.98897" lon="4.45606">
        <ele>9</ele>
      </trkpt>
      <trkpt lat="50.98935" lon="4.45552">
        <ele>8</ele>
      </trkpt>
      <trkpt lat="50.98947" lon="4.45536">
        <ele>8</ele>
      </trkpt>
      <trkpt lat="50.98991" lon="4.45486">
        <ele>7</ele>
      </trkpt>
      <trkpt lat="50.99092" lon="4.45398">
        <ele>7</ele>
      </trkpt>
      <trkpt lat="50.99143" lon="4.45349">
        <ele>7</ele>
      </trkpt>
      <trkpt lat="50.99162" lon="4.45331">
        <ele>8</ele>
      </trkpt>
      <trkpt lat="50.99191" lon="4.4529">
        <ele>8</ele>
      </trkpt>
      <trkpt lat="50.99222" lon="4.4525">
        <ele>8</ele>
      </trkpt>
      <trkpt lat="50.99353" lon="4.45098">
        <ele>9</ele>
      </trkpt>
      <trkpt lat="50.9964" lon="4.44798">
        <ele>10</ele>
      </trkpt>
      <trkpt lat="50.99693" lon="4.4475">
        <ele>10</ele>
      </trkpt>
      <trkpt lat="50.9973" lon="4.44727">
        <ele>10</ele>
      </trkpt>
      <trkpt lat="50.99772" lon="4.4471">
        <ele>10</ele>
      </trkpt>
      <trkpt lat="50.99822" lon="4.44694">
        <ele>11</ele>
      </trkpt>
      <trkpt lat="50.99851" lon="4.44678">
        <ele>10</ele>
      </trkpt>
      <trkpt lat="50.99908" lon="4.44635">
        <ele>8</ele>
      </trkpt>
      <trkpt lat="50.99957" lon="4.44603">
        <ele>7</ele>
      </trkpt>
      <trkpt lat="50.99994" lon="4.44588">
        <ele>7</ele>
      </trkpt>
      <trkpt lat="51.00098" lon="4.44557">
        <ele>7</ele>
      </trkpt>
      <trkpt lat="51.00134" lon="4.44535">
        <ele>6</ele>
      </trkpt>
      <trkpt lat="51.00156" lon="4.44512">
        <ele>6</ele>
      </trkpt>
      <trkpt lat="51.00207" lon="4.44436">
        <ele>6</ele>
      </trkpt>
      <trkpt lat="51.003" lon="4.4429">
        <ele>8</ele>
      </trkpt>
      <trkpt lat="51.00374" lon="4.44173">
        <ele>9</ele>
      </trkpt>
      <trkpt lat="51.00401" lon="4.44135">
        <ele>10</ele>
      </trkpt>
      <trkpt lat="51.00422" lon="4.44113">
        <ele>10</ele>
      </trkpt>
      <trkpt lat="51.00434" lon="4.44102">
        <ele>9</ele>
      </trkpt>
      <trkpt lat="51.00444" lon="4.44096">
        <ele>9</ele>
      </trkpt>
      <trkpt lat="51.00539" lon="4.44062">
        <ele>8</ele>
      </trkpt>
      <trkpt lat="51.00583" lon="4.44046">
        <ele>7</ele>
      </trkpt>
      <trkpt lat="51.00637" lon="4.44015">
        <ele>6</ele>
      </trkpt>
      <trkpt lat="51.00665" lon="4.4399">
        <ele>7</ele>
      </trkpt>
      <trkpt lat="51.00727" lon="4.4393">
        <ele>7</ele>
      </trkpt>
      <trkpt lat="51.00751" lon="4.43912">
        <ele>7</ele>
      </trkpt>
      <trkpt lat="51.00765" lon="4.43903">
        <ele>7</ele>
      </trkpt>
      <trkpt lat="51.00797" lon="4.43899">
        <ele>7</ele>
      </trkpt>
      <trkpt lat="51.00816" lon="4.43902">
        <ele>7</ele>
      </trkpt>
      <trkpt lat="51.00826" lon="4.43907">
        <ele>7</ele>
      </trkpt>
      <trkpt lat="51.00844" lon="4.43922">
        <ele>7</ele>
      </trkpt>
      <trkpt lat="51.00912" lon="4.43997">
        <ele>8</ele>
      </trkpt>
      <trkpt lat="51.00947" lon="4.4403">
        <ele>8</ele>
      </trkpt>
      <trkpt lat="51.00988" lon="4.44052">
        <ele>9</ele>
      </trkpt>
      <trkpt lat="51.01027" lon="4.44062">
        <ele>9</ele>
      </trkpt>
      <trkpt lat="51.01149" lon="4.44068">
        <ele>8</ele>
      </trkpt>
      <trkpt lat="51.01232" lon="4.44082">
        <ele>9</ele>
      </trkpt>
      <trkpt lat="51.01276" lon="4.44092">
        <ele>9</ele>
      </trkpt>
      <trkpt lat="51.01276" lon="4.44012">
        <ele>9</ele>
      </trkpt>
      <trkpt lat="51.01277" lon="4.43814">
        <ele>8</ele>
      </trkpt>
      <trkpt lat="51.01276" lon="4.43514">
        <ele>6</ele>
      </trkpt>
      <trkpt lat="51.01274" lon="4.43462">
        <ele>6</ele>
      </trkpt>
      <trkpt lat="51.01254" lon="4.43328">
        <ele>6</ele>
      </trkpt>
      <trkpt lat="51.01242" lon="4.43283">
        <ele>6</ele>
      </trkpt>
      <trkpt lat="51.01227" lon="4.43244">
        <ele>6</ele>
      </trkpt>
      <trkpt lat="51.01219" lon="4.43228">
        <ele>6</ele>
      </trkpt>
      <trkpt lat="51.01202" lon="4.43198">
        <ele>6</ele>
      </trkpt>
      <trkpt lat="51.01144" lon="4.43116">
        <ele>7</ele>
      </trkpt>
      <trkpt lat="51.01115" lon="4.43078">
        <ele>7</ele>
      </trkpt>
      <trkpt lat="51.01099" lon="4.43053">
        <ele>7</ele>
      </trkpt>
      <trkpt lat="51.01083" lon="4.43024">
        <ele>7</ele>
      </trkpt>
      <trkpt lat="51.01071" lon="4.42997">
        <ele>7</ele>
      </trkpt>
      <trkpt lat="51.0105" lon="4.42931">
        <ele>7</ele>
      </trkpt>
      <trkpt lat="51.00988" lon="4.42622">
        <ele>8</ele>
      </trkpt>
      <trkpt lat="51.00974" lon="4.42553">
        <ele>8</ele>
      </trkpt>
      <trkpt lat="51.0096" lon="4.42499">
        <ele>8</ele>
      </trkpt>
      <trkpt lat="51.00948" lon="4.42462">
        <ele>8</ele>
      </trkpt>
      <trkpt lat="51.00901" lon="4.42366">
        <ele>8</ele>
      </trkpt>
      <trkpt lat="51.0086" lon="4.42282">
        <ele>8</ele>
      </trkpt>
      <trkpt lat="51.00838" lon="4.42226">
        <ele>8</ele>
      </trkpt>
      <trkpt lat="51.00804" lon="4.42075">
        <ele>8</ele>
      </trkpt>
      <trkpt lat="51.00793" lon="4.42019">
        <ele>8</ele>
      </trkpt>
      <trkpt lat="51.00787" lon="4.41964">
        <ele>7</ele>
      </trkpt>
      <trkpt lat="51.00785" lon="4.419">
        <ele>7</ele>
      </trkpt>
      <trkpt lat="51.0079" lon="4.41642">
        <ele>7</ele>
      </trkpt>
      <trkpt lat="51.0078" lon="4.41555">
        <ele>8</ele>
      </trkpt>
      <trkpt lat="51.00778" lon="4.41516">
        <ele>8</ele>
      </trkpt>
      <trkpt lat="51.00781" lon="4.41471">
        <ele>8</ele>
      </trkpt>
      <trkpt lat="51.00914" lon="4.40627">
        <ele>8</ele>
      </trkpt>
      <trkpt lat="51.00932" lon="4.40508">
        <ele>10</ele>
      </trkpt>
      <trkpt lat="51.00935" lon="4.4047">
        <ele>11</ele>
      </trkpt>
      <trkpt lat="51.00936" lon="4.40408">
        <ele>12</ele>
      </trkpt>
      <trkpt lat="51.00931" lon="4.40239">
        <ele>9</ele>
      </trkpt>
      <trkpt lat="51.00899" lon="4.39861">
        <ele>8</ele>
      </trkpt>
      <trkpt lat="51.009" lon="4.39803">
        <ele>8</ele>
      </trkpt>
      <trkpt lat="51.00907" lon="4.39755">
        <ele>8</ele>
      </trkpt>
      <trkpt lat="51.00922" lon="4.39693">
        <ele>8</ele>
      </trkpt>
      <trkpt lat="51.00939" lon="4.39632">
        <ele>8</ele>
      </trkpt>
      <trkpt lat="51.00958" lon="4.39583">
        <ele>7</ele>
      </trkpt>
      <trkpt lat="51.01059" lon="4.394">
        <ele>7</ele>
      </trkpt>
      <trkpt lat="51.01088" lon="4.3933">
        <ele>7</ele>
      </trkpt>
      <trkpt lat="51.01168" lon="4.39114">
        <ele>7</ele>
      </trkpt>
      <trkpt lat="51.01178" lon="4.39072">
        <ele>7</ele>
      </trkpt>
      <trkpt lat="51.0118" lon="4.39036">
        <ele>7</ele>
      </trkpt>
      <trkpt lat="51.01179" lon="4.38965">
        <ele>7</ele>
      </trkpt>
      <trkpt lat="51.0118" lon="4.38957">
        <ele>7</ele>
      </trkpt>
      <trkpt lat="51.01186" lon="4.38946">
        <ele>7</ele>
      </trkpt>
      <trkpt lat="51.01193" lon="4.38941">
        <ele>7</ele>
      </trkpt>
      <trkpt lat="51.01222" lon="4.38934">
        <ele>7</ele>
      </trkpt>
      <trkpt lat="51.01226" lon="4.38927">
        <ele>7</ele>
      </trkpt>
      <trkpt lat="51.01227" lon="4.38918">
        <ele>7</ele>
      </trkpt>
      <trkpt lat="51.01227" lon="4.38897">
        <ele>7</ele>
      </trkpt>
      <trkpt lat="51.01219" lon="4.38838">
        <ele>7</ele>
      </trkpt>
      <trkpt lat="51.01211" lon="4.38762">
        <ele>7</ele>
      </trkpt>
      <trkpt lat="51.01196" lon="4.38407">
        <ele>7</ele>
      </trkpt>
      <trkpt lat="51.01195" lon="4.38272">
        <ele>7</ele>
      </trkpt>
      <trkpt lat="51.0119" lon="4.38126">
        <ele>8</ele>
      </trkpt>
      <trkpt lat="51.01161" lon="4.37282">
        <ele>9</ele>
      </trkpt>
      <trkpt lat="51.01141" lon="4.36786">
        <ele>9</ele>
      </trkpt>
      <trkpt lat="51.01134" lon="4.36697">
        <ele>9</ele>
      </trkpt>
      <trkpt lat="51.01128" lon="4.36572">
        <ele>8</ele>
      </trkpt>
      <trkpt lat="51.01117" lon="4.36327">
        <ele>10</ele>
      </trkpt>
      <trkpt lat="51.01114" lon="4.36209">
        <ele>9</ele>
      </trkpt>
      <trkpt lat="51.01111" lon="4.36112">
        <ele>10</ele>
      </trkpt>
      <trkpt lat="51.01115" lon="4.36054">
        <ele>10</ele>
      </trkpt>
      <trkpt lat="51.01087" lon="4.35432">
        <ele>9</ele>
      </trkpt>
      <trkpt lat="51.011" lon="4.35436">
        <ele>9</ele>
      </trkpt>
      <trkpt lat="51.01183" lon="4.35466">
        <ele>8</ele>
      </trkpt>
      <trkpt lat="51.01235" lon="4.35487">
        <ele>9</ele>
      </trkpt>
      <trkpt lat="51.0126" lon="4.355">
        <ele>9</ele>
      </trkpt>
      <trkpt lat="51.01296" lon="4.35532">
        <ele>10</ele>
      </trkpt>
      <trkpt lat="51.01311" lon="4.3555">
        <ele>10</ele>
      </trkpt>
      <trkpt lat="51.01313" lon="4.35563">
        <ele>10</ele>
      </trkpt>
      <trkpt lat="51.0132" lon="4.35581">
        <ele>9</ele>
      </trkpt>
      <trkpt lat="51.01326" lon="4.3559">
        <ele>9</ele>
      </trkpt>
      <trkpt lat="51.01352" lon="4.35607">
        <ele>9</ele>
      </trkpt>
      <trkpt lat="51.01426" lon="4.35657">
        <ele>8</ele>
      </trkpt>
      <trkpt lat="51.01459" lon="4.35683">
        <ele>7</ele>
      </trkpt>
      <trkpt lat="51.01549" lon="4.35741">
        <ele>7</ele>
      </trkpt>
      <trkpt lat="51.01567" lon="4.35749">
        <ele>8</ele>
      </trkpt>
      <trkpt lat="51.01609" lon="4.35751">
        <ele>8</ele>
      </trkpt>
      <trkpt lat="51.0167" lon="4.35729">
        <ele>9</ele>
      </trkpt>
      <trkpt lat="51.01709" lon="4.35714">
        <ele>9</ele>
      </trkpt>
      <trkpt lat="51.01799" lon="4.35867">
        <ele>9</ele>
      </trkpt>
      <trkpt lat="51.01886" lon="4.35989">
        <ele>9</ele>
      </trkpt>
      <trkpt lat="51.01945" lon="4.36072">
        <ele>9</ele>
      </trkpt>
      <trkpt lat="51.02015" lon="4.36042">
        <ele>9</ele>
      </trkpt>
      <trkpt lat="51.01945" lon="4.36072">
        <ele>9</ele>
      </trkpt>
      <trkpt lat="51.01947" lon="4.36075">
        <ele>8</ele>
      </trkpt>
      <trkpt lat="51.02143" lon="4.35995">
        <ele>12</ele>
      </trkpt>
      <trkpt lat="51.02142" lon="4.35989">
        <ele>13</ele>
      </trkpt>
      <trkpt lat="51.02396" lon="4.35887">
        <ele>11</ele>
      </trkpt>
      <trkpt lat="51.02401" lon="4.35883">
        <ele>11</ele>
      </trkpt>
      <trkpt lat="51.02613" lon="4.35792">
        <ele>7</ele>
      </trkpt>
      <trkpt lat="51.02635" lon="4.35783">
        <ele>7</ele>
      </trkpt>
      <trkpt lat="51.0264" lon="4.35773">
        <ele>7</ele>
      </trkpt>
      <trkpt lat="51.02781" lon="4.35719">
        <ele>8</ele>
      </trkpt>
      <trkpt lat="51.02888" lon="4.35674">
        <ele>9</ele>
      </trkpt>
      <trkpt lat="51.02932" lon="4.35653">
        <ele>9</ele>
      </trkpt>
      <trkpt lat="51.0304" lon="4.3563">
        <ele>6</ele>
      </trkpt>
      <trkpt lat="51.03123" lon="4.35623">
        <ele>6</ele>
      </trkpt>
      <trkpt lat="51.03197" lon="4.35631">
        <ele>6</ele>
      </trkpt>
      <trkpt lat="51.03278" lon="4.35655">
        <ele>6</ele>
      </trkpt>
      <trkpt lat="51.03289" lon="4.35659">
        <ele>6</ele>
      </trkpt>
      <trkpt lat="51.03289" lon="4.35645">
        <ele>6</ele>
      </trkpt>
      <trkpt lat="51.03243" lon="4.35543">
        <ele>6</ele>
      </trkpt>
      <trkpt lat="51.03183" lon="4.35413">
        <ele>6</ele>
      </trkpt>
      <trkpt lat="51.03152" lon="4.35341">
        <ele>5</ele>
      </trkpt>
      <trkpt lat="51.03115" lon="4.35237">
        <ele>4</ele>
      </trkpt>
      <trkpt lat="51.03152" lon="4.35341">
        <ele>5</ele>
      </trkpt>
      <trkpt lat="51.03183" lon="4.35413">
        <ele>6</ele>
      </trkpt>
      <trkpt lat="51.03223" lon="4.35501">
        <ele>6</ele>
      </trkpt>
      <trkpt lat="51.03183" lon="4.35413">
        <ele>6</ele>
      </trkpt>
      <trkpt lat="51.03152" lon="4.35341">
        <ele>5</ele>
      </trkpt>
      <trkpt lat="51.0311" lon="4.35222">
        <ele>4</ele>
      </trkpt>
      <trkpt lat="51.03009" lon="4.34976">
        <ele>5</ele>
      </trkpt>
      <trkpt lat="51.03001" lon="4.34952">
        <ele>5</ele>
      </trkpt>
      <trkpt lat="51.0297" lon="4.34801">
        <ele>5</ele>
      </trkpt>
      <trkpt lat="51.02885" lon="4.34558">
        <ele>5</ele>
      </trkpt>
      <trkpt lat="51.0264" lon="4.33874">
        <ele>4</ele>
      </trkpt>
      <trkpt lat="51.02629" lon="4.33812">
        <ele>5</ele>
      </trkpt>
      <trkpt lat="51.02626" lon="4.33718">
        <ele>6</ele>
      </trkpt>
      <trkpt lat="51.02519" lon="4.33657">
        <ele>7</ele>
      </trkpt>
      <trkpt lat="51.02412" lon="4.336">
        <ele>8</ele>
      </trkpt>
      <trkpt lat="51.02399" lon="4.33596">
        <ele>8</ele>
      </trkpt>
      <trkpt lat="51.02393" lon="4.33598">
        <ele>8</ele>
      </trkpt>
      <trkpt lat="51.02188" lon="4.33755">
        <ele>7</ele>
      </trkpt>
      <trkpt lat="51.02057" lon="4.33797">
        <ele>7</ele>
      </trkpt>
      <trkpt lat="51.0203" lon="4.33797">
        <ele>7</ele>
      </trkpt>
      <trkpt lat="51.02006" lon="4.33787">
        <ele>7</ele>
      </trkpt>
      <trkpt lat="51.01759" lon="4.33609">
        <ele>7</ele>
      </trkpt>
      <trkpt lat="51.01693" lon="4.33535">
        <ele>8</ele>
      </trkpt>
      <trkpt lat="51.01625" lon="4.33499">
        <ele>8</ele>
      </trkpt>
      <trkpt lat="51.01594" lon="4.33486">
        <ele>8</ele>
      </trkpt>
      <trkpt lat="51.01578" lon="4.33475">
        <ele>8</ele>
      </trkpt>
      <trkpt lat="51.01557" lon="4.33471">
        <ele>9</ele>
      </trkpt>
      <trkpt lat="51.01543" lon="4.33478">
        <ele>9</ele>
      </trkpt>
      <trkpt lat="51.01488" lon="4.33522">
        <ele>10</ele>
      </trkpt>
      <trkpt lat="51.01483" lon="4.33498">
        <ele>10</ele>
      </trkpt>
      <trkpt lat="51.01481" lon="4.33445">
        <ele>9</ele>
      </trkpt>
      <trkpt lat="51.01479" lon="4.33428">
        <ele>9</ele>
      </trkpt>
      <trkpt lat="51.0147" lon="4.33408">
        <ele>9</ele>
      </trkpt>
      <trkpt lat="51.01456" lon="4.33392">
        <ele>10</ele>
      </trkpt>
      <trkpt lat="51.01423" lon="4.33382">
        <ele>10</ele>
      </trkpt>
      <trkpt lat="51.01416" lon="4.33376">
        <ele>10</ele>
      </trkpt>
      <trkpt lat="51.014" lon="4.33355">
        <ele>11</ele>
      </trkpt>
      <trkpt lat="51.01372" lon="4.33337">
        <ele>11</ele>
      </trkpt>
      <trkpt lat="51.01348" lon="4.33312">
        <ele>11</ele>
      </trkpt>
      <trkpt lat="51.01318" lon="4.33278">
        <ele>11</ele>
      </trkpt>
      <trkpt lat="51.01267" lon="4.33213">
        <ele>11</ele>
      </trkpt>
      <trkpt lat="51.0122" lon="4.33154">
        <ele>11</ele>
      </trkpt>
      <trkpt lat="51.0119" lon="4.3313">
        <ele>12</ele>
      </trkpt>
      <trkpt lat="51.01166" lon="4.3312">
        <ele>11</ele>
      </trkpt>
      <trkpt lat="51.01096" lon="4.33101">
        <ele>11</ele>
      </trkpt>
      <trkpt lat="51.01027" lon="4.33085">
        <ele>11</ele>
      </trkpt>
      <trkpt lat="51.00982" lon="4.32973">
        <ele>11</ele>
      </trkpt>
      <trkpt lat="51.00968" lon="4.32938">
        <ele>11</ele>
      </trkpt>
      <trkpt lat="51.00962" lon="4.32936">
        <ele>11</ele>
      </trkpt>
      <trkpt lat="51.00937" lon="4.32938">
        <ele>11</ele>
      </trkpt>
      <trkpt lat="51.00896" lon="4.32959">
        <ele>11</ele>
      </trkpt>
      <trkpt lat="51.0088" lon="4.32967">
        <ele>11</ele>
      </trkpt>
      <trkpt lat="51.00872" lon="4.32969">
        <ele>11</ele>
      </trkpt>
      <trkpt lat="51.00865" lon="4.32968">
        <ele>11</ele>
      </trkpt>
      <trkpt lat="51.00857" lon="4.3296">
        <ele>10</ele>
      </trkpt>
      <trkpt lat="51.00848" lon="4.32966">
        <ele>10</ele>
      </trkpt>
      <trkpt lat="51.0084" lon="4.32967">
        <ele>10</ele>
      </trkpt>
      <trkpt lat="51.00825" lon="4.32963">
        <ele>10</ele>
      </trkpt>
      <trkpt lat="51.00814" lon="4.3296">
        <ele>10</ele>
      </trkpt>
      <trkpt lat="51.00786" lon="4.32961">
        <ele>10</ele>
      </trkpt>
      <trkpt lat="51.00765" lon="4.32967">
        <ele>10</ele>
      </trkpt>
      <trkpt lat="51.00747" lon="4.32977">
        <ele>9</ele>
      </trkpt>
      <trkpt lat="51.00736" lon="4.32984">
        <ele>9</ele>
      </trkpt>
      <trkpt lat="51.00689" lon="4.33036">
        <ele>9</ele>
      </trkpt>
      <trkpt lat="51.00676" lon="4.33049">
        <ele>9</ele>
      </trkpt>
      <trkpt lat="51.00651" lon="4.33072">
        <ele>9</ele>
      </trkpt>
      <trkpt lat="51.00614" lon="4.331">
        <ele>9</ele>
      </trkpt>
      <trkpt lat="51.00589" lon="4.33112">
        <ele>9</ele>
      </trkpt>
      <trkpt lat="51.00463" lon="4.33145">
        <ele>9</ele>
      </trkpt>
      <trkpt lat="51.00417" lon="4.3315">
        <ele>9</ele>
      </trkpt>
      <trkpt lat="51.00344" lon="4.3315">
        <ele>9</ele>
      </trkpt>
      <trkpt lat="51.00311" lon="4.33162">
        <ele>9</ele>
      </trkpt>
      <trkpt lat="51.00291" lon="4.33172">
        <ele>9</ele>
      </trkpt>
      <trkpt lat="51.00246" lon="4.33204">
        <ele>9</ele>
      </trkpt>
      <trkpt lat="51.0021" lon="4.33235">
        <ele>9</ele>
      </trkpt>
      <trkpt lat="51.00113" lon="4.33332">
        <ele>9</ele>
      </trkpt>
      <trkpt lat="51.00097" lon="4.33345">
        <ele>9</ele>
      </trkpt>
      <trkpt lat="51.00062" lon="4.33357">
        <ele>9</ele>
      </trkpt>
      <trkpt lat="51.00031" lon="4.33371">
        <ele>9</ele>
      </trkpt>
      <trkpt lat="50.99926" lon="4.33426">
        <ele>10</ele>
      </trkpt>
      <trkpt lat="50.999" lon="4.33444">
        <ele>10</ele>
      </trkpt>
      <trkpt lat="50.99758" lon="4.33567">
        <ele>11</ele>
      </trkpt>
      <trkpt lat="50.99725" lon="4.33605">
        <ele>11</ele>
      </trkpt>
      <trkpt lat="50.99627" lon="4.33742">
        <ele>10</ele>
      </trkpt>
      <trkpt lat="50.99547" lon="4.33866">
        <ele>10</ele>
      </trkpt>
      <trkpt lat="50.99536" lon="4.33877">
        <ele>10</ele>
      </trkpt>
      <trkpt lat="50.99519" lon="4.33896">
        <ele>10</ele>
      </trkpt>
      <trkpt lat="50.99501" lon="4.33911">
        <ele>11</ele>
      </trkpt>
      <trkpt lat="50.99484" lon="4.33922">
        <ele>11</ele>
      </trkpt>
      <trkpt lat="50.9941" lon="4.33955">
        <ele>11</ele>
      </trkpt>
      <trkpt lat="50.99357" lon="4.33992">
        <ele>11</ele>
      </trkpt>
      <trkpt lat="50.99314" lon="4.34025">
        <ele>11</ele>
      </trkpt>
      <trkpt lat="50.99262" lon="4.34065">
        <ele>11</ele>
      </trkpt>
      <trkpt lat="50.99119" lon="4.34162">
        <ele>11</ele>
      </trkpt>
      <trkpt lat="50.99099" lon="4.34178">
        <ele>11</ele>
      </trkpt>
      <trkpt lat="50.99084" lon="4.34195">
        <ele>11</ele>
      </trkpt>
      <trkpt lat="50.98925" lon="4.34342">
        <ele>11</ele>
      </trkpt>
      <trkpt lat="50.98891" lon="4.3437">
        <ele>11</ele>
      </trkpt>
      <trkpt lat="50.98795" lon="4.34442">
        <ele>12</ele>
      </trkpt>
      <trkpt lat="50.98779" lon="4.34452">
        <ele>12</ele>
      </trkpt>
      <trkpt lat="50.98749" lon="4.34463">
        <ele>12</ele>
      </trkpt>
      <trkpt lat="50.98686" lon="4.34476">
        <ele>12</ele>
      </trkpt>
      <trkpt lat="50.98656" lon="4.34485">
        <ele>12</ele>
      </trkpt>
      <trkpt lat="50.98603" lon="4.3451">
        <ele>12</ele>
      </trkpt>
      <trkpt lat="50.98576" lon="4.34528">
        <ele>13</ele>
      </trkpt>
      <trkpt lat="50.98545" lon="4.34553">
        <ele>13</ele>
      </trkpt>
      <trkpt lat="50.98519" lon="4.34578">
        <ele>13</ele>
      </trkpt>
      <trkpt lat="50.98486" lon="4.34614">
        <ele>14</ele>
      </trkpt>
      <trkpt lat="50.98406" lon="4.34729">
        <ele>14</ele>
      </trkpt>
      <trkpt lat="50.98379" lon="4.34764">
        <ele>14</ele>
      </trkpt>
      <trkpt lat="50.98259" lon="4.34898">
        <ele>14</ele>
      </trkpt>
      <trkpt lat="50.98227" lon="4.34924">
        <ele>14</ele>
      </trkpt>
      <trkpt lat="50.98134" lon="4.34986">
        <ele>14</ele>
      </trkpt>
      <trkpt lat="50.98062" lon="4.35036">
        <ele>14</ele>
      </trkpt>
      <trkpt lat="50.98003" lon="4.35085">
        <ele>14</ele>
      </trkpt>
      <trkpt lat="50.97971" lon="4.35113">
        <ele>14</ele>
      </trkpt>
      <trkpt lat="50.9792" lon="4.35172">
        <ele>14</ele>
      </trkpt>
      <trkpt lat="50.97858" lon="4.35236">
        <ele>14</ele>
      </trkpt>
      <trkpt lat="50.97804" lon="4.35314">
        <ele>15</ele>
      </trkpt>
      <trkpt lat="50.97684" lon="4.35509">
        <ele>15</ele>
      </trkpt>
      <trkpt lat="50.97563" lon="4.35706">
        <ele>12</ele>
      </trkpt>
      <trkpt lat="50.97563" lon="4.35707">
        <ele>12</ele>
      </trkpt>
      <trkpt lat="50.97436" lon="4.35909">
        <ele>14</ele>
      </trkpt>
      <trkpt lat="50.97431" lon="4.35923">
        <ele>15</ele>
      </trkpt>
      <trkpt lat="50.97409" lon="4.35957">
        <ele>15</ele>
      </trkpt>
      <trkpt lat="50.97398" lon="4.35973">
        <ele>15</ele>
      </trkpt>
      <trkpt lat="50.97386" lon="4.35981">
        <ele>15</ele>
      </trkpt>
      <trkpt lat="50.97385" lon="4.35994">
        <ele>15</ele>
      </trkpt>
      <trkpt lat="50.97368" lon="4.36034">
        <ele>15</ele>
      </trkpt>
      <trkpt lat="50.97358" lon="4.36067">
        <ele>15</ele>
      </trkpt>
      <trkpt lat="50.97348" lon="4.36103">
        <ele>16</ele>
      </trkpt>
      <trkpt lat="50.97342" lon="4.36134">
        <ele>16</ele>
      </trkpt>
      <trkpt lat="50.97335" lon="4.36209">
        <ele>16</ele>
      </trkpt>
      <trkpt lat="50.97322" lon="4.3651">
        <ele>15</ele>
      </trkpt>
      <trkpt lat="50.97323" lon="4.36533">
        <ele>15</ele>
      </trkpt>
      <trkpt lat="50.97327" lon="4.36535">
        <ele>15</ele>
      </trkpt>
      <trkpt lat="50.9733" lon="4.36543">
        <ele>15</ele>
      </trkpt>
      <trkpt lat="50.97329" lon="4.36552">
        <ele>15</ele>
      </trkpt>
      <trkpt lat="50.97324" lon="4.36558">
        <ele>15</ele>
      </trkpt>
      <trkpt lat="50.97318" lon="4.36555">
        <ele>15</ele>
      </trkpt>
      <trkpt lat="50.97315" lon="4.36548">
        <ele>15</ele>
      </trkpt>
      <trkpt lat="50.97251" lon="4.3656">
        <ele>16</ele>
      </trkpt>
      <trkpt lat="50.97234" lon="4.36563">
        <ele>16</ele>
      </trkpt>
      <trkpt lat="50.97215" lon="4.3657">
        <ele>16</ele>
      </trkpt>
      <trkpt lat="50.97203" lon="4.36579">
        <ele>16</ele>
      </trkpt>
      <trkpt lat="50.97195" lon="4.3659">
        <ele>16</ele>
      </trkpt>
      <trkpt lat="50.97179" lon="4.36617">
        <ele>16</ele>
      </trkpt>
      <trkpt lat="50.97167" lon="4.36629">
        <ele>16</ele>
      </trkpt>
      <trkpt lat="50.97033" lon="4.36741">
        <ele>17</ele>
      </trkpt>
      <trkpt lat="50.97009" lon="4.36757">
        <ele>18</ele>
      </trkpt>
      <trkpt lat="50.96987" lon="4.36768">
        <ele>18</ele>
      </trkpt>
      <trkpt lat="50.96953" lon="4.36778">
        <ele>18</ele>
      </trkpt>
      <trkpt lat="50.96901" lon="4.36784">
        <ele>20</ele>
      </trkpt>
      <trkpt lat="50.96885" lon="4.36789">
        <ele>20</ele>
      </trkpt>
      <trkpt lat="50.96751" lon="4.36857">
        <ele>21</ele>
      </trkpt>
      <trkpt lat="50.96734" lon="4.36862">
        <ele>22</ele>
      </trkpt>
      <trkpt lat="50.96694" lon="4.36858">
        <ele>22</ele>
      </trkpt>
      <trkpt lat="50.9666" lon="4.36864">
        <ele>22</ele>
      </trkpt>
      <trkpt lat="50.96579" lon="4.36911">
        <ele>21</ele>
      </trkpt>
      <trkpt lat="50.96549" lon="4.36934">
        <ele>21</ele>
      </trkpt>
      <trkpt lat="50.96439" lon="4.3703">
        <ele>22</ele>
      </trkpt>
      <trkpt lat="50.96405" lon="4.37054">
        <ele>21</ele>
      </trkpt>
      <trkpt lat="50.96361" lon="4.37072">
        <ele>21</ele>
      </trkpt>
      <trkpt lat="50.96331" lon="4.37087">
        <ele>22</ele>
      </trkpt>
      <trkpt lat="50.9638" lon="4.37175">
        <ele>22</ele>
      </trkpt>
      <trkpt lat="50.96393" lon="4.37198">
        <ele>22</ele>
      </trkpt>
      <trkpt lat="50.96408" lon="4.37233">
        <ele>22</ele>
      </trkpt>
      <trkpt lat="50.96494" lon="4.37455">
        <ele>20</ele>
      </trkpt>
      <trkpt lat="50.96569" lon="4.37658">
        <ele>18</ele>
      </trkpt>
      <trkpt lat="50.96578" lon="4.37672">
        <ele>18</ele>
      </trkpt>
      <trkpt lat="50.96636" lon="4.37693">
        <ele>16</ele>
      </trkpt>
      <trkpt lat="50.96645" lon="4.37694">
        <ele>16</ele>
      </trkpt>
      <trkpt lat="50.96657" lon="4.37706">
        <ele>17</ele>
      </trkpt>
      <trkpt lat="50.96669" lon="4.37723">
        <ele>17</ele>
      </trkpt>
      <trkpt lat="50.96711" lon="4.37827">
        <ele>17</ele>
      </trkpt>
      <trkpt lat="50.96773" lon="4.37989">
        <ele>17</ele>
      </trkpt>
      <trkpt lat="50.96782" lon="4.38002">
        <ele>17</ele>
      </trkpt>
      <trkpt lat="50.96796" lon="4.38036">
        <ele>17</ele>
      </trkpt>
      <trkpt lat="50.96798" lon="4.38048">
        <ele>17</ele>
      </trkpt>
      <trkpt lat="50.9684" lon="4.38135">
        <ele>17</ele>
      </trkpt>
      <trkpt lat="50.96874" lon="4.38184">
        <ele>17</ele>
      </trkpt>
      <trkpt lat="50.96892" lon="4.38204">
        <ele>17</ele>
      </trkpt>
      <trkpt lat="50.96913" lon="4.38223">
        <ele>17</ele>
      </trkpt>
      <trkpt lat="50.96933" lon="4.38251">
        <ele>16</ele>
      </trkpt>
      <trkpt lat="50.96941" lon="4.38252">
        <ele>16</ele>
      </trkpt>
      <trkpt lat="50.9695" lon="4.38258">
        <ele>16</ele>
      </trkpt>
      <trkpt lat="50.97003" lon="4.38307">
        <ele>16</ele>
      </trkpt>
      <trkpt lat="50.97014" lon="4.3832">
        <ele>16</ele>
      </trkpt>
      <trkpt lat="50.97078" lon="4.38411">
        <ele>15</ele>
      </trkpt>
      <trkpt lat="50.97118" lon="4.38455">
        <ele>14</ele>
      </trkpt>
      <trkpt lat="50.97144" lon="4.3848">
        <ele>15</ele>
      </trkpt>
      <trkpt lat="50.97158" lon="4.3849">
        <ele>15</ele>
      </trkpt>
      <trkpt lat="50.97166" lon="4.38495">
        <ele>15</ele>
      </trkpt>
      <trkpt lat="50.97269" lon="4.38552">
        <ele>15</ele>
      </trkpt>
      <trkpt lat="50.97373" lon="4.38616">
        <ele>14</ele>
      </trkpt>
      <trkpt lat="50.97405" lon="4.38646">
        <ele>14</ele>
      </trkpt>
      <trkpt lat="50.9746" lon="4.38711">
        <ele>14</ele>
      </trkpt>
      <trkpt lat="50.97477" lon="4.38728">
        <ele>14</ele>
      </trkpt>
      <trkpt lat="50.97486" lon="4.3874">
        <ele>14</ele>
      </trkpt>
      <trkpt lat="50.97494" lon="4.38755">
        <ele>14</ele>
      </trkpt>
      <trkpt lat="50.97505" lon="4.38764">
        <ele>13</ele>
      </trkpt>
      <trkpt lat="50.97507" lon="4.3877">
        <ele>13</ele>
      </trkpt>
      <trkpt lat="50.97502" lon="4.38771">
        <ele>14</ele>
      </trkpt>
      <trkpt lat="50.97493" lon="4.38766">
        <ele>14</ele>
      </trkpt>
      <trkpt lat="50.97483" lon="4.38771">
        <ele>14</ele>
      </trkpt>
      <trkpt lat="50.97451" lon="4.38822">
        <ele>13</ele>
      </trkpt>
      <trkpt lat="50.97362" lon="4.38966">
        <ele>13</ele>
      </trkpt>
      <trkpt lat="50.97342" lon="4.38995">
        <ele>13</ele>
      </trkpt>
      <trkpt lat="50.97335" lon="4.39002">
        <ele>13</ele>
      </trkpt>
      <trkpt lat="50.97318" lon="4.39008">
        <ele>13</ele>
      </trkpt>
      <trkpt lat="50.97303" lon="4.39019">
        <ele>13</ele>
      </trkpt>
      <trkpt lat="50.96985" lon="4.39274">
        <ele>13</ele>
      </trkpt>
      <trkpt lat="50.96963" lon="4.39286">
        <ele>13</ele>
      </trkpt>
      <trkpt lat="50.96946" lon="4.39291">
        <ele>13</ele>
      </trkpt>
      <trkpt lat="50.96902" lon="4.39286">
        <ele>14</ele>
      </trkpt>
      <trkpt lat="50.96851" lon="4.39277">
        <ele>14</ele>
      </trkpt>
      <trkpt lat="50.96814" lon="4.39262">
        <ele>14</ele>
      </trkpt>
      <trkpt lat="50.96774" lon="4.39242">
        <ele>14</ele>
      </trkpt>
      <trkpt lat="50.9676" lon="4.39238">
        <ele>13</ele>
      </trkpt>
      <trkpt lat="50.96743" lon="4.39239">
        <ele>13</ele>
      </trkpt>
      <trkpt lat="50.96569" lon="4.39285">
        <ele>13</ele>
      </trkpt>
      <trkpt lat="50.9655" lon="4.39285">
        <ele>13</ele>
      </trkpt>
      <trkpt lat="50.96509" lon="4.39297">
        <ele>13</ele>
      </trkpt>
      <trkpt lat="50.96493" lon="4.39303">
        <ele>13</ele>
      </trkpt>
      <trkpt lat="50.96479" lon="4.39311">
        <ele>13</ele>
      </trkpt>
      <trkpt lat="50.96232" lon="4.39373">
        <ele>14</ele>
      </trkpt>
      <trkpt lat="50.96188" lon="4.39387">
        <ele>14</ele>
      </trkpt>
      <trkpt lat="50.96021" lon="4.39477">
        <ele>14</ele>
      </trkpt>
      <trkpt lat="50.96003" lon="4.39481">
        <ele>15</ele>
      </trkpt>
      <trkpt lat="50.95984" lon="4.39476">
        <ele>15</ele>
      </trkpt>
      <trkpt lat="50.9597" lon="4.39467">
        <ele>15</ele>
      </trkpt>
      <trkpt lat="50.95958" lon="4.39451">
        <ele>15</ele>
      </trkpt>
      <trkpt lat="50.9595" lon="4.39437">
        <ele>15</ele>
      </trkpt>
      <trkpt lat="50.95918" lon="4.39364">
        <ele>15</ele>
      </trkpt>
      <trkpt lat="50.95896" lon="4.39317">
        <ele>16</ele>
      </trkpt>
      <trkpt lat="50.95874" lon="4.39282">
        <ele>16</ele>
      </trkpt>
      <trkpt lat="50.95858" lon="4.39265">
        <ele>16</ele>
      </trkpt>
      <trkpt lat="50.95801" lon="4.39237">
        <ele>16</ele>
      </trkpt>
      <trkpt lat="50.9577" lon="4.39226">
        <ele>16</ele>
      </trkpt>
      <trkpt lat="50.95742" lon="4.39223">
        <ele>16</ele>
      </trkpt>
      <trkpt lat="50.95691" lon="4.39234">
        <ele>16</ele>
      </trkpt>
      <trkpt lat="50.95657" lon="4.39246">
        <ele>16</ele>
      </trkpt>
      <trkpt lat="50.95527" lon="4.39324">
        <ele>17</ele>
      </trkpt>
      <trkpt lat="50.9543" lon="4.39375">
        <ele>17</ele>
      </trkpt>
      <trkpt lat="50.9543" lon="4.39388">
        <ele>17</ele>
      </trkpt>
      <trkpt lat="50.95426" lon="4.39396">
        <ele>17</ele>
      </trkpt>
      <trkpt lat="50.95433" lon="4.39427">
        <ele>16</ele>
      </trkpt>
      <trkpt lat="50.95436" lon="4.39471">
        <ele>16</ele>
      </trkpt>
      <trkpt lat="50.95444" lon="4.396">
        <ele>14</ele>
      </trkpt>
      <trkpt lat="50.95446" lon="4.397">
        <ele>14</ele>
      </trkpt>
      <trkpt lat="50.95452" lon="4.39774">
        <ele>14</ele>
      </trkpt>
      <trkpt lat="50.95452" lon="4.39807">
        <ele>14</ele>
      </trkpt>
      <trkpt lat="50.95444" lon="4.39994">
        <ele>14</ele>
      </trkpt>
      <trkpt lat="50.95413" lon="4.40259">
        <ele>14</ele>
      </trkpt>
      <trkpt lat="50.95419" lon="4.40293">
        <ele>14</ele>
      </trkpt>
      <trkpt lat="50.9543" lon="4.40342">
        <ele>14</ele>
      </trkpt>
      <trkpt lat="50.95431" lon="4.40357">
        <ele>14</ele>
      </trkpt>
      <trkpt lat="50.95428" lon="4.40376">
        <ele>14</ele>
      </trkpt>
      <trkpt lat="50.95422" lon="4.40392">
        <ele>14</ele>
      </trkpt>
      <trkpt lat="50.95413" lon="4.40409">
        <ele>14</ele>
      </trkpt>
      <trkpt lat="50.95378" lon="4.40467">
        <ele>14</ele>
      </trkpt>
      <trkpt lat="50.95355" lon="4.405">
        <ele>14</ele>
      </trkpt>
      <trkpt lat="50.95335" lon="4.40529">
        <ele>14</ele>
      </trkpt>
      <trkpt lat="50.95332" lon="4.40539">
        <ele>14</ele>
      </trkpt>
      <trkpt lat="50.95331" lon="4.40554">
        <ele>14</ele>
      </trkpt>
      <trkpt lat="50.95336" lon="4.4058">
        <ele>14</ele>
      </trkpt>
      <trkpt lat="50.95338" lon="4.40592">
        <ele>14</ele>
      </trkpt>
      <trkpt lat="50.95336" lon="4.40605">
        <ele>14</ele>
      </trkpt>
      <trkpt lat="50.9532" lon="4.40631">
        <ele>14</ele>
      </trkpt>
      <trkpt lat="50.95247" lon="4.4068">
        <ele>13</ele>
      </trkpt>
      <trkpt lat="50.95224" lon="4.40706">
        <ele>13</ele>
      </trkpt>
      <trkpt lat="50.95183" lon="4.4077">
        <ele>13</ele>
      </trkpt>
      <trkpt lat="50.95077" lon="4.40894">
        <ele>13</ele>
      </trkpt>
      <trkpt lat="50.9507" lon="4.40906">
        <ele>13</ele>
      </trkpt>
      <trkpt lat="50.95068" lon="4.40917">
        <ele>13</ele>
      </trkpt>
      <trkpt lat="50.95067" lon="4.40932">
        <ele>13</ele>
      </trkpt>
      <trkpt lat="50.95077" lon="4.40987">
        <ele>13</ele>
      </trkpt>
      <trkpt lat="50.95077" lon="4.41024">
        <ele>14</ele>
      </trkpt>
      <trkpt lat="50.95076" lon="4.41044">
        <ele>13</ele>
      </trkpt>
      <trkpt lat="50.95071" lon="4.41057">
        <ele>13</ele>
      </trkpt>
      <trkpt lat="50.94931" lon="4.41168">
        <ele>11</ele>
      </trkpt>
      <trkpt lat="50.94884" lon="4.41206">
        <ele>11</ele>
      </trkpt>
      <trkpt lat="50.94874" lon="4.41202">
        <ele>11</ele>
      </trkpt>
      <trkpt lat="50.94821" lon="4.41244">
        <ele>11</ele>
      </trkpt>
      <trkpt lat="50.94804" lon="4.41244">
        <ele>11</ele>
      </trkpt>
      <trkpt lat="50.94776" lon="4.41265">
        <ele>11</ele>
      </trkpt>
      <trkpt lat="50.94771" lon="4.41267">
        <ele>11</ele>
      </trkpt>
      <trkpt lat="50.94776" lon="4.41285">
        <ele>11</ele>
      </trkpt>
      <trkpt lat="50.94779" lon="4.41309">
        <ele>11</ele>
      </trkpt>
      <trkpt lat="50.94803" lon="4.41396">
        <ele>10</ele>
      </trkpt>
      <trkpt lat="50.94805" lon="4.41433">
        <ele>11</ele>
      </trkpt>
      <trkpt lat="50.94807" lon="4.41448">
        <ele>10</ele>
      </trkpt>
      <trkpt lat="50.94889" lon="4.41606">
        <ele>13</ele>
      </trkpt>
      <trkpt lat="50.94953" lon="4.4173">
        <ele>13</ele>
      </trkpt>
      <trkpt lat="50.94962" lon="4.41757">
        <ele>13</ele>
      </trkpt>
      <trkpt lat="50.94966" lon="4.4181">
        <ele>13</ele>
      </trkpt>
      <trkpt lat="50.9497" lon="4.41835">
        <ele>13</ele>
      </trkpt>
      <trkpt lat="50.9498" lon="4.41864">
        <ele>14</ele>
      </trkpt>
      <trkpt lat="50.94998" lon="4.41896">
        <ele>13</ele>
      </trkpt>
      <trkpt lat="50.9506" lon="4.41967">
        <ele>12</ele>
      </trkpt>
      <trkpt lat="50.95078" lon="4.41998">
        <ele>12</ele>
      </trkpt>
      <trkpt lat="50.95116" lon="4.42076">
        <ele>11</ele>
      </trkpt>
      <trkpt lat="50.9515" lon="4.42157">
        <ele>11</ele>
      </trkpt>
      <trkpt lat="50.95174" lon="4.42209">
        <ele>11</ele>
      </trkpt>
      <trkpt lat="50.95183" lon="4.42235">
        <ele>11</ele>
      </trkpt>
      <trkpt lat="50.9525" lon="4.42409">
        <ele>11</ele>
      </trkpt>
      <trkpt lat="50.95278" lon="4.425">
        <ele>10</ele>
      </trkpt>
      <trkpt lat="50.95288" lon="4.42529">
        <ele>10</ele>
      </trkpt>
      <trkpt lat="50.95355" lon="4.42769">
        <ele>8</ele>
      </trkpt>
      <trkpt lat="50.95497" lon="4.43275">
        <ele>11</ele>
      </trkpt>
      <trkpt lat="50.95579" lon="4.43564">
        <ele>11</ele>
      </trkpt>
      <trkpt lat="50.95593" lon="4.43611">
        <ele>11</ele>
      </trkpt>
      <trkpt lat="50.95603" lon="4.4364">
        <ele>11</ele>
      </trkpt>
      <trkpt lat="50.95623" lon="4.43685">
        <ele>11</ele>
      </trkpt>
      <trkpt lat="50.95686" lon="4.43807">
        <ele>11</ele>
      </trkpt>
      <trkpt lat="50.95743" lon="4.43962">
        <ele>9</ele>
      </trkpt>
      <trkpt lat="50.95751" lon="4.43989">
        <ele>9</ele>
      </trkpt>
      <trkpt lat="50.95758" lon="4.44031">
        <ele>9</ele>
      </trkpt>
      <trkpt lat="50.95774" lon="4.4424">
        <ele>9</ele>
      </trkpt>
      <trkpt lat="50.95788" lon="4.44323">
        <ele>9</ele>
      </trkpt>
      <trkpt lat="50.95801" lon="4.4438">
        <ele>9</ele>
      </trkpt>
      <trkpt lat="50.9581" lon="4.44414">
        <ele>9</ele>
      </trkpt>
      <trkpt lat="50.95833" lon="4.44478">
        <ele>9</ele>
      </trkpt>
      <trkpt lat="50.95904" lon="4.44646">
        <ele>12</ele>
      </trkpt>
      <trkpt lat="50.96011" lon="4.44918">
        <ele>11</ele>
      </trkpt>
      <trkpt lat="50.96043" lon="4.45016">
        <ele>11</ele>
      </trkpt>
      <trkpt lat="50.96047" lon="4.45042">
        <ele>11</ele>
      </trkpt>
      <trkpt lat="50.9615" lon="4.45368">
        <ele>11</ele>
      </trkpt>
      <trkpt lat="50.96191" lon="4.45446">
        <ele>11</ele>
      </trkpt>
      <trkpt lat="50.96194" lon="4.45454">
        <ele>11</ele>
      </trkpt>
      <trkpt lat="50.96196" lon="4.45474">
        <ele>11</ele>
      </trkpt>
      <trkpt lat="50.96191" lon="4.45483">
        <ele>11</ele>
      </trkpt>
      <trkpt lat="50.96175" lon="4.45481">
        <ele>11</ele>
      </trkpt>
      <trkpt lat="50.96162" lon="4.45483">
        <ele>11</ele>
      </trkpt>
      <trkpt lat="50.96149" lon="4.4549">
        <ele>11</ele>
      </trkpt>
      <trkpt lat="50.96138" lon="4.45498">
        <ele>10</ele>
      </trkpt>
      <trkpt lat="50.96047" lon="4.45593">
        <ele>9</ele>
      </trkpt>
      <trkpt lat="50.96036" lon="4.45604">
        <ele>8</ele>
      </trkpt>
      <trkpt lat="50.95988" lon="4.45655">
        <ele>8</ele>
      </trkpt>
      <trkpt lat="50.95979" lon="4.45662">
        <ele>8</ele>
      </trkpt>
      <trkpt lat="50.9597" lon="4.45678">
        <ele>8</ele>
      </trkpt>
      <trkpt lat="50.95968" lon="4.4569">
        <ele>8</ele>
      </trkpt>
      <trkpt lat="50.95972" lon="4.45762">
        <ele>8</ele>
      </trkpt>
      <trkpt lat="50.95978" lon="4.45902">
        <ele>8</ele>
      </trkpt>
      <trkpt lat="50.95974" lon="4.45903">
        <ele>8</ele>
      </trkpt>
      <trkpt lat="50.95962" lon="4.45903">
        <ele>8</ele>
      </trkpt>
      <trkpt lat="50.95884" lon="4.45851">
        <ele>9</ele>
      </trkpt>
      <trkpt lat="50.95873" lon="4.45846">
        <ele>8</ele>
      </trkpt>
      <trkpt lat="50.9585" lon="4.45849">
        <ele>8</ele>
      </trkpt>
      <trkpt lat="50.95834" lon="4.45857">
        <ele>8</ele>
      </trkpt>
      <trkpt lat="50.95712" lon="4.4595">
        <ele>7</ele>
      </trkpt>
      <trkpt lat="50.95582" lon="4.46018">
        <ele>6</ele>
      </trkpt>
      <trkpt lat="50.95562" lon="4.46024">
        <ele>5</ele>
      </trkpt>
      <trkpt lat="50.95522" lon="4.46027">
        <ele>6</ele>
      </trkpt>
      <trkpt lat="50.95456" lon="4.46024">
        <ele>6</ele>
      </trkpt>
      <trkpt lat="50.95366" lon="4.46018">
        <ele>6</ele>
      </trkpt>
      <trkpt lat="50.9519" lon="4.46014">
        <ele>8</ele>
      </trkpt>
      <trkpt lat="50.9516" lon="4.46019">
        <ele>8</ele>
      </trkpt>
      <trkpt lat="50.95136" lon="4.46025">
        <ele>8</ele>
      </trkpt>
      <trkpt lat="50.95044" lon="4.46065">
        <ele>8</ele>
      </trkpt>
      <trkpt lat="50.95016" lon="4.46071">
        <ele>8</ele>
      </trkpt>
      <trkpt lat="50.95004" lon="4.4607">
        <ele>8</ele>
      </trkpt>
      <trkpt lat="50.94995" lon="4.46067">
        <ele>8</ele>
      </trkpt>
      <trkpt lat="50.94988" lon="4.46068">
        <ele>8</ele>
      </trkpt>
      <trkpt lat="50.94953" lon="4.46065">
        <ele>8</ele>
      </trkpt>
      <trkpt lat="50.94904" lon="4.46058">
        <ele>9</ele>
      </trkpt>
      <trkpt lat="50.94904" lon="4.46057">
        <ele>9</ele>
      </trkpt>
      <trkpt lat="50.94893" lon="4.46055">
        <ele>9</ele>
      </trkpt>
      <trkpt lat="50.94884" lon="4.46082">
        <ele>10</ele>
      </trkpt>
      <trkpt lat="50.94913" lon="4.46119">
        <ele>9</ele>
      </trkpt>
      <trkpt lat="50.94923" lon="4.46135">
        <ele>9</ele>
      </trkpt>
      <trkpt lat="50.94937" lon="4.46164">
        <ele>9</ele>
      </trkpt>
      <trkpt lat="50.94961" lon="4.46235">
        <ele>9</ele>
      </trkpt>
      <trkpt lat="50.95005" lon="4.46384">
        <ele>9</ele>
      </trkpt>
      <trkpt lat="50.95011" lon="4.46411">
        <ele>9</ele>
      </trkpt>
      <trkpt lat="50.95039" lon="4.46501">
        <ele>9</ele>
      </trkpt>
      <trkpt lat="50.95083" lon="4.46656">
        <ele>9</ele>
      </trkpt>
      <trkpt lat="50.9509" lon="4.46686">
        <ele>9</ele>
      </trkpt>
      <trkpt lat="50.951" lon="4.46767">
        <ele>9</ele>
      </trkpt>
      <trkpt lat="50.95103" lon="4.46816">
        <ele>9</ele>
      </trkpt>
      <trkpt lat="50.95108" lon="4.46918">
        <ele>9</ele>
      </trkpt>
      <trkpt lat="50.95109" lon="4.46974">
        <ele>9</ele>
      </trkpt>
      <trkpt lat="50.95121" lon="4.47272">
        <ele>8</ele>
      </trkpt>
      <trkpt lat="50.95138" lon="4.47509">
        <ele>8</ele>
      </trkpt>
      <trkpt lat="50.95141" lon="4.47568">
        <ele>8</ele>
      </trkpt>
      <trkpt lat="50.95133" lon="4.47656">
        <ele>8</ele>
      </trkpt>
      <trkpt lat="50.95122" lon="4.47725">
        <ele>7</ele>
      </trkpt>
      <trkpt lat="50.95104" lon="4.4782">
        <ele>8</ele>
      </trkpt>
      <trkpt lat="50.95104" lon="4.47869">
        <ele>8</ele>
      </trkpt>
      <trkpt lat="50.95107" lon="4.479">
        <ele>8</ele>
      </trkpt>
      <trkpt lat="50.95128" lon="4.47994">
        <ele>8</ele>
      </trkpt>
      <trkpt lat="50.9512" lon="4.48">
        <ele>8</ele>
      </trkpt>
      <trkpt lat="50.94969" lon="4.48149">
        <ele>7</ele>
      </trkpt>
      <trkpt lat="50.94891" lon="4.48225">
        <ele>7</ele>
      </trkpt>
      <trkpt lat="50.94817" lon="4.48289">
        <ele>8</ele>
      </trkpt>
      <trkpt lat="50.94807" lon="4.48297">
        <ele>8</ele>
      </trkpt>
      <trkpt lat="50.94801" lon="4.48298">
        <ele>8</ele>
      </trkpt>
      <trkpt lat="50.94551" lon="4.4812">
        <ele>9</ele>
      </trkpt>
      <trkpt lat="50.94488" lon="4.48069">
        <ele>12</ele>
      </trkpt>
      <trkpt lat="50.94294" lon="4.4789">
        <ele>15</ele>
      </trkpt>
      <trkpt lat="50.94266" lon="4.47867">
        <ele>14</ele>
      </trkpt>
      <trkpt lat="50.94111" lon="4.47773">
        <ele>10</ele>
      </trkpt>
      <trkpt lat="50.94085" lon="4.47756">
        <ele>10</ele>
      </trkpt>
      <trkpt lat="50.94034" lon="4.47718">
        <ele>10</ele>
      </trkpt>
      <trkpt lat="50.93988" lon="4.47672">
        <ele>10</ele>
      </trkpt>
      <trkpt lat="50.93845" lon="4.47497">
        <ele>11</ele>
      </trkpt>
      <trkpt lat="50.9382" lon="4.47469">
        <ele>10</ele>
      </trkpt>
      <trkpt lat="50.93765" lon="4.47416">
        <ele>11</ele>
      </trkpt>
      <trkpt lat="50.93713" lon="4.47383">
        <ele>11</ele>
      </trkpt>
      <trkpt lat="50.93704" lon="4.47377">
        <ele>11</ele>
      </trkpt>
      <trkpt lat="50.93491" lon="4.47284">
        <ele>14</ele>
      </trkpt>
      <trkpt lat="50.93466" lon="4.47271">
        <ele>14</ele>
      </trkpt>
      <trkpt lat="50.93441" lon="4.47252">
        <ele>14</ele>
      </trkpt>
      <trkpt lat="50.93406" lon="4.47215">
        <ele>14</ele>
      </trkpt>
      <trkpt lat="50.93373" lon="4.47172">
        <ele>15</ele>
      </trkpt>
      <trkpt lat="50.93271" lon="4.47027">
        <ele>15</ele>
      </trkpt>
      <trkpt lat="50.93195" lon="4.46911">
        <ele>17</ele>
      </trkpt>
      <trkpt lat="50.93113" lon="4.46777">
        <ele>18</ele>
      </trkpt>
      <trkpt lat="50.93082" lon="4.46738">
        <ele>18</ele>
      </trkpt>
      <trkpt lat="50.93053" lon="4.46713">
        <ele>17</ele>
      </trkpt>
      <trkpt lat="50.93064" lon="4.46773">
        <ele>17</ele>
      </trkpt>
      <trkpt lat="50.93065" lon="4.46801">
        <ele>18</ele>
      </trkpt>
      <trkpt lat="50.93063" lon="4.46813">
        <ele>18</ele>
      </trkpt>
      <trkpt lat="50.93058" lon="4.46823">
        <ele>18</ele>
      </trkpt>
      <trkpt lat="50.92963" lon="4.46755">
        <ele>18</ele>
      </trkpt>
      <trkpt lat="50.92949" lon="4.46749">
        <ele>18</ele>
      </trkpt>
      <trkpt lat="50.92879" lon="4.46699">
        <ele>18</ele>
      </trkpt>
      <trkpt lat="50.92867" lon="4.4669">
        <ele>18</ele>
      </trkpt>
      <trkpt lat="50.92674" lon="4.46552">
        <ele>19</ele>
      </trkpt>
      <trkpt lat="50.92616" lon="4.46505">
        <ele>19</ele>
      </trkpt>
      <trkpt lat="50.92588" lon="4.46479">
        <ele>19</ele>
      </trkpt>
      <trkpt lat="50.92559" lon="4.46452">
        <ele>19</ele>
      </trkpt>
      <trkpt lat="50.92525" lon="4.46411">
        <ele>19</ele>
      </trkpt>
      <trkpt lat="50.92487" lon="4.46359">
        <ele>19</ele>
      </trkpt>
      <trkpt lat="50.92457" lon="4.46312">
        <ele>18</ele>
      </trkpt>
      <trkpt lat="50.92427" lon="4.46257">
        <ele>17</ele>
      </trkpt>
      <trkpt lat="50.92399" lon="4.46195">
        <ele>16</ele>
      </trkpt>
      <trkpt lat="50.92366" lon="4.46104">
        <ele>16</ele>
      </trkpt>
      <trkpt lat="50.92341" lon="4.46019">
        <ele>16</ele>
      </trkpt>
      <trkpt lat="50.92306" lon="4.4587">
        <ele>15</ele>
      </trkpt>
      <trkpt lat="50.92265" lon="4.45689">
        <ele>18</ele>
      </trkpt>
      <trkpt lat="50.92226" lon="4.45522">
        <ele>19</ele>
      </trkpt>
      <trkpt lat="50.92202" lon="4.45415">
        <ele>17</ele>
      </trkpt>
      <trkpt lat="50.92181" lon="4.45319">
        <ele>16</ele>
      </trkpt>
      <trkpt lat="50.92178" lon="4.45322">
        <ele>16</ele>
      </trkpt>
      <trkpt lat="50.92167" lon="4.45289">
        <ele>16</ele>
      </trkpt>
      <trkpt lat="50.92157" lon="4.45256">
        <ele>16</ele>
      </trkpt>
      <trkpt lat="50.92106" lon="4.45144">
        <ele>16</ele>
      </trkpt>
      <trkpt lat="50.92093" lon="4.45118">
        <ele>17</ele>
      </trkpt>
      <trkpt lat="50.9208" lon="4.45101">
        <ele>17</ele>
      </trkpt>
      <trkpt lat="50.9206" lon="4.45083">
        <ele>17</ele>
      </trkpt>
      <trkpt lat="50.91984" lon="4.45025">
        <ele>18</ele>
      </trkpt>
      <trkpt lat="50.9197" lon="4.4501">
        <ele>18</ele>
      </trkpt>
      <trkpt lat="50.91944" lon="4.44962">
        <ele>18</ele>
      </trkpt>
      <trkpt lat="50.91866" lon="4.44809">
        <ele>18</ele>
      </trkpt>
      <trkpt lat="50.91848" lon="4.44752">
        <ele>18</ele>
      </trkpt>
      <trkpt lat="50.91809" lon="4.44622">
        <ele>19</ele>
      </trkpt>
      <trkpt lat="50.91801" lon="4.44631">
        <ele>19</ele>
      </trkpt>
      <trkpt lat="50.91761" lon="4.44686">
        <ele>19</ele>
      </trkpt>
      <trkpt lat="50.91722" lon="4.4474">
        <ele>19</ele>
      </trkpt>
      <trkpt lat="50.91661" lon="4.44817">
        <ele>21</ele>
      </trkpt>
      <trkpt lat="50.91654" lon="4.44822">
        <ele>21</ele>
      </trkpt>
      <trkpt lat="50.91641" lon="4.44816">
        <ele>21</ele>
      </trkpt>
      <trkpt lat="50.91599" lon="4.44787">
        <ele>21</ele>
      </trkpt>
      <trkpt lat="50.91501" lon="4.44716">
        <ele>23</ele>
      </trkpt>
      <trkpt lat="50.91419" lon="4.4466">
        <ele>23</ele>
      </trkpt>
      <trkpt lat="50.91256" lon="4.44546">
        <ele>26</ele>
      </trkpt>
      <trkpt lat="50.91222" lon="4.44519">
        <ele>26</ele>
      </trkpt>
      <trkpt lat="50.91195" lon="4.44493">
        <ele>27</ele>
      </trkpt>
      <trkpt lat="50.91162" lon="4.44478">
        <ele>28</ele>
      </trkpt>
      <trkpt lat="50.91138" lon="4.4447">
        <ele>29</ele>
      </trkpt>
      <trkpt lat="50.91105" lon="4.44459">
        <ele>29</ele>
      </trkpt>
      <trkpt lat="50.91072" lon="4.44456">
        <ele>29</ele>
      </trkpt>
      <trkpt lat="50.91058" lon="4.44458">
        <ele>29</ele>
      </trkpt>
      <trkpt lat="50.91052" lon="4.44452">
        <ele>29</ele>
      </trkpt>
      <trkpt lat="50.91051" lon="4.44444">
        <ele>29</ele>
      </trkpt>
      <trkpt lat="50.91053" lon="4.44437">
        <ele>29</ele>
      </trkpt>
      <trkpt lat="50.91057" lon="4.44433">
        <ele>29</ele>
      </trkpt>
      <trkpt lat="50.91058" lon="4.44312">
        <ele>28</ele>
      </trkpt>
      <trkpt lat="50.91057" lon="4.44312">
        <ele>28</ele>
      </trkpt>
      <trkpt lat="50.9106" lon="4.44273">
        <ele>28</ele>
      </trkpt>
      <trkpt lat="50.91068" lon="4.4422">
        <ele>28</ele>
      </trkpt>
      <trkpt lat="50.91075" lon="4.44187">
        <ele>28</ele>
      </trkpt>
      <trkpt lat="50.91089" lon="4.44129">
        <ele>28</ele>
      </trkpt>
      <trkpt lat="50.91116" lon="4.4404">
        <ele>26</ele>
      </trkpt>
      <trkpt lat="50.91164" lon="4.43885">
        <ele>24</ele>
      </trkpt>
      <trkpt lat="50.9121" lon="4.43735">
        <ele>21</ele>
      </trkpt>
      <trkpt lat="50.91221" lon="4.437">
        <ele>20</ele>
      </trkpt>
      <trkpt lat="50.91217" lon="4.43692">
        <ele>20</ele>
      </trkpt>
      <trkpt lat="50.9121" lon="4.43684">
        <ele>20</ele>
      </trkpt>
      <trkpt lat="50.9119" lon="4.43674">
        <ele>20</ele>
      </trkpt>
      <trkpt lat="50.91135" lon="4.43698">
        <ele>22</ele>
      </trkpt>
      <trkpt lat="50.91105" lon="4.43706">
        <ele>23</ele>
      </trkpt>
      <trkpt lat="50.91086" lon="4.43703">
        <ele>23</ele>
      </trkpt>
      <trkpt lat="50.91017" lon="4.43675">
        <ele>25</ele>
      </trkpt>
      <trkpt lat="50.90999" lon="4.43672">
        <ele>25</ele>
      </trkpt>
      <trkpt lat="50.90974" lon="4.43673">
        <ele>26</ele>
      </trkpt>
      <trkpt lat="50.90959" lon="4.43676">
        <ele>26</ele>
      </trkpt>
      <trkpt lat="50.90946" lon="4.43682">
        <ele>26</ele>
      </trkpt>
      <trkpt lat="50.9091" lon="4.43704">
        <ele>27</ele>
      </trkpt>
      <trkpt lat="50.90848" lon="4.43749">
        <ele>29</ele>
      </trkpt>
      <trkpt lat="50.90824" lon="4.4377">
        <ele>30</ele>
      </trkpt>
      <trkpt lat="50.90807" lon="4.43787">
        <ele>30</ele>
      </trkpt>
      <trkpt lat="50.90772" lon="4.43828">
        <ele>30</ele>
      </trkpt>
      <trkpt lat="50.90736" lon="4.43881">
        <ele>30</ele>
      </trkpt>
      <trkpt lat="50.9058" lon="4.44141">
        <ele>32</ele>
      </trkpt>
      <trkpt lat="50.90564" lon="4.44169">
        <ele>33</ele>
      </trkpt>
      <trkpt lat="50.90567" lon="4.4418">
        <ele>33</ele>
      </trkpt>
      <trkpt lat="50.90567" lon="4.44183">
        <ele>33</ele>
      </trkpt>
      <trkpt lat="50.90565" lon="4.44193">
        <ele>33</ele>
      </trkpt>
      <trkpt lat="50.90562" lon="4.44196">
        <ele>33</ele>
      </trkpt>
      <trkpt lat="50.90556" lon="4.44197">
        <ele>33</ele>
      </trkpt>
      <trkpt lat="50.90549" lon="4.44192">
        <ele>33</ele>
      </trkpt>
      <trkpt lat="50.90468" lon="4.44325">
        <ele>34</ele>
      </trkpt>
      <trkpt lat="50.90453" lon="4.4439">
        <ele>34</ele>
      </trkpt>
      <trkpt lat="50.90446" lon="4.44379">
        <ele>34</ele>
      </trkpt>
      <trkpt lat="50.90349" lon="4.4421">
        <ele>33</ele>
      </trkpt>
      <trkpt lat="50.90325" lon="4.44175">
        <ele>33</ele>
      </trkpt>
      <trkpt lat="50.90282" lon="4.44119">
        <ele>34</ele>
      </trkpt>
      <trkpt lat="50.90244" lon="4.44078">
        <ele>34</ele>
      </trkpt>
      <trkpt lat="50.90223" lon="4.44058">
        <ele>34</ele>
      </trkpt>
      <trkpt lat="50.9017" lon="4.4401">
        <ele>35</ele>
      </trkpt>
      <trkpt lat="50.90165" lon="4.44024">
        <ele>35</ele>
      </trkpt>
      <trkpt lat="50.9016" lon="4.44032">
        <ele>35</ele>
      </trkpt>
      <trkpt lat="50.90155" lon="4.44033">
        <ele>35</ele>
      </trkpt>
      <trkpt lat="50.90152" lon="4.44031">
        <ele>35</ele>
      </trkpt>
      <trkpt lat="50.90105" lon="4.43985">
        <ele>35</ele>
      </trkpt>
      <trkpt lat="50.90074" lon="4.43962">
        <ele>34</ele>
      </trkpt>
      <trkpt lat="50.90051" lon="4.43948">
        <ele>34</ele>
      </trkpt>
      <trkpt lat="50.90034" lon="4.43944">
        <ele>33</ele>
      </trkpt>
      <trkpt lat="50.90025" lon="4.43947">
        <ele>33</ele>
      </trkpt>
      <trkpt lat="50.90014" lon="4.43956">
        <ele>31</ele>
      </trkpt>
      <trkpt lat="50.89993" lon="4.43991">
        <ele>33</ele>
      </trkpt>
      <trkpt lat="50.89958" lon="4.44053">
        <ele>33</ele>
      </trkpt>
      <trkpt lat="50.89954" lon="4.44065">
        <ele>33</ele>
      </trkpt>
      <trkpt lat="50.89935" lon="4.441">
        <ele>34</ele>
      </trkpt>
      <trkpt lat="50.89932" lon="4.44103">
        <ele>34</ele>
      </trkpt>
      <trkpt lat="50.89915" lon="4.4415">
        <ele>33</ele>
      </trkpt>
      <trkpt lat="50.8988" lon="4.44237">
        <ele>35</ele>
      </trkpt>
      <trkpt lat="50.8984" lon="4.44318">
        <ele>35</ele>
      </trkpt>
      <trkpt lat="50.89832" lon="4.4434">
        <ele>36</ele>
      </trkpt>
      <trkpt lat="50.89777" lon="4.44454">
        <ele>36</ele>
      </trkpt>
      <trkpt lat="50.89743" lon="4.44526">
        <ele>36</ele>
      </trkpt>
      <trkpt lat="50.89744" lon="4.44527">
        <ele>36</ele>
      </trkpt>
      <trkpt lat="50.8971" lon="4.446">
        <ele>36</ele>
      </trkpt>
      <trkpt lat="50.89679" lon="4.44673">
        <ele>36</ele>
      </trkpt>
      <trkpt lat="50.89448" lon="4.45293">
        <ele>31</ele>
      </trkpt>
      <trkpt lat="50.89366" lon="4.4561">
        <ele>33</ele>
      </trkpt>
      <trkpt lat="50.89362" lon="4.45628">
        <ele>33</ele>
      </trkpt>
      <trkpt lat="50.89363" lon="4.45638">
        <ele>33</ele>
      </trkpt>
      <trkpt lat="50.89368" lon="4.45648">
        <ele>33</ele>
      </trkpt>
      <trkpt lat="50.894" lon="4.45681">
        <ele>34</ele>
      </trkpt>
      <trkpt lat="50.89418" lon="4.45712">
        <ele>34</ele>
      </trkpt>
      <trkpt lat="50.89475" lon="4.45829">
        <ele>35</ele>
      </trkpt>
      <trkpt lat="50.89482" lon="4.45855">
        <ele>35</ele>
      </trkpt>
      <trkpt lat="50.89485" lon="4.45888">
        <ele>35</ele>
      </trkpt>
      <trkpt lat="50.89481" lon="4.45921">
        <ele>35</ele>
      </trkpt>
      <trkpt lat="50.89477" lon="4.45936">
        <ele>35</ele>
      </trkpt>
      <trkpt lat="50.89465" lon="4.45963">
        <ele>35</ele>
      </trkpt>
      <trkpt lat="50.89455" lon="4.45976">
        <ele>35</ele>
      </trkpt>
      <trkpt lat="50.89314" lon="4.46094">
        <ele>34</ele>
      </trkpt>
      <trkpt lat="50.8929" lon="4.46119">
        <ele>34</ele>
      </trkpt>
      <trkpt lat="50.89275" lon="4.4614">
        <ele>33</ele>
      </trkpt>
      <trkpt lat="50.89267" lon="4.46156">
        <ele>33</ele>
      </trkpt>
      <trkpt lat="50.89266" lon="4.46169">
        <ele>32</ele>
      </trkpt>
      <trkpt lat="50.89262" lon="4.46176">
        <ele>31</ele>
      </trkpt>
      <trkpt lat="50.89258" lon="4.46178">
        <ele>31</ele>
      </trkpt>
      <trkpt lat="50.89249" lon="4.46174">
        <ele>30</ele>
      </trkpt>
      <trkpt lat="50.89245" lon="4.46184">
        <ele>30</ele>
      </trkpt>
      <trkpt lat="50.89222" lon="4.46284">
        <ele>29</ele>
      </trkpt>
      <trkpt lat="50.89216" lon="4.46319">
        <ele>30</ele>
      </trkpt>
      <trkpt lat="50.8919" lon="4.46553">
        <ele>32</ele>
      </trkpt>
      <trkpt lat="50.89156" lon="4.46678">
        <ele>35</ele>
      </trkpt>
      <trkpt lat="50.89146" lon="4.46703">
        <ele>35</ele>
      </trkpt>
      <trkpt lat="50.89145" lon="4.46715">
        <ele>35</ele>
      </trkpt>
      <trkpt lat="50.89133" lon="4.46762">
        <ele>36</ele>
      </trkpt>
      <trkpt lat="50.89129" lon="4.46767">
        <ele>36</ele>
      </trkpt>
      <trkpt lat="50.89124" lon="4.46769">
        <ele>36</ele>
      </trkpt>
      <trkpt lat="50.891" lon="4.46849">
        <ele>37</ele>
      </trkpt>
      <trkpt lat="50.89101" lon="4.46853">
        <ele>37</ele>
      </trkpt>
      <trkpt lat="50.89101" lon="4.46866">
        <ele>38</ele>
      </trkpt>
      <trkpt lat="50.8908" lon="4.46911">
        <ele>38</ele>
      </trkpt>
      <trkpt lat="50.89049" lon="4.46986">
        <ele>38</ele>
      </trkpt>
      <trkpt lat="50.89017" lon="4.47056">
        <ele>39</ele>
      </trkpt>
      <trkpt lat="50.8901" lon="4.47083">
        <ele>40</ele>
      </trkpt>
      <trkpt lat="50.89001" lon="4.47082">
        <ele>40</ele>
      </trkpt>
      <trkpt lat="50.88992" lon="4.4709">
        <ele>40</ele>
      </trkpt>
      <trkpt lat="50.88989" lon="4.47099">
        <ele>40</ele>
      </trkpt>
      <trkpt lat="50.88988" lon="4.47109">
        <ele>40</ele>
      </trkpt>
      <trkpt lat="50.88989" lon="4.47119">
        <ele>40</ele>
      </trkpt>
      <trkpt lat="50.88994" lon="4.47128">
        <ele>40</ele>
      </trkpt>
      <trkpt lat="50.88937" lon="4.47235">
        <ele>41</ele>
      </trkpt>
      <trkpt lat="50.88914" lon="4.47274">
        <ele>42</ele>
      </trkpt>
      <trkpt lat="50.88882" lon="4.4731">
        <ele>42</ele>
      </trkpt>
      <trkpt lat="50.88777" lon="4.47364">
        <ele>44</ele>
      </trkpt>
      <trkpt lat="50.88667" lon="4.47398">
        <ele>45</ele>
      </trkpt>
      <trkpt lat="50.88546" lon="4.47422">
        <ele>46</ele>
      </trkpt>
      <trkpt lat="50.88518" lon="4.47426">
        <ele>45</ele>
      </trkpt>
      <trkpt lat="50.88261" lon="4.47402">
        <ele>45</ele>
      </trkpt>
      <trkpt lat="50.88235" lon="4.47403">
        <ele>45</ele>
      </trkpt>
      <trkpt lat="50.88153" lon="4.47436">
        <ele>44</ele>
      </trkpt>
      <trkpt lat="50.88121" lon="4.47463">
        <ele>43</ele>
      </trkpt>
      <trkpt lat="50.88102" lon="4.47471">
        <ele>43</ele>
      </trkpt>
      <trkpt lat="50.88089" lon="4.47474">
        <ele>41</ele>
      </trkpt>
      <trkpt lat="50.88074" lon="4.47474">
        <ele>41</ele>
      </trkpt>
      <trkpt lat="50.8805" lon="4.47466">
        <ele>40</ele>
      </trkpt>
      <trkpt lat="50.88044" lon="4.47462">
        <ele>40</ele>
      </trkpt>
      <trkpt lat="50.8804" lon="4.47471">
        <ele>40</ele>
      </trkpt>
      <trkpt lat="50.88038" lon="4.47474">
        <ele>40</ele>
      </trkpt>
      <trkpt lat="50.88039" lon="4.47493">
        <ele>40</ele>
      </trkpt>
      <trkpt lat="50.8807" lon="4.47571">
        <ele>40</ele>
      </trkpt>
      <trkpt lat="50.88094" lon="4.4764">
        <ele>41</ele>
      </trkpt>
      <trkpt lat="50.88103" lon="4.47671">
        <ele>41</ele>
      </trkpt>
      <trkpt lat="50.88115" lon="4.47721">
        <ele>42</ele>
      </trkpt>
      <trkpt lat="50.88147" lon="4.47903">
        <ele>41</ele>
      </trkpt>
      <trkpt lat="50.88156" lon="4.47956">
        <ele>41</ele>
      </trkpt>
      <trkpt lat="50.88159" lon="4.48001">
        <ele>41</ele>
      </trkpt>
      <trkpt lat="50.88159" lon="4.48056">
        <ele>41</ele>
      </trkpt>
      <trkpt lat="50.88158" lon="4.48064">
        <ele>41</ele>
      </trkpt>
      <trkpt lat="50.88156" lon="4.48071">
        <ele>41</ele>
      </trkpt>
      <trkpt lat="50.88149" lon="4.4808">
        <ele>41</ele>
      </trkpt>
      <trkpt lat="50.88116" lon="4.48114">
        <ele>40</ele>
      </trkpt>
      <trkpt lat="50.88107" lon="4.48129">
        <ele>41</ele>
      </trkpt>
      <trkpt lat="50.8808" lon="4.48178">
        <ele>42</ele>
      </trkpt>
      <trkpt lat="50.8798" lon="4.48362">
        <ele>47</ele>
      </trkpt>
      <trkpt lat="50.87969" lon="4.48377">
        <ele>47</ele>
      </trkpt>
      <trkpt lat="50.87946" lon="4.48398">
        <ele>47</ele>
      </trkpt>
      <trkpt lat="50.87936" lon="4.48405">
        <ele>47</ele>
      </trkpt>
      <trkpt lat="50.87917" lon="4.48413">
        <ele>49</ele>
      </trkpt>
      <trkpt lat="50.87897" lon="4.48417">
        <ele>49</ele>
      </trkpt>
      <trkpt lat="50.8781" lon="4.48413">
        <ele>52</ele>
      </trkpt>
      <trkpt lat="50.87741" lon="4.48418">
        <ele>55</ele>
      </trkpt>
      <trkpt lat="50.87676" lon="4.4843">
        <ele>57</ele>
      </trkpt>
      <trkpt lat="50.87636" lon="4.48443">
        <ele>57</ele>
      </trkpt>
      <trkpt lat="50.87404" lon="4.48537">
        <ele>64</ele>
      </trkpt>
      <trkpt lat="50.87353" lon="4.48563">
        <ele>64</ele>
      </trkpt>
      <trkpt lat="50.87242" lon="4.48625">
        <ele>66</ele>
      </trkpt>
      <trkpt lat="50.87229" lon="4.48637">
        <ele>66</ele>
      </trkpt>
      <trkpt lat="50.87198" lon="4.48656">
        <ele>66</ele>
      </trkpt>
      <trkpt lat="50.87182" lon="4.48676">
        <ele>66</ele>
      </trkpt>
      <trkpt lat="50.8715" lon="4.48726">
        <ele>66</ele>
      </trkpt>
      <trkpt lat="50.87122" lon="4.4879">
        <ele>66</ele>
      </trkpt>
      <trkpt lat="50.87049" lon="4.48996">
        <ele>67</ele>
      </trkpt>
      <trkpt lat="50.86987" lon="4.49173">
        <ele>68</ele>
      </trkpt>
      <trkpt lat="50.86982" lon="4.49204">
        <ele>68</ele>
      </trkpt>
      <trkpt lat="50.86979" lon="4.49299">
        <ele>68</ele>
      </trkpt>
      <trkpt lat="50.86976" lon="4.49621">
        <ele>67</ele>
      </trkpt>
      <trkpt lat="50.86973" lon="4.49661">
        <ele>67</ele>
      </trkpt>
      <trkpt lat="50.86969" lon="4.50022">
        <ele>66</ele>
      </trkpt>
      <trkpt lat="50.86974" lon="4.50416">
        <ele>64</ele>
      </trkpt>
      <trkpt lat="50.86987" lon="4.50569">
        <ele>64</ele>
      </trkpt>
      <trkpt lat="50.87018" lon="4.50806">
        <ele>64</ele>
      </trkpt>
      <trkpt lat="50.87028" lon="4.50898">
        <ele>63</ele>
      </trkpt>
      <trkpt lat="50.87035" lon="4.51004">
        <ele>62</ele>
      </trkpt>
      <trkpt lat="50.87041" lon="4.51106">
        <ele>62</ele>
      </trkpt>
      <trkpt lat="50.87042" lon="4.51133">
        <ele>63</ele>
      </trkpt>
      <trkpt lat="50.87077" lon="4.51541">
        <ele>65</ele>
      </trkpt>
      <trkpt lat="50.87083" lon="4.51571">
        <ele>66</ele>
      </trkpt>
      <trkpt lat="50.87118" lon="4.51708">
        <ele>66</ele>
      </trkpt>
      <trkpt lat="50.87169" lon="4.5186">
        <ele>67</ele>
      </trkpt>
      <trkpt lat="50.87207" lon="4.52003">
        <ele>68</ele>
      </trkpt>
      <trkpt lat="50.87222" lon="4.52067">
        <ele>68</ele>
      </trkpt>
      <trkpt lat="50.87259" lon="4.52249">
        <ele>70</ele>
      </trkpt>
      <trkpt lat="50.87307" lon="4.52455">
        <ele>70</ele>
      </trkpt>
      <trkpt lat="50.87306" lon="4.52481">
        <ele>70</ele>
      </trkpt>
      <trkpt lat="50.87312" lon="4.52487">
        <ele>70</ele>
      </trkpt>
      <trkpt lat="50.87319" lon="4.52505">
        <ele>70</ele>
      </trkpt>
      <trkpt lat="50.87319" lon="4.52513">
        <ele>69</ele>
      </trkpt>
      <trkpt lat="50.87317" lon="4.52519">
        <ele>69</ele>
      </trkpt>
      <trkpt lat="50.87465" lon="4.53028">
        <ele>58</ele>
      </trkpt>
      <trkpt lat="50.8749" lon="4.53105">
        <ele>57</ele>
      </trkpt>
      <trkpt lat="50.87587" lon="4.53349">
        <ele>53</ele>
      </trkpt>
      <trkpt lat="50.87604" lon="4.53404">
        <ele>53</ele>
      </trkpt>
      <trkpt lat="50.87616" lon="4.53445">
        <ele>52</ele>
      </trkpt>
      <trkpt lat="50.87626" lon="4.53497">
        <ele>52</ele>
      </trkpt>
      <trkpt lat="50.87654" lon="4.53717">
        <ele>53</ele>
      </trkpt>
      <trkpt lat="50.87657" lon="4.53812">
        <ele>54</ele>
      </trkpt>
      <trkpt lat="50.87652" lon="4.53904">
        <ele>54</ele>
      </trkpt>
      <trkpt lat="50.87635" lon="4.54049">
        <ele>52</ele>
      </trkpt>
      <trkpt lat="50.87628" lon="4.54072">
        <ele>52</ele>
      </trkpt>
      <trkpt lat="50.8761" lon="4.54116">
        <ele>53</ele>
      </trkpt>
      <trkpt lat="50.87605" lon="4.54126">
        <ele>53</ele>
      </trkpt>
      <trkpt lat="50.87598" lon="4.54159">
        <ele>54</ele>
      </trkpt>
      <trkpt lat="50.87594" lon="4.54184">
        <ele>54</ele>
      </trkpt>
      <trkpt lat="50.87593" lon="4.5421">
        <ele>55</ele>
      </trkpt>
      <trkpt lat="50.87596" lon="4.54242">
        <ele>55</ele>
      </trkpt>
      <trkpt lat="50.87604" lon="4.54284">
        <ele>55</ele>
      </trkpt>
      <trkpt lat="50.8763" lon="4.54378">
        <ele>54</ele>
      </trkpt>
      <trkpt lat="50.87635" lon="4.54377">
        <ele>54</ele>
      </trkpt>
      <trkpt lat="50.87637" lon="4.54381">
        <ele>54</ele>
      </trkpt>
      <trkpt lat="50.87644" lon="4.54395">
        <ele>54</ele>
      </trkpt>
      <trkpt lat="50.87645" lon="4.544">
        <ele>54</ele>
      </trkpt>
      <trkpt lat="50.87722" lon="4.54561">
        <ele>52</ele>
      </trkpt>
      <trkpt lat="50.87759" lon="4.54667">
        <ele>53</ele>
      </trkpt>
      <trkpt lat="50.87783" lon="4.54728">
        <ele>53</ele>
      </trkpt>
      <trkpt lat="50.87805" lon="4.54777">
        <ele>52</ele>
      </trkpt>
      <trkpt lat="50.87825" lon="4.5483">
        <ele>51</ele>
      </trkpt>
      <trkpt lat="50.87847" lon="4.54906">
        <ele>50</ele>
      </trkpt>
      <trkpt lat="50.87859" lon="4.54962">
        <ele>49</ele>
      </trkpt>
      <trkpt lat="50.8788" lon="4.55086">
        <ele>48</ele>
      </trkpt>
      <trkpt lat="50.87889" lon="4.55167">
        <ele>48</ele>
      </trkpt>
    </trkseg>
  </trk>
</gpx>