<?xml version='1.0' encoding='UTF-8'?>
<gpx xmlns="http://www.topografix.com/GPX/1/1" xmlns:xsi="http://www.w3.org/2001/XMLSchema-instance" creator="RouteYou" version="1.1" xsi:schemaLocation="http://www.topografix.com/GPX/1/1 http://www.topografix.com/GPX/1/1/gpx.xsd">
  <trk>
    <name>Duffel 2025</name>
    <desc />
    <trkseg>
      <trkpt lat="50.87884" lon="4.55123">
        <ele>54</ele>
      </trkpt>
      <trkpt lat="50.87875" lon="4.55058">
        <ele>57</ele>
      </trkpt>
      <trkpt lat="50.87859" lon="4.54962">
        <ele>62</ele>
      </trkpt>
      <trkpt lat="50.87847" lon="4.54906">
        <ele>60</ele>
      </trkpt>
      <trkpt lat="50.87825" lon="4.5483">
        <ele>60</ele>
      </trkpt>
      <trkpt lat="50.87805" lon="4.54777">
        <ele>61</ele>
      </trkpt>
      <trkpt lat="50.87783" lon="4.54728">
        <ele>65</ele>
      </trkpt>
      <trkpt lat="50.87759" lon="4.54667">
        <ele>59</ele>
      </trkpt>
      <trkpt lat="50.87722" lon="4.54561">
        <ele>60</ele>
      </trkpt>
      <trkpt lat="50.87673" lon="4.54459">
        <ele>60</ele>
      </trkpt>
      <trkpt lat="50.87645" lon="4.544">
        <ele>62</ele>
      </trkpt>
      <trkpt lat="50.87643" lon="4.54405">
        <ele>62</ele>
      </trkpt>
      <trkpt lat="50.8764" lon="4.54409">
        <ele>62</ele>
      </trkpt>
      <trkpt lat="50.87637" lon="4.54409">
        <ele>62</ele>
      </trkpt>
      <trkpt lat="50.87634" lon="4.54406">
        <ele>62</ele>
      </trkpt>
      <trkpt lat="50.8763" lon="4.54392">
        <ele>62</ele>
      </trkpt>
      <trkpt lat="50.87629" lon="4.5438">
        <ele>62</ele>
      </trkpt>
      <trkpt lat="50.8763" lon="4.54378">
        <ele>62</ele>
      </trkpt>
      <trkpt lat="50.87604" lon="4.54284">
        <ele>63</ele>
      </trkpt>
      <trkpt lat="50.87595" lon="4.54242">
        <ele>62</ele>
      </trkpt>
      <trkpt lat="50.87593" lon="4.5421">
        <ele>62</ele>
      </trkpt>
      <trkpt lat="50.87594" lon="4.54184">
        <ele>62</ele>
      </trkpt>
      <trkpt lat="50.87598" lon="4.54159">
        <ele>60</ele>
      </trkpt>
      <trkpt lat="50.87605" lon="4.54126">
        <ele>59</ele>
      </trkpt>
      <trkpt lat="50.87622" lon="4.54087">
        <ele>59</ele>
      </trkpt>
      <trkpt lat="50.87633" lon="4.5409">
        <ele>59</ele>
      </trkpt>
      <trkpt lat="50.87644" lon="4.54087">
        <ele>59</ele>
      </trkpt>
      <trkpt lat="50.87728" lon="4.54066">
        <ele>55</ele>
      </trkpt>
      <trkpt lat="50.87753" lon="4.54064">
        <ele>55</ele>
      </trkpt>
      <trkpt lat="50.87766" lon="4.54065">
        <ele>53</ele>
      </trkpt>
      <trkpt lat="50.87818" lon="4.5407">
        <ele>53</ele>
      </trkpt>
      <trkpt lat="50.87866" lon="4.54062">
        <ele>49</ele>
      </trkpt>
      <trkpt lat="50.8791" lon="4.5406">
        <ele>48</ele>
      </trkpt>
      <trkpt lat="50.8792" lon="4.54065">
        <ele>48</ele>
      </trkpt>
      <trkpt lat="50.87989" lon="4.54205">
        <ele>50</ele>
      </trkpt>
      <trkpt lat="50.8809" lon="4.54313">
        <ele>49</ele>
      </trkpt>
      <trkpt lat="50.88123" lon="4.54354">
        <ele>47</ele>
      </trkpt>
      <trkpt lat="50.88131" lon="4.54362">
        <ele>47</ele>
      </trkpt>
      <trkpt lat="50.88149" lon="4.54371">
        <ele>46</ele>
      </trkpt>
      <trkpt lat="50.88204" lon="4.54379">
        <ele>45</ele>
      </trkpt>
      <trkpt lat="50.88212" lon="4.54384">
        <ele>45</ele>
      </trkpt>
      <trkpt lat="50.8822" lon="4.54393">
        <ele>45</ele>
      </trkpt>
      <trkpt lat="50.88235" lon="4.5444">
        <ele>45</ele>
      </trkpt>
      <trkpt lat="50.88242" lon="4.54449">
        <ele>45</ele>
      </trkpt>
      <trkpt lat="50.8825" lon="4.54454">
        <ele>45</ele>
      </trkpt>
      <trkpt lat="50.88261" lon="4.54456">
        <ele>45</ele>
      </trkpt>
      <trkpt lat="50.88337" lon="4.54454">
        <ele>44</ele>
      </trkpt>
      <trkpt lat="50.88349" lon="4.54458">
        <ele>43</ele>
      </trkpt>
      <trkpt lat="50.88392" lon="4.54492">
        <ele>43</ele>
      </trkpt>
      <trkpt lat="50.88432" lon="4.54511">
        <ele>43</ele>
      </trkpt>
      <trkpt lat="50.88495" lon="4.54523">
        <ele>44</ele>
      </trkpt>
      <trkpt lat="50.88536" lon="4.5454">
        <ele>44</ele>
      </trkpt>
      <trkpt lat="50.88559" lon="4.54535">
        <ele>44</ele>
      </trkpt>
      <trkpt lat="50.88767" lon="4.54433">
        <ele>47</ele>
      </trkpt>
      <trkpt lat="50.88837" lon="4.54401">
        <ele>47</ele>
      </trkpt>
      <trkpt lat="50.88839" lon="4.54409">
        <ele>47</ele>
      </trkpt>
      <trkpt lat="50.88889" lon="4.54378">
        <ele>47</ele>
      </trkpt>
      <trkpt lat="50.89232" lon="4.54218">
        <ele>44</ele>
      </trkpt>
      <trkpt lat="50.8925" lon="4.54209">
        <ele>44</ele>
      </trkpt>
      <trkpt lat="50.89254" lon="4.54205">
        <ele>44</ele>
      </trkpt>
      <trkpt lat="50.89256" lon="4.54172">
        <ele>44</ele>
      </trkpt>
      <trkpt lat="50.89247" lon="4.54075">
        <ele>44</ele>
      </trkpt>
      <trkpt lat="50.89242" lon="4.54036">
        <ele>44</ele>
      </trkpt>
      <trkpt lat="50.89245" lon="4.54032">
        <ele>44</ele>
      </trkpt>
      <trkpt lat="50.89233" lon="4.53951">
        <ele>44</ele>
      </trkpt>
      <trkpt lat="50.89233" lon="4.53923">
        <ele>44</ele>
      </trkpt>
      <trkpt lat="50.89235" lon="4.53908">
        <ele>44</ele>
      </trkpt>
      <trkpt lat="50.89246" lon="4.53876">
        <ele>44</ele>
      </trkpt>
      <trkpt lat="50.89254" lon="4.53863">
        <ele>44</ele>
      </trkpt>
      <trkpt lat="50.8927" lon="4.53848">
        <ele>45</ele>
      </trkpt>
      <trkpt lat="50.89284" lon="4.53843">
        <ele>45</ele>
      </trkpt>
      <trkpt lat="50.89293" lon="4.53842">
        <ele>45</ele>
      </trkpt>
      <trkpt lat="50.89307" lon="4.53843">
        <ele>45</ele>
      </trkpt>
      <trkpt lat="50.89327" lon="4.53848">
        <ele>45</ele>
      </trkpt>
      <trkpt lat="50.89339" lon="4.53854">
        <ele>45</ele>
      </trkpt>
      <trkpt lat="50.8934" lon="4.53866">
        <ele>45</ele>
      </trkpt>
      <trkpt lat="50.89352" lon="4.53876">
        <ele>45</ele>
      </trkpt>
      <trkpt lat="50.89356" lon="4.53876">
        <ele>45</ele>
      </trkpt>
      <trkpt lat="50.89363" lon="4.53869">
        <ele>45</ele>
      </trkpt>
      <trkpt lat="50.8959" lon="4.54252">
        <ele>42</ele>
      </trkpt>
      <trkpt lat="50.8963" lon="4.54318">
        <ele>43</ele>
      </trkpt>
      <trkpt lat="50.89666" lon="4.54372">
        <ele>42</ele>
      </trkpt>
      <trkpt lat="50.89751" lon="4.54483">
        <ele>41</ele>
      </trkpt>
      <trkpt lat="50.89775" lon="4.54499">
        <ele>41</ele>
      </trkpt>
      <trkpt lat="50.89894" lon="4.54609">
        <ele>41</ele>
      </trkpt>
      <trkpt lat="50.89919" lon="4.54636">
        <ele>41</ele>
      </trkpt>
      <trkpt lat="50.89939" lon="4.54652">
        <ele>41</ele>
      </trkpt>
      <trkpt lat="50.90037" lon="4.54762">
        <ele>41</ele>
      </trkpt>
      <trkpt lat="50.90072" lon="4.54823">
        <ele>41</ele>
      </trkpt>
      <trkpt lat="50.90131" lon="4.54964">
        <ele>39</ele>
      </trkpt>
      <trkpt lat="50.90169" lon="4.55053">
        <ele>39</ele>
      </trkpt>
      <trkpt lat="50.9019" lon="4.55115">
        <ele>39</ele>
      </trkpt>
      <trkpt lat="50.90276" lon="4.55344">
        <ele>39</ele>
      </trkpt>
      <trkpt lat="50.90287" lon="4.55359">
        <ele>38</ele>
      </trkpt>
      <trkpt lat="50.90338" lon="4.55512">
        <ele>37</ele>
      </trkpt>
      <trkpt lat="50.90368" lon="4.55615">
        <ele>37</ele>
      </trkpt>
      <trkpt lat="50.90401" lon="4.55719">
        <ele>37</ele>
      </trkpt>
      <trkpt lat="50.90437" lon="4.55799">
        <ele>36</ele>
      </trkpt>
      <trkpt lat="50.90442" lon="4.55815">
        <ele>36</ele>
      </trkpt>
      <trkpt lat="50.90466" lon="4.55907">
        <ele>35</ele>
      </trkpt>
      <trkpt lat="50.90515" lon="4.56057">
        <ele>34</ele>
      </trkpt>
      <trkpt lat="50.90543" lon="4.56132">
        <ele>32</ele>
      </trkpt>
      <trkpt lat="50.90551" lon="4.5615">
        <ele>32</ele>
      </trkpt>
      <trkpt lat="50.90651" lon="4.56297">
        <ele>29</ele>
      </trkpt>
      <trkpt lat="50.9082" lon="4.56534">
        <ele>28</ele>
      </trkpt>
      <trkpt lat="50.90839" lon="4.56543">
        <ele>27</ele>
      </trkpt>
      <trkpt lat="50.90861" lon="4.56546">
        <ele>27</ele>
      </trkpt>
      <trkpt lat="50.90995" lon="4.56435">
        <ele>27</ele>
      </trkpt>
      <trkpt lat="50.91063" lon="4.56375">
        <ele>27</ele>
      </trkpt>
      <trkpt lat="50.91083" lon="4.56358">
        <ele>27</ele>
      </trkpt>
      <trkpt lat="50.91119" lon="4.56338">
        <ele>27</ele>
      </trkpt>
      <trkpt lat="50.91152" lon="4.56332">
        <ele>27</ele>
      </trkpt>
      <trkpt lat="50.91255" lon="4.56356">
        <ele>28</ele>
      </trkpt>
      <trkpt lat="50.91543" lon="4.56432">
        <ele>26</ele>
      </trkpt>
      <trkpt lat="50.91572" lon="4.56436">
        <ele>25</ele>
      </trkpt>
      <trkpt lat="50.916" lon="4.56433">
        <ele>25</ele>
      </trkpt>
      <trkpt lat="50.91616" lon="4.56428">
        <ele>25</ele>
      </trkpt>
      <trkpt lat="50.91661" lon="4.56403">
        <ele>25</ele>
      </trkpt>
      <trkpt lat="50.91774" lon="4.56321">
        <ele>24</ele>
      </trkpt>
      <trkpt lat="50.91803" lon="4.56307">
        <ele>24</ele>
      </trkpt>
      <trkpt lat="50.91836" lon="4.56303">
        <ele>24</ele>
      </trkpt>
      <trkpt lat="50.91858" lon="4.56305">
        <ele>24</ele>
      </trkpt>
      <trkpt lat="50.91869" lon="4.56301">
        <ele>23</ele>
      </trkpt>
      <trkpt lat="50.91937" lon="4.56252">
        <ele>23</ele>
      </trkpt>
      <trkpt lat="50.91994" lon="4.56199">
        <ele>22</ele>
      </trkpt>
      <trkpt lat="50.92" lon="4.56214">
        <ele>22</ele>
      </trkpt>
      <trkpt lat="50.92037" lon="4.56314">
        <ele>21</ele>
      </trkpt>
      <trkpt lat="50.92044" lon="4.56328">
        <ele>21</ele>
      </trkpt>
      <trkpt lat="50.92091" lon="4.56271">
        <ele>21</ele>
      </trkpt>
      <trkpt lat="50.92125" lon="4.56229">
        <ele>20</ele>
      </trkpt>
      <trkpt lat="50.9213" lon="4.56226">
        <ele>19</ele>
      </trkpt>
      <trkpt lat="50.9215" lon="4.56231">
        <ele>19</ele>
      </trkpt>
      <trkpt lat="50.9216" lon="4.5624">
        <ele>19</ele>
      </trkpt>
      <trkpt lat="50.9217" lon="4.56254">
        <ele>19</ele>
      </trkpt>
      <trkpt lat="50.92264" lon="4.56428">
        <ele>18</ele>
      </trkpt>
      <trkpt lat="50.92268" lon="4.56438">
        <ele>18</ele>
      </trkpt>
      <trkpt lat="50.92293" lon="4.56569">
        <ele>17</ele>
      </trkpt>
      <trkpt lat="50.92309" lon="4.56607">
        <ele>17</ele>
      </trkpt>
      <trkpt lat="50.92357" lon="4.56679">
        <ele>17</ele>
      </trkpt>
      <trkpt lat="50.92396" lon="4.56614">
        <ele>16</ele>
      </trkpt>
      <trkpt lat="50.92441" lon="4.56542">
        <ele>17</ele>
      </trkpt>
      <trkpt lat="50.92467" lon="4.56504">
        <ele>17</ele>
      </trkpt>
      <trkpt lat="50.92486" lon="4.56487">
        <ele>18</ele>
      </trkpt>
      <trkpt lat="50.9252" lon="4.56471">
        <ele>18</ele>
      </trkpt>
      <trkpt lat="50.92554" lon="4.5647">
        <ele>18</ele>
      </trkpt>
      <trkpt lat="50.92575" lon="4.56475">
        <ele>17</ele>
      </trkpt>
      <trkpt lat="50.92616" lon="4.565">
        <ele>16</ele>
      </trkpt>
      <trkpt lat="50.92825" lon="4.5664">
        <ele>14</ele>
      </trkpt>
      <trkpt lat="50.92856" lon="4.56679">
        <ele>14</ele>
      </trkpt>
      <trkpt lat="50.92875" lon="4.56709">
        <ele>14</ele>
      </trkpt>
      <trkpt lat="50.92954" lon="4.56862">
        <ele>15</ele>
      </trkpt>
      <trkpt lat="50.93038" lon="4.5702">
        <ele>15</ele>
      </trkpt>
      <trkpt lat="50.9305" lon="4.57037">
        <ele>15</ele>
      </trkpt>
      <trkpt lat="50.93066" lon="4.57045">
        <ele>15</ele>
      </trkpt>
      <trkpt lat="50.93087" lon="4.57046">
        <ele>15</ele>
      </trkpt>
      <trkpt lat="50.93099" lon="4.57037">
        <ele>14</ele>
      </trkpt>
      <trkpt lat="50.93226" lon="4.56877">
        <ele>14</ele>
      </trkpt>
      <trkpt lat="50.93627" lon="4.56478">
        <ele>12</ele>
      </trkpt>
      <trkpt lat="50.93688" lon="4.56422">
        <ele>12</ele>
      </trkpt>
      <trkpt lat="50.93729" lon="4.56393">
        <ele>12</ele>
      </trkpt>
      <trkpt lat="50.93763" lon="4.56379">
        <ele>13</ele>
      </trkpt>
      <trkpt lat="50.9378" lon="4.56376">
        <ele>13</ele>
      </trkpt>
      <trkpt lat="50.93803" lon="4.56375">
        <ele>13</ele>
      </trkpt>
      <trkpt lat="50.94038" lon="4.56411">
        <ele>13</ele>
      </trkpt>
      <trkpt lat="50.9411" lon="4.56444">
        <ele>13</ele>
      </trkpt>
      <trkpt lat="50.94133" lon="4.56448">
        <ele>13</ele>
      </trkpt>
      <trkpt lat="50.94144" lon="4.56447">
        <ele>13</ele>
      </trkpt>
      <trkpt lat="50.94258" lon="4.56441">
        <ele>13</ele>
      </trkpt>
      <trkpt lat="50.94281" lon="4.56436">
        <ele>13</ele>
      </trkpt>
      <trkpt lat="50.94354" lon="4.56444">
        <ele>12</ele>
      </trkpt>
      <trkpt lat="50.94409" lon="4.56438">
        <ele>11</ele>
      </trkpt>
      <trkpt lat="50.9445" lon="4.56436">
        <ele>11</ele>
      </trkpt>
      <trkpt lat="50.94477" lon="4.56446">
        <ele>10</ele>
      </trkpt>
      <trkpt lat="50.94506" lon="4.56465">
        <ele>11</ele>
      </trkpt>
      <trkpt lat="50.94525" lon="4.56471">
        <ele>11</ele>
      </trkpt>
      <trkpt lat="50.94734" lon="4.56478">
        <ele>10</ele>
      </trkpt>
      <trkpt lat="50.94761" lon="4.56474">
        <ele>10</ele>
      </trkpt>
      <trkpt lat="50.94984" lon="4.56395">
        <ele>11</ele>
      </trkpt>
      <trkpt lat="50.95075" lon="4.56349">
        <ele>11</ele>
      </trkpt>
      <trkpt lat="50.95146" lon="4.56298">
        <ele>10</ele>
      </trkpt>
      <trkpt lat="50.95327" lon="4.56139">
        <ele>10</ele>
      </trkpt>
      <trkpt lat="50.95404" lon="4.56065">
        <ele>9</ele>
      </trkpt>
      <trkpt lat="50.95554" lon="4.55787">
        <ele>9</ele>
      </trkpt>
      <trkpt lat="50.95572" lon="4.55747">
        <ele>9</ele>
      </trkpt>
      <trkpt lat="50.95589" lon="4.55699">
        <ele>10</ele>
      </trkpt>
      <trkpt lat="50.95618" lon="4.55595">
        <ele>10</ele>
      </trkpt>
      <trkpt lat="50.95634" lon="4.5557">
        <ele>10</ele>
      </trkpt>
      <trkpt lat="50.95647" lon="4.55554">
        <ele>11</ele>
      </trkpt>
      <trkpt lat="50.95665" lon="4.55544">
        <ele>11</ele>
      </trkpt>
      <trkpt lat="50.95741" lon="4.55513">
        <ele>10</ele>
      </trkpt>
      <trkpt lat="50.95742" lon="4.55519">
        <ele>10</ele>
      </trkpt>
      <trkpt lat="50.95754" lon="4.55523">
        <ele>10</ele>
      </trkpt>
      <trkpt lat="50.95791" lon="4.55571">
        <ele>10</ele>
      </trkpt>
      <trkpt lat="50.95839" lon="4.55627">
        <ele>10</ele>
      </trkpt>
      <trkpt lat="50.95841" lon="4.55624">
        <ele>10</ele>
      </trkpt>
      <trkpt lat="50.95863" lon="4.55648">
        <ele>9</ele>
      </trkpt>
      <trkpt lat="50.95877" lon="4.55653">
        <ele>9</ele>
      </trkpt>
      <trkpt lat="50.95884" lon="4.55652">
        <ele>9</ele>
      </trkpt>
      <trkpt lat="50.95962" lon="4.55609">
        <ele>9</ele>
      </trkpt>
      <trkpt lat="50.95977" lon="4.55608">
        <ele>8</ele>
      </trkpt>
      <trkpt lat="50.9603" lon="4.55655">
        <ele>9</ele>
      </trkpt>
      <trkpt lat="50.96083" lon="4.55681">
        <ele>9</ele>
      </trkpt>
      <trkpt lat="50.961" lon="4.55693">
        <ele>9</ele>
      </trkpt>
      <trkpt lat="50.96205" lon="4.55789">
        <ele>9</ele>
      </trkpt>
      <trkpt lat="50.96211" lon="4.55799">
        <ele>9</ele>
      </trkpt>
      <trkpt lat="50.96216" lon="4.5581">
        <ele>9</ele>
      </trkpt>
      <trkpt lat="50.96275" lon="4.56022">
        <ele>10</ele>
      </trkpt>
      <trkpt lat="50.96288" lon="4.56042">
        <ele>9</ele>
      </trkpt>
      <trkpt lat="50.96352" lon="4.56123">
        <ele>9</ele>
      </trkpt>
      <trkpt lat="50.96419" lon="4.56228">
        <ele>9</ele>
      </trkpt>
      <trkpt lat="50.9645" lon="4.56275">
        <ele>9</ele>
      </trkpt>
      <trkpt lat="50.96455" lon="4.56278">
        <ele>9</ele>
      </trkpt>
      <trkpt lat="50.96461" lon="4.56273">
        <ele>9</ele>
      </trkpt>
      <trkpt lat="50.96488" lon="4.56233">
        <ele>9</ele>
      </trkpt>
      <trkpt lat="50.965" lon="4.56219">
        <ele>9</ele>
      </trkpt>
      <trkpt lat="50.96601" lon="4.56122">
        <ele>8</ele>
      </trkpt>
      <trkpt lat="50.96641" lon="4.56086">
        <ele>8</ele>
      </trkpt>
      <trkpt lat="50.96749" lon="4.55971">
        <ele>8</ele>
      </trkpt>
      <trkpt lat="50.96777" lon="4.55935">
        <ele>9</ele>
      </trkpt>
      <trkpt lat="50.96786" lon="4.55927">
        <ele>9</ele>
      </trkpt>
      <trkpt lat="50.96799" lon="4.5592">
        <ele>9</ele>
      </trkpt>
      <trkpt lat="50.96842" lon="4.55912">
        <ele>9</ele>
      </trkpt>
      <trkpt lat="50.96861" lon="4.55918">
        <ele>9</ele>
      </trkpt>
      <trkpt lat="50.96871" lon="4.55925">
        <ele>9</ele>
      </trkpt>
      <trkpt lat="50.96901" lon="4.55966">
        <ele>9</ele>
      </trkpt>
      <trkpt lat="50.96916" lon="4.55978">
        <ele>9</ele>
      </trkpt>
      <trkpt lat="50.9694" lon="4.55987">
        <ele>9</ele>
      </trkpt>
      <trkpt lat="50.96971" lon="4.55978">
        <ele>9</ele>
      </trkpt>
      <trkpt lat="50.97017" lon="4.55942">
        <ele>8</ele>
      </trkpt>
      <trkpt lat="50.97063" lon="4.559">
        <ele>8</ele>
      </trkpt>
      <trkpt lat="50.97095" lon="4.55878">
        <ele>8</ele>
      </trkpt>
      <trkpt lat="50.97193" lon="4.55839">
        <ele>8</ele>
      </trkpt>
      <trkpt lat="50.97241" lon="4.55819">
        <ele>8</ele>
      </trkpt>
      <trkpt lat="50.97273" lon="4.55812">
        <ele>8</ele>
      </trkpt>
      <trkpt lat="50.97397" lon="4.55833">
        <ele>8</ele>
      </trkpt>
      <trkpt lat="50.97412" lon="4.55839">
        <ele>8</ele>
      </trkpt>
      <trkpt lat="50.97433" lon="4.55857">
        <ele>8</ele>
      </trkpt>
      <trkpt lat="50.97448" lon="4.55877">
        <ele>8</ele>
      </trkpt>
      <trkpt lat="50.97517" lon="4.55775">
        <ele>7</ele>
      </trkpt>
      <trkpt lat="50.97522" lon="4.5576">
        <ele>7</ele>
      </trkpt>
      <trkpt lat="50.97529" lon="4.55754">
        <ele>7</ele>
      </trkpt>
      <trkpt lat="50.97582" lon="4.55675">
        <ele>7</ele>
      </trkpt>
      <trkpt lat="50.97596" lon="4.55643">
        <ele>7</ele>
      </trkpt>
      <trkpt lat="50.97603" lon="4.55633">
        <ele>7</ele>
      </trkpt>
      <trkpt lat="50.9761" lon="4.55622">
        <ele>7</ele>
      </trkpt>
      <trkpt lat="50.97639" lon="4.55589">
        <ele>7</ele>
      </trkpt>
      <trkpt lat="50.97956" lon="4.55115">
        <ele>8</ele>
      </trkpt>
      <trkpt lat="50.98201" lon="4.54749">
        <ele>9</ele>
      </trkpt>
      <trkpt lat="50.98211" lon="4.54731">
        <ele>9</ele>
      </trkpt>
      <trkpt lat="50.98245" lon="4.54685">
        <ele>9</ele>
      </trkpt>
      <trkpt lat="50.98439" lon="4.54392">
        <ele>8</ele>
      </trkpt>
      <trkpt lat="50.98446" lon="4.54374">
        <ele>8</ele>
      </trkpt>
      <trkpt lat="50.98475" lon="4.5433">
        <ele>8</ele>
      </trkpt>
      <trkpt lat="50.98488" lon="4.54319">
        <ele>8</ele>
      </trkpt>
      <trkpt lat="50.98523" lon="4.54271">
        <ele>8</ele>
      </trkpt>
      <trkpt lat="50.98637" lon="4.541">
        <ele>10</ele>
      </trkpt>
      <trkpt lat="50.98675" lon="4.54033">
        <ele>9</ele>
      </trkpt>
      <trkpt lat="50.9872" lon="4.53946">
        <ele>8</ele>
      </trkpt>
      <trkpt lat="50.98841" lon="4.53681">
        <ele>7</ele>
      </trkpt>
      <trkpt lat="50.99118" lon="4.53063">
        <ele>9</ele>
      </trkpt>
      <trkpt lat="50.99155" lon="4.52975">
        <ele>8</ele>
      </trkpt>
      <trkpt lat="50.99163" lon="4.52963">
        <ele>8</ele>
      </trkpt>
      <trkpt lat="50.99217" lon="4.52847">
        <ele>9</ele>
      </trkpt>
      <trkpt lat="50.99247" lon="4.52887">
        <ele>9</ele>
      </trkpt>
      <trkpt lat="50.99258" lon="4.52851">
        <ele>9</ele>
      </trkpt>
      <trkpt lat="50.9927" lon="4.52821">
        <ele>10</ele>
      </trkpt>
      <trkpt lat="50.99337" lon="4.52674">
        <ele>10</ele>
      </trkpt>
      <trkpt lat="50.99629" lon="4.52036">
        <ele>9</ele>
      </trkpt>
      <trkpt lat="50.99673" lon="4.51945">
        <ele>9</ele>
      </trkpt>
      <trkpt lat="50.99678" lon="4.51929">
        <ele>9</ele>
      </trkpt>
      <trkpt lat="50.99802" lon="4.51657">
        <ele>6</ele>
      </trkpt>
      <trkpt lat="51.00229" lon="4.50716">
        <ele>6</ele>
      </trkpt>
      <trkpt lat="51.00359" lon="4.50429">
        <ele>8</ele>
      </trkpt>
      <trkpt lat="51.00425" lon="4.50284">
        <ele>9</ele>
      </trkpt>
      <trkpt lat="51.00449" lon="4.50339">
        <ele>9</ele>
      </trkpt>
      <trkpt lat="51.00463" lon="4.50378">
        <ele>9</ele>
      </trkpt>
      <trkpt lat="51.00512" lon="4.50528">
        <ele>9</ele>
      </trkpt>
      <trkpt lat="51.00563" lon="4.50611">
        <ele>9</ele>
      </trkpt>
      <trkpt lat="51.00624" lon="4.50713">
        <ele>9</ele>
      </trkpt>
      <trkpt lat="51.00656" lon="4.50765">
        <ele>8</ele>
      </trkpt>
      <trkpt lat="51.00655" lon="4.50781">
        <ele>9</ele>
      </trkpt>
      <trkpt lat="51.00624" lon="4.50823">
        <ele>8</ele>
      </trkpt>
      <trkpt lat="51.00621" lon="4.50838">
        <ele>8</ele>
      </trkpt>
      <trkpt lat="51.00625" lon="4.50854">
        <ele>8</ele>
      </trkpt>
      <trkpt lat="51.0067" lon="4.50925">
        <ele>8</ele>
      </trkpt>
      <trkpt lat="51.00729" lon="4.51019">
        <ele>10</ele>
      </trkpt>
      <trkpt lat="51.00755" lon="4.51061">
        <ele>10</ele>
      </trkpt>
      <trkpt lat="51.00762" lon="4.51065">
        <ele>9</ele>
      </trkpt>
      <trkpt lat="51.00766" lon="4.51075">
        <ele>9</ele>
      </trkpt>
      <trkpt lat="51.0079" lon="4.51112">
        <ele>9</ele>
      </trkpt>
      <trkpt lat="51.00773" lon="4.51139">
        <ele>9</ele>
      </trkpt>
      <trkpt lat="51.00738" lon="4.51194">
        <ele>9</ele>
      </trkpt>
      <trkpt lat="51.00757" lon="4.51226">
        <ele>9</ele>
      </trkpt>
      <trkpt lat="51.00765" lon="4.51248">
        <ele>9</ele>
      </trkpt>
      <trkpt lat="51.00764" lon="4.51285">
        <ele>9</ele>
      </trkpt>
      <trkpt lat="51.0073" lon="4.51469">
        <ele>8</ele>
      </trkpt>
      <trkpt lat="51.00728" lon="4.51483">
        <ele>8</ele>
      </trkpt>
      <trkpt lat="51.00728" lon="4.51496">
        <ele>8</ele>
      </trkpt>
      <trkpt lat="51.0073" lon="4.51506">
        <ele>8</ele>
      </trkpt>
      <trkpt lat="51.00736" lon="4.51517">
        <ele>9</ele>
      </trkpt>
      <trkpt lat="51.0076" lon="4.5155">
        <ele>9</ele>
      </trkpt>
      <trkpt lat="51.00779" lon="4.51564">
        <ele>9</ele>
      </trkpt>
      <trkpt lat="51.00796" lon="4.51564">
        <ele>9</ele>
      </trkpt>
      <trkpt lat="51.00927" lon="4.51522">
        <ele>10</ele>
      </trkpt>
      <trkpt lat="51.00943" lon="4.51519">
        <ele>11</ele>
      </trkpt>
      <trkpt lat="51.00954" lon="4.51522">
        <ele>11</ele>
      </trkpt>
      <trkpt lat="51.01004" lon="4.51561">
        <ele>11</ele>
      </trkpt>
      <trkpt lat="51.01046" lon="4.51584">
        <ele>11</ele>
      </trkpt>
      <trkpt lat="51.01038" lon="4.51655">
        <ele>11</ele>
      </trkpt>
      <trkpt lat="51.01033" lon="4.51684">
        <ele>11</ele>
      </trkpt>
      <trkpt lat="51.0098" lon="4.51944">
        <ele>9</ele>
      </trkpt>
      <trkpt lat="51.0108" lon="4.52018">
        <ele>8</ele>
      </trkpt>
      <trkpt lat="51.01101" lon="4.52037">
        <ele>6</ele>
      </trkpt>
      <trkpt lat="51.01113" lon="4.52052">
        <ele>6</ele>
      </trkpt>
      <trkpt lat="51.01157" lon="4.52123">
        <ele>5</ele>
      </trkpt>
      <trkpt lat="51.01162" lon="4.52134">
        <ele>5</ele>
      </trkpt>
      <trkpt lat="51.01169" lon="4.52112">
        <ele>5</ele>
      </trkpt>
      <trkpt lat="51.01179" lon="4.52088">
        <ele>5</ele>
      </trkpt>
      <trkpt lat="51.01169" lon="4.52078">
        <ele>5</ele>
      </trkpt>
      <trkpt lat="51.01189" lon="4.51987">
        <ele>3</ele>
      </trkpt>
      <trkpt lat="51.01194" lon="4.51974">
        <ele>3</ele>
      </trkpt>
      <trkpt lat="51.01197" lon="4.51957">
        <ele>3</ele>
      </trkpt>
      <trkpt lat="51.01199" lon="4.5192">
        <ele>3</ele>
      </trkpt>
      <trkpt lat="51.01199" lon="4.51888">
        <ele>3</ele>
      </trkpt>
      <trkpt lat="51.01193" lon="4.5179">
        <ele>3</ele>
      </trkpt>
      <trkpt lat="51.0119" lon="4.51729">
        <ele>3</ele>
      </trkpt>
      <trkpt lat="51.01192" lon="4.51665">
        <ele>4</ele>
      </trkpt>
      <trkpt lat="51.01201" lon="4.51597">
        <ele>7</ele>
      </trkpt>
      <trkpt lat="51.01207" lon="4.51566">
        <ele>9</ele>
      </trkpt>
      <trkpt lat="51.01216" lon="4.51536">
        <ele>10</ele>
      </trkpt>
      <trkpt lat="51.01225" lon="4.51513">
        <ele>10</ele>
      </trkpt>
      <trkpt lat="51.01233" lon="4.515">
        <ele>9</ele>
      </trkpt>
      <trkpt lat="51.0125" lon="4.51476">
        <ele>10</ele>
      </trkpt>
      <trkpt lat="51.01263" lon="4.51469">
        <ele>10</ele>
      </trkpt>
      <trkpt lat="51.01277" lon="4.51465">
        <ele>8</ele>
      </trkpt>
      <trkpt lat="51.01332" lon="4.51457">
        <ele>7</ele>
      </trkpt>
      <trkpt lat="51.01368" lon="4.51447">
        <ele>5</ele>
      </trkpt>
      <trkpt lat="51.014" lon="4.51436">
        <ele>5</ele>
      </trkpt>
      <trkpt lat="51.01421" lon="4.51414">
        <ele>4</ele>
      </trkpt>
      <trkpt lat="51.01432" lon="4.51397">
        <ele>4</ele>
      </trkpt>
      <trkpt lat="51.0144" lon="4.51379">
        <ele>3</ele>
      </trkpt>
      <trkpt lat="51.01447" lon="4.51358">
        <ele>3</ele>
      </trkpt>
      <trkpt lat="51.0145" lon="4.51338">
        <ele>3</ele>
      </trkpt>
      <trkpt lat="51.01452" lon="4.51319">
        <ele>3</ele>
      </trkpt>
      <trkpt lat="51.01441" lon="4.5122">
        <ele>4</ele>
      </trkpt>
      <trkpt lat="51.01444" lon="4.51191">
        <ele>4</ele>
      </trkpt>
      <trkpt lat="51.01465" lon="4.51142">
        <ele>4</ele>
      </trkpt>
      <trkpt lat="51.01483" lon="4.51107">
        <ele>5</ele>
      </trkpt>
      <trkpt lat="51.01514" lon="4.5105">
        <ele>5</ele>
      </trkpt>
      <trkpt lat="51.01564" lon="4.50974">
        <ele>5</ele>
      </trkpt>
      <trkpt lat="51.01593" lon="4.50933">
        <ele>5</ele>
      </trkpt>
      <trkpt lat="51.01606" lon="4.50919">
        <ele>4</ele>
      </trkpt>
      <trkpt lat="51.0174" lon="4.50807">
        <ele>3</ele>
      </trkpt>
      <trkpt lat="51.01753" lon="4.5079">
        <ele>3</ele>
      </trkpt>
      <trkpt lat="51.01766" lon="4.50769">
        <ele>3</ele>
      </trkpt>
      <trkpt lat="51.01782" lon="4.50732">
        <ele>2</ele>
      </trkpt>
      <trkpt lat="51.01788" lon="4.50698">
        <ele>2</ele>
      </trkpt>
      <trkpt lat="51.01793" lon="4.50555">
        <ele>4</ele>
      </trkpt>
      <trkpt lat="51.01795" lon="4.50509">
        <ele>4</ele>
      </trkpt>
      <trkpt lat="51.01799" lon="4.50471">
        <ele>5</ele>
      </trkpt>
      <trkpt lat="51.01813" lon="4.50398">
        <ele>6</ele>
      </trkpt>
      <trkpt lat="51.01824" lon="4.50366">
        <ele>6</ele>
      </trkpt>
      <trkpt lat="51.01848" lon="4.50309">
        <ele>6</ele>
      </trkpt>
      <trkpt lat="51.0186" lon="4.50289">
        <ele>4</ele>
      </trkpt>
      <trkpt lat="51.01874" lon="4.50273">
        <ele>4</ele>
      </trkpt>
      <trkpt lat="51.01911" lon="4.50243">
        <ele>4</ele>
      </trkpt>
      <trkpt lat="51.01933" lon="4.50231">
        <ele>4</ele>
      </trkpt>
      <trkpt lat="51.01951" lon="4.50224">
        <ele>3</ele>
      </trkpt>
      <trkpt lat="51.02026" lon="4.50201">
        <ele>3</ele>
      </trkpt>
      <trkpt lat="51.02042" lon="4.50192">
        <ele>4</ele>
      </trkpt>
      <trkpt lat="51.02059" lon="4.50179">
        <ele>4</ele>
      </trkpt>
      <trkpt lat="51.02068" lon="4.5017">
        <ele>4</ele>
      </trkpt>
      <trkpt lat="51.02078" lon="4.50156">
        <ele>5</ele>
      </trkpt>
      <trkpt lat="51.02098" lon="4.50114">
        <ele>5</ele>
      </trkpt>
      <trkpt lat="51.02104" lon="4.50095">
        <ele>5</ele>
      </trkpt>
      <trkpt lat="51.02107" lon="4.50072">
        <ele>5</ele>
      </trkpt>
      <trkpt lat="51.02103" lon="4.49927">
        <ele>5</ele>
      </trkpt>
      <trkpt lat="51.02104" lon="4.49899">
        <ele>5</ele>
      </trkpt>
      <trkpt lat="51.02109" lon="4.49875">
        <ele>5</ele>
      </trkpt>
      <trkpt lat="51.02117" lon="4.49855">
        <ele>5</ele>
      </trkpt>
      <trkpt lat="51.02144" lon="4.49822">
        <ele>5</ele>
      </trkpt>
      <trkpt lat="51.02181" lon="4.49798">
        <ele>5</ele>
      </trkpt>
      <trkpt lat="51.02197" lon="4.49793">
        <ele>5</ele>
      </trkpt>
      <trkpt lat="51.02269" lon="4.49793">
        <ele>4</ele>
      </trkpt>
      <trkpt lat="51.0229" lon="4.49789">
        <ele>4</ele>
      </trkpt>
      <trkpt lat="51.02356" lon="4.49764">
        <ele>4</ele>
      </trkpt>
      <trkpt lat="51.02363" lon="4.49769">
        <ele>4</ele>
      </trkpt>
      <trkpt lat="51.02373" lon="4.49767">
        <ele>4</ele>
      </trkpt>
      <trkpt lat="51.02391" lon="4.49745">
        <ele>4</ele>
      </trkpt>
      <trkpt lat="51.02442" lon="4.49693">
        <ele>4</ele>
      </trkpt>
      <trkpt lat="51.02455" lon="4.49672">
        <ele>5</ele>
      </trkpt>
      <trkpt lat="51.02505" lon="4.49566">
        <ele>5</ele>
      </trkpt>
      <trkpt lat="51.02519" lon="4.49548">
        <ele>5</ele>
      </trkpt>
      <trkpt lat="51.02538" lon="4.4953">
        <ele>5</ele>
      </trkpt>
      <trkpt lat="51.02572" lon="4.49509">
        <ele>5</ele>
      </trkpt>
      <trkpt lat="51.0261" lon="4.4949">
        <ele>5</ele>
      </trkpt>
      <trkpt lat="51.0268" lon="4.49444">
        <ele>5</ele>
      </trkpt>
      <trkpt lat="51.02706" lon="4.49417">
        <ele>5</ele>
      </trkpt>
      <trkpt lat="51.02743" lon="4.49367">
        <ele>6</ele>
      </trkpt>
      <trkpt lat="51.02752" lon="4.49353">
        <ele>6</ele>
      </trkpt>
      <trkpt lat="51.02839" lon="4.49197">
        <ele>7</ele>
      </trkpt>
      <trkpt lat="51.02858" lon="4.49165">
        <ele>7</ele>
      </trkpt>
      <trkpt lat="51.02877" lon="4.49103">
        <ele>8</ele>
      </trkpt>
      <trkpt lat="51.02884" lon="4.49103">
        <ele>8</ele>
      </trkpt>
      <trkpt lat="51.0289" lon="4.49085">
        <ele>8</ele>
      </trkpt>
      <trkpt lat="51.02913" lon="4.49085">
        <ele>8</ele>
      </trkpt>
      <trkpt lat="51.02991" lon="4.49086">
        <ele>8</ele>
      </trkpt>
      <trkpt lat="51.03002" lon="4.49102">
        <ele>8</ele>
      </trkpt>
      <trkpt lat="51.03013" lon="4.49098">
        <ele>7</ele>
      </trkpt>
      <trkpt lat="51.03016" lon="4.49094">
        <ele>7</ele>
      </trkpt>
      <trkpt lat="51.03004" lon="4.49072">
        <ele>7</ele>
      </trkpt>
      <trkpt lat="51.02993" lon="4.49041">
        <ele>8</ele>
      </trkpt>
      <trkpt lat="51.02957" lon="4.48979">
        <ele>7</ele>
      </trkpt>
      <trkpt lat="51.02966" lon="4.48958">
        <ele>7</ele>
      </trkpt>
      <trkpt lat="51.02968" lon="4.48941">
        <ele>7</ele>
      </trkpt>
      <trkpt lat="51.02974" lon="4.4894">
        <ele>7</ele>
      </trkpt>
      <trkpt lat="51.03012" lon="4.48936">
        <ele>6</ele>
      </trkpt>
      <trkpt lat="51.03024" lon="4.48964">
        <ele>6</ele>
      </trkpt>
      <trkpt lat="51.03047" lon="4.48964">
        <ele>6</ele>
      </trkpt>
      <trkpt lat="51.0305" lon="4.48978">
        <ele>6</ele>
      </trkpt>
      <trkpt lat="51.03184" lon="4.4898">
        <ele>7</ele>
      </trkpt>
      <trkpt lat="51.03193" lon="4.48983">
        <ele>7</ele>
      </trkpt>
      <trkpt lat="51.03233" lon="4.48986">
        <ele>7</ele>
      </trkpt>
      <trkpt lat="51.03357" lon="4.48994">
        <ele>7</ele>
      </trkpt>
      <trkpt lat="51.03386" lon="4.49005">
        <ele>6</ele>
      </trkpt>
      <trkpt lat="51.03395" lon="4.49005">
        <ele>6</ele>
      </trkpt>
      <trkpt lat="51.03398" lon="4.49001">
        <ele>6</ele>
      </trkpt>
      <trkpt lat="51.03558" lon="4.49029">
        <ele>5</ele>
      </trkpt>
      <trkpt lat="51.03809" lon="4.49086">
        <ele>7</ele>
      </trkpt>
      <trkpt lat="51.03968" lon="4.49126">
        <ele>5</ele>
      </trkpt>
      <trkpt lat="51.04088" lon="4.49145">
        <ele>5</ele>
      </trkpt>
      <trkpt lat="51.04127" lon="4.49151">
        <ele>5</ele>
      </trkpt>
      <trkpt lat="51.04142" lon="4.49164">
        <ele>5</ele>
      </trkpt>
      <trkpt lat="51.04136" lon="4.49181">
        <ele>5</ele>
      </trkpt>
      <trkpt lat="51.0413" lon="4.49223">
        <ele>5</ele>
      </trkpt>
      <trkpt lat="51.04121" lon="4.49271">
        <ele>4</ele>
      </trkpt>
      <trkpt lat="51.04131" lon="4.49281">
        <ele>4</ele>
      </trkpt>
      <trkpt lat="51.0437" lon="4.49401">
        <ele>6</ele>
      </trkpt>
      <trkpt lat="51.04383" lon="4.49398">
        <ele>6</ele>
      </trkpt>
      <trkpt lat="51.04415" lon="4.49411">
        <ele>6</ele>
      </trkpt>
      <trkpt lat="51.04459" lon="4.49421">
        <ele>6</ele>
      </trkpt>
      <trkpt lat="51.04485" lon="4.49428">
        <ele>6</ele>
      </trkpt>
      <trkpt lat="51.04531" lon="4.49428">
        <ele>6</ele>
      </trkpt>
      <trkpt lat="51.04596" lon="4.49421">
        <ele>6</ele>
      </trkpt>
      <trkpt lat="51.04684" lon="4.49402">
        <ele>6</ele>
      </trkpt>
      <trkpt lat="51.04769" lon="4.49387">
        <ele>7</ele>
      </trkpt>
      <trkpt lat="51.04825" lon="4.49386">
        <ele>7</ele>
      </trkpt>
      <trkpt lat="51.04985" lon="4.49398">
        <ele>6</ele>
      </trkpt>
      <trkpt lat="51.0503" lon="4.49403">
        <ele>5</ele>
      </trkpt>
      <trkpt lat="51.05157" lon="4.49418">
        <ele>6</ele>
      </trkpt>
      <trkpt lat="51.05191" lon="4.49436">
        <ele>7</ele>
      </trkpt>
      <trkpt lat="51.05243" lon="4.49485">
        <ele>7</ele>
      </trkpt>
      <trkpt lat="51.05247" lon="4.49486">
        <ele>7</ele>
      </trkpt>
      <trkpt lat="51.05268" lon="4.49509">
        <ele>7</ele>
      </trkpt>
      <trkpt lat="51.05292" lon="4.49537">
        <ele>6</ele>
      </trkpt>
      <trkpt lat="51.05325" lon="4.49581">
        <ele>6</ele>
      </trkpt>
      <trkpt lat="51.0536" lon="4.49639">
        <ele>6</ele>
      </trkpt>
      <trkpt lat="51.05411" lon="4.49572">
        <ele>5</ele>
      </trkpt>
      <trkpt lat="51.05416" lon="4.49552">
        <ele>5</ele>
      </trkpt>
      <trkpt lat="51.05468" lon="4.49494">
        <ele>5</ele>
      </trkpt>
      <trkpt lat="51.05479" lon="4.49491">
        <ele>5</ele>
      </trkpt>
      <trkpt lat="51.05503" lon="4.49492">
        <ele>4</ele>
      </trkpt>
      <trkpt lat="51.05535" lon="4.495">
        <ele>4</ele>
      </trkpt>
      <trkpt lat="51.05617" lon="4.49512">
        <ele>4</ele>
      </trkpt>
      <trkpt lat="51.05864" lon="4.49551">
        <ele>4</ele>
      </trkpt>
      <trkpt lat="51.05919" lon="4.49564">
        <ele>3</ele>
      </trkpt>
      <trkpt lat="51.05968" lon="4.49582">
        <ele>3</ele>
      </trkpt>
      <trkpt lat="51.06079" lon="4.49625">
        <ele>3</ele>
      </trkpt>
      <trkpt lat="51.06174" lon="4.49669">
        <ele>4</ele>
      </trkpt>
      <trkpt lat="51.06215" lon="4.49685">
        <ele>4</ele>
      </trkpt>
      <trkpt lat="51.06235" lon="4.49689">
        <ele>4</ele>
      </trkpt>
      <trkpt lat="51.06285" lon="4.49698">
        <ele>3</ele>
      </trkpt>
      <trkpt lat="51.06372" lon="4.49694">
        <ele>4</ele>
      </trkpt>
      <trkpt lat="51.06583" lon="4.49645">
        <ele>4</ele>
      </trkpt>
      <trkpt lat="51.0664" lon="4.49632">
        <ele>4</ele>
      </trkpt>
      <trkpt lat="51.06736" lon="4.49616">
        <ele>4</ele>
      </trkpt>
      <trkpt lat="51.06858" lon="4.49604">
        <ele>5</ele>
      </trkpt>
      <trkpt lat="51.0693" lon="4.49603">
        <ele>5</ele>
      </trkpt>
      <trkpt lat="51.06945" lon="4.49603">
        <ele>4</ele>
      </trkpt>
      <trkpt lat="51.06954" lon="4.49608">
        <ele>4</ele>
      </trkpt>
      <trkpt lat="51.06957" lon="4.49618">
        <ele>4</ele>
      </trkpt>
      <trkpt lat="51.06958" lon="4.49625">
        <ele>4</ele>
      </trkpt>
      <trkpt lat="51.07033" lon="4.49624">
        <ele>2</ele>
      </trkpt>
      <trkpt lat="51.07039" lon="4.49619">
        <ele>2</ele>
      </trkpt>
      <trkpt lat="51.07111" lon="4.49621">
        <ele>2</ele>
      </trkpt>
      <trkpt lat="51.0727" lon="4.49625">
        <ele>3</ele>
      </trkpt>
      <trkpt lat="51.0728" lon="4.49624">
        <ele>3</ele>
      </trkpt>
      <trkpt lat="51.07306" lon="4.49613">
        <ele>3</ele>
      </trkpt>
      <trkpt lat="51.07399" lon="4.49614">
        <ele>4</ele>
      </trkpt>
      <trkpt lat="51.07683" lon="4.49618">
        <ele>4</ele>
      </trkpt>
      <trkpt lat="51.07796" lon="4.49626">
        <ele>4</ele>
      </trkpt>
      <trkpt lat="51.07806" lon="4.49628">
        <ele>4</ele>
      </trkpt>
      <trkpt lat="51.07853" lon="4.49628">
        <ele>5</ele>
      </trkpt>
      <trkpt lat="51.07863" lon="4.49632">
        <ele>5</ele>
      </trkpt>
      <trkpt lat="51.07956" lon="4.49633">
        <ele>6</ele>
      </trkpt>
      <trkpt lat="51.08121" lon="4.49621">
        <ele>9</ele>
      </trkpt>
      <trkpt lat="51.08173" lon="4.49613">
        <ele>9</ele>
      </trkpt>
      <trkpt lat="51.08285" lon="4.49588">
        <ele>8</ele>
      </trkpt>
      <trkpt lat="51.08388" lon="4.49553">
        <ele>6</ele>
      </trkpt>
      <trkpt lat="51.08441" lon="4.49534">
        <ele>6</ele>
      </trkpt>
      <trkpt lat="51.08444" lon="4.49554">
        <ele>6</ele>
      </trkpt>
      <trkpt lat="51.08448" lon="4.49557">
        <ele>6</ele>
      </trkpt>
      <trkpt lat="51.08524" lon="4.49536">
        <ele>7</ele>
      </trkpt>
      <trkpt lat="51.08543" lon="4.49532">
        <ele>6</ele>
      </trkpt>
      <trkpt lat="51.08547" lon="4.49531">
        <ele>6</ele>
      </trkpt>
      <trkpt lat="51.08574" lon="4.49617">
        <ele>5</ele>
      </trkpt>
      <trkpt lat="51.08591" lon="4.49665">
        <ele>5</ele>
      </trkpt>
      <trkpt lat="51.0861" lon="4.49712">
        <ele>4</ele>
      </trkpt>
      <trkpt lat="51.0864" lon="4.49773">
        <ele>4</ele>
      </trkpt>
      <trkpt lat="51.08665" lon="4.49819">
        <ele>4</ele>
      </trkpt>
      <trkpt lat="51.08692" lon="4.4986">
        <ele>4</ele>
      </trkpt>
      <trkpt lat="51.08728" lon="4.49908">
        <ele>4</ele>
      </trkpt>
      <trkpt lat="51.08763" lon="4.49949">
        <ele>4</ele>
      </trkpt>
      <trkpt lat="51.08893" lon="4.50083">
        <ele>7</ele>
      </trkpt>
      <trkpt lat="51.08934" lon="4.5013">
        <ele>7</ele>
      </trkpt>
      <trkpt lat="51.08964" lon="4.50171">
        <ele>7</ele>
      </trkpt>
      <trkpt lat="51.08995" lon="4.50219">
        <ele>6</ele>
      </trkpt>
      <trkpt lat="51.0902" lon="4.50263">
        <ele>4</ele>
      </trkpt>
      <trkpt lat="51.09126" lon="4.50476">
        <ele>2</ele>
      </trkpt>
      <trkpt lat="51.09157" lon="4.50533">
        <ele>1</ele>
      </trkpt>
      <trkpt lat="51.0919" lon="4.50587">
        <ele>3</ele>
      </trkpt>
      <trkpt lat="51.09225" lon="4.50638">
        <ele>4</ele>
      </trkpt>
      <trkpt lat="51.09293" lon="4.50711">
        <ele>5</ele>
      </trkpt>
      <trkpt lat="51.09323" lon="4.50737">
        <ele>5</ele>
      </trkpt>
      <trkpt lat="51.09338" lon="4.50745">
        <ele>4</ele>
      </trkpt>
      <trkpt lat="51.09382" lon="4.50762">
        <ele>4</ele>
      </trkpt>
      <trkpt lat="51.09407" lon="4.50776">
        <ele>5</ele>
      </trkpt>
      <trkpt lat="51.09467" lon="4.50794">
        <ele>5</ele>
      </trkpt>
      <trkpt lat="51.09474" lon="4.50808">
        <ele>5</ele>
      </trkpt>
      <trkpt lat="51.0948" lon="4.50804">
        <ele>5</ele>
      </trkpt>
      <trkpt lat="51.09491" lon="4.50804">
        <ele>5</ele>
      </trkpt>
      <trkpt lat="51.09497" lon="4.50796">
        <ele>5</ele>
      </trkpt>
      <trkpt lat="51.095" lon="4.50797">
        <ele>5</ele>
      </trkpt>
      <trkpt lat="51.09585" lon="4.50814">
        <ele>5</ele>
      </trkpt>
      <trkpt lat="51.09643" lon="4.50831">
        <ele>6</ele>
      </trkpt>
      <trkpt lat="51.0968" lon="4.50862">
        <ele>6</ele>
      </trkpt>
      <trkpt lat="51.09695" lon="4.50873">
        <ele>6</ele>
      </trkpt>
      <trkpt lat="51.09723" lon="4.50891">
        <ele>7</ele>
      </trkpt>
      <trkpt lat="51.09745" lon="4.50911">
        <ele>7</ele>
      </trkpt>
      <trkpt lat="51.09774" lon="4.50941">
        <ele>8</ele>
      </trkpt>
      <trkpt lat="51.09811" lon="4.50989">
        <ele>8</ele>
      </trkpt>
      <trkpt lat="51.09845" lon="4.51038">
        <ele>8</ele>
      </trkpt>
      <trkpt lat="51.0987" lon="4.5108">
        <ele>8</ele>
      </trkpt>
      <trkpt lat="51.09893" lon="4.51129">
        <ele>9</ele>
      </trkpt>
      <trkpt lat="51.09915" lon="4.51188">
        <ele>9</ele>
      </trkpt>
      <trkpt lat="51.09961" lon="4.51372">
        <ele>5</ele>
      </trkpt>
      <trkpt lat="51.09991" lon="4.51482">
        <ele>5</ele>
      </trkpt>
      <trkpt lat="51.10014" lon="4.51554">
        <ele>5</ele>
      </trkpt>
      <trkpt lat="51.1004" lon="4.51615">
        <ele>5</ele>
      </trkpt>
      <trkpt lat="51.10066" lon="4.51666">
        <ele>5</ele>
      </trkpt>
      <trkpt lat="51.10098" lon="4.51717">
        <ele>4</ele>
      </trkpt>
      <trkpt lat="51.10133" lon="4.51763">
        <ele>3</ele>
      </trkpt>
      <trkpt lat="51.10168" lon="4.51803">
        <ele>3</ele>
      </trkpt>
      <trkpt lat="51.10245" lon="4.51875">
        <ele>3</ele>
      </trkpt>
      <trkpt lat="51.10344" lon="4.51958">
        <ele>3</ele>
      </trkpt>
      <trkpt lat="51.10385" lon="4.51998">
        <ele>3</ele>
      </trkpt>
      <trkpt lat="51.10445" lon="4.52071">
        <ele>4</ele>
      </trkpt>
      <trkpt lat="51.10562" lon="4.52243">
        <ele>3</ele>
      </trkpt>
      <trkpt lat="51.10633" lon="4.52351">
        <ele>4</ele>
      </trkpt>
      <trkpt lat="51.10699" lon="4.52464">
        <ele>6</ele>
      </trkpt>
      <trkpt lat="51.10731" lon="4.52523">
        <ele>6</ele>
      </trkpt>
      <trkpt lat="51.10761" lon="4.52587">
        <ele>6</ele>
      </trkpt>
      <trkpt lat="51.10793" lon="4.52667">
        <ele>5</ele>
      </trkpt>
      <trkpt lat="51.10842" lon="4.52839">
        <ele>4</ele>
      </trkpt>
      <trkpt lat="51.10865" lon="4.52911">
        <ele>3</ele>
      </trkpt>
      <trkpt lat="51.10872" lon="4.52949">
        <ele>3</ele>
      </trkpt>
      <trkpt lat="51.10895" lon="4.53097">
        <ele>3</ele>
      </trkpt>
      <trkpt lat="51.10915" lon="4.53267">
        <ele>3</ele>
      </trkpt>
      <trkpt lat="51.10925" lon="4.53336">
        <ele>3</ele>
      </trkpt>
      <trkpt lat="51.10932" lon="4.5337">
        <ele>3</ele>
      </trkpt>
      <trkpt lat="51.10952" lon="4.5346">
        <ele>2</ele>
      </trkpt>
      <trkpt lat="51.10972" lon="4.53526">
        <ele>2</ele>
      </trkpt>
      <trkpt lat="51.11032" lon="4.53753">
        <ele>2</ele>
      </trkpt>
      <trkpt lat="51.11108" lon="4.54059">
        <ele>3</ele>
      </trkpt>
      <trkpt lat="51.11123" lon="4.54083">
        <ele>3</ele>
      </trkpt>
      <trkpt lat="51.11139" lon="4.54142">
        <ele>3</ele>
      </trkpt>
      <trkpt lat="51.11148" lon="4.54178">
        <ele>3</ele>
      </trkpt>
      <trkpt lat="51.11151" lon="4.54226">
        <ele>3</ele>
      </trkpt>
      <trkpt lat="51.11155" lon="4.54246">
        <ele>3</ele>
      </trkpt>
      <trkpt lat="51.11212" lon="4.54455">
        <ele>1</ele>
      </trkpt>
      <trkpt lat="51.11293" lon="4.54758">
        <ele>2</ele>
      </trkpt>
      <trkpt lat="51.11412" lon="4.55231">
        <ele>3</ele>
      </trkpt>
      <trkpt lat="51.11543" lon="4.55843">
        <ele>4</ele>
      </trkpt>
      <trkpt lat="51.11636" lon="4.56252">
        <ele>3</ele>
      </trkpt>
      <trkpt lat="51.11664" lon="4.56392">
        <ele>3</ele>
      </trkpt>
      <trkpt lat="51.11715" lon="4.56621">
        <ele>3</ele>
      </trkpt>
      <trkpt lat="51.11759" lon="4.56817">
        <ele>2</ele>
      </trkpt>
      <trkpt lat="51.11724" lon="4.56852">
        <ele>2</ele>
      </trkpt>
      <trkpt lat="51.11724" lon="4.56851">
        <ele>2</ele>
      </trkpt>
      <trkpt lat="51.11548" lon="4.57026">
        <ele>1</ele>
      </trkpt>
      <trkpt lat="51.11543" lon="4.57033">
        <ele>1</ele>
      </trkpt>
      <trkpt lat="51.11502" lon="4.57044">
        <ele>2</ele>
      </trkpt>
      <trkpt lat="51.1148" lon="4.57056">
        <ele>2</ele>
      </trkpt>
      <trkpt lat="51.11473" lon="4.57065">
        <ele>2</ele>
      </trkpt>
      <trkpt lat="51.11424" lon="4.57153">
        <ele>3</ele>
      </trkpt>
      <trkpt lat="51.11414" lon="4.57178">
        <ele>3</ele>
      </trkpt>
      <trkpt lat="51.11406" lon="4.57204">
        <ele>3</ele>
      </trkpt>
      <trkpt lat="51.11385" lon="4.57324">
        <ele>3</ele>
      </trkpt>
      <trkpt lat="51.11371" lon="4.57369">
        <ele>3</ele>
      </trkpt>
      <trkpt lat="51.11317" lon="4.57474">
        <ele>4</ele>
      </trkpt>
      <trkpt lat="51.11308" lon="4.57486">
        <ele>4</ele>
      </trkpt>
      <trkpt lat="51.11299" lon="4.57493">
        <ele>4</ele>
      </trkpt>
      <trkpt lat="51.11288" lon="4.57493">
        <ele>4</ele>
      </trkpt>
      <trkpt lat="51.11088" lon="4.57419">
        <ele>4</ele>
      </trkpt>
      <trkpt lat="51.11073" lon="4.57407">
        <ele>4</ele>
      </trkpt>
      <trkpt lat="51.1106" lon="4.57387">
        <ele>4</ele>
      </trkpt>
      <trkpt lat="51.11011" lon="4.57259">
        <ele>4</ele>
      </trkpt>
      <trkpt lat="51.10997" lon="4.57235">
        <ele>4</ele>
      </trkpt>
      <trkpt lat="51.10987" lon="4.57229">
        <ele>4</ele>
      </trkpt>
      <trkpt lat="51.10862" lon="4.56975">
        <ele>4</ele>
      </trkpt>
      <trkpt lat="51.10841" lon="4.56952">
        <ele>4</ele>
      </trkpt>
      <trkpt lat="51.10694" lon="4.56817">
        <ele>3</ele>
      </trkpt>
      <trkpt lat="51.10683" lon="4.56813">
        <ele>3</ele>
      </trkpt>
      <trkpt lat="51.10675" lon="4.56816">
        <ele>3</ele>
      </trkpt>
      <trkpt lat="51.10669" lon="4.56824">
        <ele>3</ele>
      </trkpt>
      <trkpt lat="51.10647" lon="4.56864">
        <ele>4</ele>
      </trkpt>
      <trkpt lat="51.10609" lon="4.56935">
        <ele>4</ele>
      </trkpt>
      <trkpt lat="51.10601" lon="4.56943">
        <ele>4</ele>
      </trkpt>
      <trkpt lat="51.10588" lon="4.56949">
        <ele>4</ele>
      </trkpt>
      <trkpt lat="51.10522" lon="4.56947">
        <ele>4</ele>
      </trkpt>
      <trkpt lat="51.10487" lon="4.5694">
        <ele>3</ele>
      </trkpt>
      <trkpt lat="51.10473" lon="4.56931">
        <ele>3</ele>
      </trkpt>
      <trkpt lat="51.10458" lon="4.56916">
        <ele>4</ele>
      </trkpt>
      <trkpt lat="51.10446" lon="4.56894">
        <ele>4</ele>
      </trkpt>
      <trkpt lat="51.10419" lon="4.56825">
        <ele>4</ele>
      </trkpt>
      <trkpt lat="51.10394" lon="4.56692">
        <ele>4</ele>
      </trkpt>
      <trkpt lat="51.10376" lon="4.56581">
        <ele>5</ele>
      </trkpt>
      <trkpt lat="51.10349" lon="4.56459">
        <ele>5</ele>
      </trkpt>
      <trkpt lat="51.10271" lon="4.5645">
        <ele>5</ele>
      </trkpt>
      <trkpt lat="51.09907" lon="4.56457">
        <ele>4</ele>
      </trkpt>
      <trkpt lat="51.09884" lon="4.56459">
        <ele>4</ele>
      </trkpt>
      <trkpt lat="51.09869" lon="4.56464">
        <ele>4</ele>
      </trkpt>
      <trkpt lat="51.09862" lon="4.56446">
        <ele>4</ele>
      </trkpt>
      <trkpt lat="51.09841" lon="4.56449">
        <ele>4</ele>
      </trkpt>
      <trkpt lat="51.09818" lon="4.56455">
        <ele>4</ele>
      </trkpt>
      <trkpt lat="51.098" lon="4.56463">
        <ele>4</ele>
      </trkpt>
      <trkpt lat="51.09779" lon="4.56476">
        <ele>4</ele>
      </trkpt>
      <trkpt lat="51.09758" lon="4.56492">
        <ele>4</ele>
      </trkpt>
      <trkpt lat="51.09735" lon="4.56515">
        <ele>4</ele>
      </trkpt>
      <trkpt lat="51.09725" lon="4.56528">
        <ele>4</ele>
      </trkpt>
      <trkpt lat="51.09711" lon="4.56554">
        <ele>4</ele>
      </trkpt>
      <trkpt lat="51.09694" lon="4.56596">
        <ele>4</ele>
      </trkpt>
      <trkpt lat="51.09639" lon="4.56749">
        <ele>4</ele>
      </trkpt>
      <trkpt lat="51.09626" lon="4.56783">
        <ele>4</ele>
      </trkpt>
      <trkpt lat="51.09587" lon="4.56846">
        <ele>5</ele>
      </trkpt>
      <trkpt lat="51.09474" lon="4.57024">
        <ele>5</ele>
      </trkpt>
      <trkpt lat="51.09441" lon="4.57064">
        <ele>5</ele>
      </trkpt>
      <trkpt lat="51.09352" lon="4.57161">
        <ele>6</ele>
      </trkpt>
      <trkpt lat="51.09334" lon="4.5719">
        <ele>6</ele>
      </trkpt>
      <trkpt lat="51.09284" lon="4.57308">
        <ele>6</ele>
      </trkpt>
      <trkpt lat="51.09268" lon="4.57335">
        <ele>6</ele>
      </trkpt>
      <trkpt lat="51.09247" lon="4.57362">
        <ele>7</ele>
      </trkpt>
      <trkpt lat="51.09172" lon="4.57445">
        <ele>8</ele>
      </trkpt>
      <trkpt lat="51.09166" lon="4.5739">
        <ele>7</ele>
      </trkpt>
      <trkpt lat="51.09163" lon="4.57384">
        <ele>7</ele>
      </trkpt>
      <trkpt lat="51.09159" lon="4.5738">
        <ele>7</ele>
      </trkpt>
      <trkpt lat="51.09154" lon="4.57379">
        <ele>7</ele>
      </trkpt>
      <trkpt lat="51.09128" lon="4.57388">
        <ele>7</ele>
      </trkpt>
      <trkpt lat="51.09093" lon="4.57397">
        <ele>7</ele>
      </trkpt>
      <trkpt lat="51.09055" lon="4.57431">
        <ele>9</ele>
      </trkpt>
      <trkpt lat="51.09013" lon="4.57462">
        <ele>9</ele>
      </trkpt>
      <trkpt lat="51.08947" lon="4.575">
        <ele>10</ele>
      </trkpt>
      <trkpt lat="51.08933" lon="4.57504">
        <ele>9</ele>
      </trkpt>
      <trkpt lat="51.08895" lon="4.57497">
        <ele>9</ele>
      </trkpt>
      <trkpt lat="51.08873" lon="4.57502">
        <ele>9</ele>
      </trkpt>
      <trkpt lat="51.08836" lon="4.57523">
        <ele>9</ele>
      </trkpt>
      <trkpt lat="51.08822" lon="4.57527">
        <ele>9</ele>
      </trkpt>
      <trkpt lat="51.08814" lon="4.57524">
        <ele>9</ele>
      </trkpt>
      <trkpt lat="51.08791" lon="4.57501">
        <ele>9</ele>
      </trkpt>
      <trkpt lat="51.08743" lon="4.57444">
        <ele>8</ele>
      </trkpt>
      <trkpt lat="51.08719" lon="4.57405">
        <ele>8</ele>
      </trkpt>
      <trkpt lat="51.08674" lon="4.57354">
        <ele>8</ele>
      </trkpt>
      <trkpt lat="51.08657" lon="4.57341">
        <ele>8</ele>
      </trkpt>
      <trkpt lat="51.0865" lon="4.57333">
        <ele>8</ele>
      </trkpt>
      <trkpt lat="51.08652" lon="4.57317">
        <ele>8</ele>
      </trkpt>
      <trkpt lat="51.08655" lon="4.57252">
        <ele>8</ele>
      </trkpt>
      <trkpt lat="51.08658" lon="4.57084">
        <ele>9</ele>
      </trkpt>
      <trkpt lat="51.0866" lon="4.57051">
        <ele>9</ele>
      </trkpt>
      <trkpt lat="51.08666" lon="4.57013">
        <ele>9</ele>
      </trkpt>
      <trkpt lat="51.08678" lon="4.56954">
        <ele>10</ele>
      </trkpt>
      <trkpt lat="51.08616" lon="4.5692">
        <ele>10</ele>
      </trkpt>
      <trkpt lat="51.08603" lon="4.56913">
        <ele>9</ele>
      </trkpt>
      <trkpt lat="51.0859" lon="4.56901">
        <ele>9</ele>
      </trkpt>
      <trkpt lat="51.08456" lon="4.56709">
        <ele>9</ele>
      </trkpt>
      <trkpt lat="51.08279" lon="4.5645">
        <ele>11</ele>
      </trkpt>
      <trkpt lat="51.08269" lon="4.56438">
        <ele>11</ele>
      </trkpt>
      <trkpt lat="51.08252" lon="4.56427">
        <ele>11</ele>
      </trkpt>
      <trkpt lat="51.08138" lon="4.56399">
        <ele>11</ele>
      </trkpt>
      <trkpt lat="51.07967" lon="4.56272">
        <ele>13</ele>
      </trkpt>
      <trkpt lat="51.07873" lon="4.56201">
        <ele>12</ele>
      </trkpt>
      <trkpt lat="51.07859" lon="4.56196">
        <ele>12</ele>
      </trkpt>
      <trkpt lat="51.07681" lon="4.56533">
        <ele>13</ele>
      </trkpt>
      <trkpt lat="51.07676" lon="4.56556">
        <ele>14</ele>
      </trkpt>
      <trkpt lat="51.07675" lon="4.56592">
        <ele>15</ele>
      </trkpt>
      <trkpt lat="51.0767" lon="4.56634">
        <ele>15</ele>
      </trkpt>
      <trkpt lat="51.07608" lon="4.56858">
        <ele>18</ele>
      </trkpt>
      <trkpt lat="51.07602" lon="4.56901">
        <ele>18</ele>
      </trkpt>
      <trkpt lat="51.07555" lon="4.57233">
        <ele>15</ele>
      </trkpt>
      <trkpt lat="51.07553" lon="4.57257">
        <ele>15</ele>
      </trkpt>
      <trkpt lat="51.07552" lon="4.57282">
        <ele>15</ele>
      </trkpt>
      <trkpt lat="51.07558" lon="4.57473">
        <ele>14</ele>
      </trkpt>
      <trkpt lat="51.07407" lon="4.57575">
        <ele>14</ele>
      </trkpt>
      <trkpt lat="51.07378" lon="4.57533">
        <ele>14</ele>
      </trkpt>
      <trkpt lat="51.07329" lon="4.5748">
        <ele>13</ele>
      </trkpt>
      <trkpt lat="51.07237" lon="4.57411">
        <ele>14</ele>
      </trkpt>
      <trkpt lat="51.07212" lon="4.5739">
        <ele>14</ele>
      </trkpt>
      <trkpt lat="51.071" lon="4.5745">
        <ele>16</ele>
      </trkpt>
      <trkpt lat="51.07085" lon="4.57462">
        <ele>16</ele>
      </trkpt>
      <trkpt lat="51.06997" lon="4.57533">
        <ele>16</ele>
      </trkpt>
      <trkpt lat="51.0689" lon="4.57625">
        <ele>16</ele>
      </trkpt>
      <trkpt lat="51.06868" lon="4.57641">
        <ele>17</ele>
      </trkpt>
      <trkpt lat="51.0683" lon="4.57662">
        <ele>17</ele>
      </trkpt>
      <trkpt lat="51.06793" lon="4.57677">
        <ele>18</ele>
      </trkpt>
      <trkpt lat="51.06749" lon="4.57688">
        <ele>18</ele>
      </trkpt>
      <trkpt lat="51.06698" lon="4.57698">
        <ele>18</ele>
      </trkpt>
      <trkpt lat="51.06668" lon="4.57709">
        <ele>18</ele>
      </trkpt>
      <trkpt lat="51.0665" lon="4.57723">
        <ele>18</ele>
      </trkpt>
      <trkpt lat="51.06639" lon="4.57735">
        <ele>18</ele>
      </trkpt>
      <trkpt lat="51.0661" lon="4.57775">
        <ele>18</ele>
      </trkpt>
      <trkpt lat="51.06469" lon="4.57996">
        <ele>22</ele>
      </trkpt>
      <trkpt lat="51.06457" lon="4.58009">
        <ele>22</ele>
      </trkpt>
      <trkpt lat="51.06418" lon="4.58045">
        <ele>23</ele>
      </trkpt>
      <trkpt lat="51.064" lon="4.58057">
        <ele>23</ele>
      </trkpt>
      <trkpt lat="51.06367" lon="4.58066">
        <ele>23</ele>
      </trkpt>
      <trkpt lat="51.06329" lon="4.58067">
        <ele>23</ele>
      </trkpt>
      <trkpt lat="51.06308" lon="4.5807">
        <ele>22</ele>
      </trkpt>
      <trkpt lat="51.06247" lon="4.58101">
        <ele>21</ele>
      </trkpt>
      <trkpt lat="51.06237" lon="4.58052">
        <ele>22</ele>
      </trkpt>
      <trkpt lat="51.0621" lon="4.57936">
        <ele>21</ele>
      </trkpt>
      <trkpt lat="51.06204" lon="4.57917">
        <ele>21</ele>
      </trkpt>
      <trkpt lat="51.06192" lon="4.57895">
        <ele>20</ele>
      </trkpt>
      <trkpt lat="51.05977" lon="4.57687">
        <ele>17</ele>
      </trkpt>
      <trkpt lat="51.05964" lon="4.57672">
        <ele>16</ele>
      </trkpt>
      <trkpt lat="51.05927" lon="4.57636">
        <ele>15</ele>
      </trkpt>
      <trkpt lat="51.0591" lon="4.5762">
        <ele>15</ele>
      </trkpt>
      <trkpt lat="51.05897" lon="4.57611">
        <ele>14</ele>
      </trkpt>
      <trkpt lat="51.05703" lon="4.57423">
        <ele>12</ele>
      </trkpt>
      <trkpt lat="51.0555" lon="4.5729">
        <ele>11</ele>
      </trkpt>
      <trkpt lat="51.05523" lon="4.57252">
        <ele>11</ele>
      </trkpt>
      <trkpt lat="51.05509" lon="4.57218">
        <ele>10</ele>
      </trkpt>
      <trkpt lat="51.05501" lon="4.57186">
        <ele>10</ele>
      </trkpt>
      <trkpt lat="51.05498" lon="4.57154">
        <ele>11</ele>
      </trkpt>
      <trkpt lat="51.05497" lon="4.57124">
        <ele>11</ele>
      </trkpt>
      <trkpt lat="51.05534" lon="4.56757">
        <ele>11</ele>
      </trkpt>
      <trkpt lat="51.0555" lon="4.5662">
        <ele>12</ele>
      </trkpt>
      <trkpt lat="51.05532" lon="4.566">
        <ele>12</ele>
      </trkpt>
      <trkpt lat="51.0552" lon="4.56591">
        <ele>12</ele>
      </trkpt>
      <trkpt lat="51.05514" lon="4.56587">
        <ele>12</ele>
      </trkpt>
      <trkpt lat="51.05421" lon="4.56564">
        <ele>12</ele>
      </trkpt>
      <trkpt lat="51.05348" lon="4.56542">
        <ele>12</ele>
      </trkpt>
      <trkpt lat="51.05296" lon="4.56531">
        <ele>12</ele>
      </trkpt>
      <trkpt lat="51.05201" lon="4.56511">
        <ele>10</ele>
      </trkpt>
      <trkpt lat="51.04974" lon="4.56454">
        <ele>6</ele>
      </trkpt>
      <trkpt lat="51.04818" lon="4.56415">
        <ele>6</ele>
      </trkpt>
      <trkpt lat="51.04799" lon="4.56401">
        <ele>5</ele>
      </trkpt>
      <trkpt lat="51.04792" lon="4.56395">
        <ele>5</ele>
      </trkpt>
      <trkpt lat="51.04767" lon="4.5636">
        <ele>5</ele>
      </trkpt>
      <trkpt lat="51.04752" lon="4.5632">
        <ele>5</ele>
      </trkpt>
      <trkpt lat="51.04747" lon="4.56301">
        <ele>5</ele>
      </trkpt>
      <trkpt lat="51.04742" lon="4.56259">
        <ele>5</ele>
      </trkpt>
      <trkpt lat="51.04738" lon="4.56132">
        <ele>6</ele>
      </trkpt>
      <trkpt lat="51.04729" lon="4.55974">
        <ele>6</ele>
      </trkpt>
      <trkpt lat="51.04722" lon="4.55905">
        <ele>6</ele>
      </trkpt>
      <trkpt lat="51.04712" lon="4.5586">
        <ele>6</ele>
      </trkpt>
      <trkpt lat="51.04706" lon="4.5584">
        <ele>6</ele>
      </trkpt>
      <trkpt lat="51.04693" lon="4.55807">
        <ele>6</ele>
      </trkpt>
      <trkpt lat="51.04679" lon="4.55779">
        <ele>6</ele>
      </trkpt>
      <trkpt lat="51.04628" lon="4.55703">
        <ele>6</ele>
      </trkpt>
      <trkpt lat="51.04582" lon="4.5564">
        <ele>6</ele>
      </trkpt>
      <trkpt lat="51.04568" lon="4.55625">
        <ele>6</ele>
      </trkpt>
      <trkpt lat="51.04545" lon="4.55607">
        <ele>6</ele>
      </trkpt>
      <trkpt lat="51.04532" lon="4.55599">
        <ele>6</ele>
      </trkpt>
      <trkpt lat="51.04502" lon="4.55587">
        <ele>6</ele>
      </trkpt>
      <trkpt lat="51.04404" lon="4.55557">
        <ele>6</ele>
      </trkpt>
      <trkpt lat="51.0438" lon="4.55543">
        <ele>7</ele>
      </trkpt>
      <trkpt lat="51.04147" lon="4.55314">
        <ele>5</ele>
      </trkpt>
      <trkpt lat="51.04126" lon="4.55298">
        <ele>5</ele>
      </trkpt>
      <trkpt lat="51.04114" lon="4.5529">
        <ele>5</ele>
      </trkpt>
      <trkpt lat="51.03958" lon="4.55229">
        <ele>6</ele>
      </trkpt>
      <trkpt lat="51.03839" lon="4.55185">
        <ele>6</ele>
      </trkpt>
      <trkpt lat="51.03812" lon="4.55178">
        <ele>6</ele>
      </trkpt>
      <trkpt lat="51.03774" lon="4.55178">
        <ele>6</ele>
      </trkpt>
      <trkpt lat="51.03597" lon="4.55187">
        <ele>5</ele>
      </trkpt>
      <trkpt lat="51.03605" lon="4.54999">
        <ele>6</ele>
      </trkpt>
      <trkpt lat="51.03603" lon="4.54963">
        <ele>6</ele>
      </trkpt>
      <trkpt lat="51.03589" lon="4.54757">
        <ele>6</ele>
      </trkpt>
      <trkpt lat="51.03554" lon="4.54528">
        <ele>7</ele>
      </trkpt>
      <trkpt lat="51.03526" lon="4.5426">
        <ele>8</ele>
      </trkpt>
      <trkpt lat="51.03509" lon="4.54176">
        <ele>8</ele>
      </trkpt>
      <trkpt lat="51.03463" lon="4.53997">
        <ele>7</ele>
      </trkpt>
      <trkpt lat="51.03433" lon="4.53852">
        <ele>8</ele>
      </trkpt>
      <trkpt lat="51.03404" lon="4.53665">
        <ele>6</ele>
      </trkpt>
      <trkpt lat="51.03207" lon="4.53768">
        <ele>9</ele>
      </trkpt>
      <trkpt lat="51.03075" lon="4.53839">
        <ele>12</ele>
      </trkpt>
      <trkpt lat="51.02993" lon="4.53881">
        <ele>12</ele>
      </trkpt>
      <trkpt lat="51.02987" lon="4.53891">
        <ele>12</ele>
      </trkpt>
      <trkpt lat="51.02873" lon="4.53696">
        <ele>9</ele>
      </trkpt>
      <trkpt lat="51.0281" lon="4.53556">
        <ele>5</ele>
      </trkpt>
      <trkpt lat="51.02785" lon="4.53505">
        <ele>5</ele>
      </trkpt>
      <trkpt lat="51.02762" lon="4.53479">
        <ele>6</ele>
      </trkpt>
      <trkpt lat="51.02669" lon="4.53468">
        <ele>8</ele>
      </trkpt>
      <trkpt lat="51.02661" lon="4.53461">
        <ele>8</ele>
      </trkpt>
      <trkpt lat="51.02646" lon="4.53505">
        <ele>7</ele>
      </trkpt>
      <trkpt lat="51.02644" lon="4.53512">
        <ele>7</ele>
      </trkpt>
      <trkpt lat="51.02636" lon="4.53505">
        <ele>7</ele>
      </trkpt>
      <trkpt lat="51.02614" lon="4.53454">
        <ele>8</ele>
      </trkpt>
      <trkpt lat="51.0261" lon="4.53442">
        <ele>8</ele>
      </trkpt>
      <trkpt lat="51.02609" lon="4.53442">
        <ele>8</ele>
      </trkpt>
      <trkpt lat="51.02527" lon="4.53239">
        <ele>9</ele>
      </trkpt>
      <trkpt lat="51.0252" lon="4.53226">
        <ele>9</ele>
      </trkpt>
      <trkpt lat="51.02511" lon="4.53213">
        <ele>9</ele>
      </trkpt>
      <trkpt lat="51.02493" lon="4.53192">
        <ele>9</ele>
      </trkpt>
      <trkpt lat="51.02439" lon="4.53142">
        <ele>9</ele>
      </trkpt>
      <trkpt lat="51.02419" lon="4.5312">
        <ele>9</ele>
      </trkpt>
      <trkpt lat="51.02388" lon="4.53073">
        <ele>9</ele>
      </trkpt>
      <trkpt lat="51.02376" lon="4.53064">
        <ele>9</ele>
      </trkpt>
      <trkpt lat="51.02366" lon="4.5306">
        <ele>9</ele>
      </trkpt>
      <trkpt lat="51.02341" lon="4.53058">
        <ele>8</ele>
      </trkpt>
      <trkpt lat="51.02282" lon="4.53057">
        <ele>8</ele>
      </trkpt>
      <trkpt lat="51.02269" lon="4.53047">
        <ele>7</ele>
      </trkpt>
      <trkpt lat="51.02258" lon="4.53034">
        <ele>6</ele>
      </trkpt>
      <trkpt lat="51.02246" lon="4.53011">
        <ele>6</ele>
      </trkpt>
      <trkpt lat="51.02189" lon="4.52886">
        <ele>4</ele>
      </trkpt>
      <trkpt lat="51.02168" lon="4.52838">
        <ele>3</ele>
      </trkpt>
      <trkpt lat="51.02141" lon="4.52796">
        <ele>3</ele>
      </trkpt>
      <trkpt lat="51.02073" lon="4.52691">
        <ele>3</ele>
      </trkpt>
      <trkpt lat="51.02049" lon="4.52666">
        <ele>3</ele>
      </trkpt>
      <trkpt lat="51.02041" lon="4.52664">
        <ele>3</ele>
      </trkpt>
      <trkpt lat="51.02031" lon="4.52666">
        <ele>3</ele>
      </trkpt>
      <trkpt lat="51.0193" lon="4.52729">
        <ele>6</ele>
      </trkpt>
      <trkpt lat="51.01927" lon="4.52699">
        <ele>6</ele>
      </trkpt>
      <trkpt lat="51.01921" lon="4.52621">
        <ele>5</ele>
      </trkpt>
      <trkpt lat="51.01903" lon="4.52447">
        <ele>2</ele>
      </trkpt>
      <trkpt lat="51.01901" lon="4.52315">
        <ele>1</ele>
      </trkpt>
      <trkpt lat="51.01891" lon="4.52226">
        <ele>2</ele>
      </trkpt>
      <trkpt lat="51.01884" lon="4.52119">
        <ele>2</ele>
      </trkpt>
      <trkpt lat="51.01878" lon="4.52087">
        <ele>2</ele>
      </trkpt>
      <trkpt lat="51.01829" lon="4.51868">
        <ele>2</ele>
      </trkpt>
      <trkpt lat="51.01823" lon="4.51854">
        <ele>2</ele>
      </trkpt>
      <trkpt lat="51.01789" lon="4.51818">
        <ele>2</ele>
      </trkpt>
      <trkpt lat="51.01753" lon="4.51788">
        <ele>3</ele>
      </trkpt>
      <trkpt lat="51.01682" lon="4.5172">
        <ele>4</ele>
      </trkpt>
      <trkpt lat="51.01646" lon="4.5167">
        <ele>4</ele>
      </trkpt>
      <trkpt lat="51.01642" lon="4.51653">
        <ele>4</ele>
      </trkpt>
      <trkpt lat="51.0164" lon="4.51635">
        <ele>4</ele>
      </trkpt>
      <trkpt lat="51.0163" lon="4.51612">
        <ele>4</ele>
      </trkpt>
      <trkpt lat="51.01624" lon="4.51607">
        <ele>4</ele>
      </trkpt>
      <trkpt lat="51.01505" lon="4.51776">
        <ele>3</ele>
      </trkpt>
      <trkpt lat="51.01496" lon="4.51783">
        <ele>3</ele>
      </trkpt>
      <trkpt lat="51.01435" lon="4.51779">
        <ele>4</ele>
      </trkpt>
      <trkpt lat="51.01408" lon="4.51785">
        <ele>3</ele>
      </trkpt>
      <trkpt lat="51.01387" lon="4.51797">
        <ele>3</ele>
      </trkpt>
      <trkpt lat="51.0137" lon="4.51817">
        <ele>3</ele>
      </trkpt>
      <trkpt lat="51.01339" lon="4.5186">
        <ele>2</ele>
      </trkpt>
      <trkpt lat="51.01311" lon="4.519">
        <ele>2</ele>
      </trkpt>
      <trkpt lat="51.01199" lon="4.52045">
        <ele>4</ele>
      </trkpt>
      <trkpt lat="51.01169" lon="4.52112">
        <ele>5</ele>
      </trkpt>
      <trkpt lat="51.01162" lon="4.52134">
        <ele>5</ele>
      </trkpt>
      <trkpt lat="51.01157" lon="4.52123">
        <ele>5</ele>
      </trkpt>
      <trkpt lat="51.0111" lon="4.52047">
        <ele>6</ele>
      </trkpt>
      <trkpt lat="51.01101" lon="4.52037">
        <ele>6</ele>
      </trkpt>
      <trkpt lat="51.0108" lon="4.52018">
        <ele>8</ele>
      </trkpt>
      <trkpt lat="51.01" lon="4.5196">
        <ele>9</ele>
      </trkpt>
      <trkpt lat="51.0098" lon="4.51944">
        <ele>9</ele>
      </trkpt>
      <trkpt lat="51.00826" lon="4.52255">
        <ele>7</ele>
      </trkpt>
      <trkpt lat="51.00745" lon="4.52394">
        <ele>6</ele>
      </trkpt>
      <trkpt lat="51.00718" lon="4.52444">
        <ele>5</ele>
      </trkpt>
      <trkpt lat="51.00678" lon="4.52546">
        <ele>5</ele>
      </trkpt>
      <trkpt lat="51.00657" lon="4.5259">
        <ele>4</ele>
      </trkpt>
      <trkpt lat="51.00649" lon="4.52608">
        <ele>4</ele>
      </trkpt>
      <trkpt lat="51.00629" lon="4.52641">
        <ele>4</ele>
      </trkpt>
      <trkpt lat="51.0059" lon="4.52698">
        <ele>3</ele>
      </trkpt>
      <trkpt lat="51.00579" lon="4.5271">
        <ele>3</ele>
      </trkpt>
      <trkpt lat="51.00567" lon="4.52723">
        <ele>3</ele>
      </trkpt>
      <trkpt lat="51.00492" lon="4.52782">
        <ele>3</ele>
      </trkpt>
      <trkpt lat="51.00459" lon="4.52798">
        <ele>3</ele>
      </trkpt>
      <trkpt lat="51.0044" lon="4.52811">
        <ele>3</ele>
      </trkpt>
      <trkpt lat="51.00368" lon="4.52878">
        <ele>4</ele>
      </trkpt>
      <trkpt lat="51.00308" lon="4.52941">
        <ele>4</ele>
      </trkpt>
      <trkpt lat="51.0027" lon="4.53008">
        <ele>3</ele>
      </trkpt>
      <trkpt lat="51.00227" lon="4.53067">
        <ele>3</ele>
      </trkpt>
      <trkpt lat="51.00218" lon="4.53075">
        <ele>3</ele>
      </trkpt>
      <trkpt lat="51.00196" lon="4.53085">
        <ele>3</ele>
      </trkpt>
      <trkpt lat="51.00151" lon="4.53109">
        <ele>4</ele>
      </trkpt>
      <trkpt lat="51.00143" lon="4.53125">
        <ele>4</ele>
      </trkpt>
      <trkpt lat="51.00137" lon="4.53146">
        <ele>5</ele>
      </trkpt>
      <trkpt lat="51.00133" lon="4.53179">
        <ele>5</ele>
      </trkpt>
      <trkpt lat="51.00133" lon="4.53267">
        <ele>5</ele>
      </trkpt>
      <trkpt lat="51.00097" lon="4.53385">
        <ele>6</ele>
      </trkpt>
      <trkpt lat="50.99999" lon="4.53635">
        <ele>6</ele>
      </trkpt>
      <trkpt lat="50.9994" lon="4.53798">
        <ele>5</ele>
      </trkpt>
      <trkpt lat="50.99912" lon="4.53842">
        <ele>6</ele>
      </trkpt>
      <trkpt lat="50.99912" lon="4.53843">
        <ele>6</ele>
      </trkpt>
      <trkpt lat="50.99905" lon="4.5385">
        <ele>6</ele>
      </trkpt>
      <trkpt lat="50.99842" lon="4.53901">
        <ele>7</ele>
      </trkpt>
      <trkpt lat="50.99816" lon="4.53924">
        <ele>7</ele>
      </trkpt>
      <trkpt lat="50.99801" lon="4.53925">
        <ele>7</ele>
      </trkpt>
      <trkpt lat="50.99798" lon="4.53957">
        <ele>7</ele>
      </trkpt>
      <trkpt lat="50.99784" lon="4.54038">
        <ele>6</ele>
      </trkpt>
      <trkpt lat="50.99774" lon="4.54089">
        <ele>6</ele>
      </trkpt>
      <trkpt lat="50.99726" lon="4.54361">
        <ele>6</ele>
      </trkpt>
      <trkpt lat="50.99715" lon="4.54452">
        <ele>6</ele>
      </trkpt>
      <trkpt lat="50.99699" lon="4.54592">
        <ele>7</ele>
      </trkpt>
      <trkpt lat="50.9969" lon="4.5475">
        <ele>7</ele>
      </trkpt>
      <trkpt lat="50.99683" lon="4.54815">
        <ele>7</ele>
      </trkpt>
      <trkpt lat="50.99672" lon="4.54865">
        <ele>7</ele>
      </trkpt>
      <trkpt lat="50.9966" lon="4.54901">
        <ele>7</ele>
      </trkpt>
      <trkpt lat="50.99648" lon="4.54932">
        <ele>7</ele>
      </trkpt>
      <trkpt lat="50.99634" lon="4.54961">
        <ele>7</ele>
      </trkpt>
      <trkpt lat="50.99616" lon="4.54994">
        <ele>7</ele>
      </trkpt>
      <trkpt lat="50.9954" lon="4.55091">
        <ele>7</ele>
      </trkpt>
      <trkpt lat="50.99467" lon="4.5518">
        <ele>8</ele>
      </trkpt>
      <trkpt lat="50.99369" lon="4.5531">
        <ele>9</ele>
      </trkpt>
      <trkpt lat="50.99358" lon="4.55328">
        <ele>9</ele>
      </trkpt>
      <trkpt lat="50.99336" lon="4.55373">
        <ele>9</ele>
      </trkpt>
      <trkpt lat="50.99313" lon="4.5543">
        <ele>9</ele>
      </trkpt>
      <trkpt lat="50.99304" lon="4.55439">
        <ele>9</ele>
      </trkpt>
      <trkpt lat="50.99265" lon="4.55467">
        <ele>9</ele>
      </trkpt>
      <trkpt lat="50.9926" lon="4.55474">
        <ele>9</ele>
      </trkpt>
      <trkpt lat="50.99257" lon="4.55481">
        <ele>9</ele>
      </trkpt>
      <trkpt lat="50.99256" lon="4.55514">
        <ele>9</ele>
      </trkpt>
      <trkpt lat="50.99249" lon="4.55525">
        <ele>9</ele>
      </trkpt>
      <trkpt lat="50.9923" lon="4.55535">
        <ele>9</ele>
      </trkpt>
      <trkpt lat="50.99211" lon="4.55552">
        <ele>9</ele>
      </trkpt>
      <trkpt lat="50.99142" lon="4.55631">
        <ele>10</ele>
      </trkpt>
      <trkpt lat="50.99084" lon="4.55667">
        <ele>9</ele>
      </trkpt>
      <trkpt lat="50.99084" lon="4.55668">
        <ele>9</ele>
      </trkpt>
      <trkpt lat="50.99002" lon="4.55716">
        <ele>8</ele>
      </trkpt>
      <trkpt lat="50.98979" lon="4.55733">
        <ele>8</ele>
      </trkpt>
      <trkpt lat="50.98975" lon="4.55739">
        <ele>8</ele>
      </trkpt>
      <trkpt lat="50.98972" lon="4.55735">
        <ele>8</ele>
      </trkpt>
      <trkpt lat="50.98968" lon="4.55734">
        <ele>8</ele>
      </trkpt>
      <trkpt lat="50.98924" lon="4.5576">
        <ele>8</ele>
      </trkpt>
      <trkpt lat="50.98901" lon="4.55763">
        <ele>8</ele>
      </trkpt>
      <trkpt lat="50.98892" lon="4.55759">
        <ele>8</ele>
      </trkpt>
      <trkpt lat="50.98813" lon="4.55698">
        <ele>9</ele>
      </trkpt>
      <trkpt lat="50.98797" lon="4.55683">
        <ele>8</ele>
      </trkpt>
      <trkpt lat="50.98791" lon="4.55693">
        <ele>8</ele>
      </trkpt>
      <trkpt lat="50.98766" lon="4.55713">
        <ele>8</ele>
      </trkpt>
      <trkpt lat="50.9873" lon="4.55742">
        <ele>8</ele>
      </trkpt>
      <trkpt lat="50.98712" lon="4.55776">
        <ele>8</ele>
      </trkpt>
      <trkpt lat="50.98684" lon="4.55844">
        <ele>8</ele>
      </trkpt>
      <trkpt lat="50.98665" lon="4.55873">
        <ele>10</ele>
      </trkpt>
      <trkpt lat="50.98641" lon="4.55885">
        <ele>10</ele>
      </trkpt>
      <trkpt lat="50.98581" lon="4.55901">
        <ele>13</ele>
      </trkpt>
      <trkpt lat="50.98562" lon="4.55909">
        <ele>13</ele>
      </trkpt>
      <trkpt lat="50.98518" lon="4.55937">
        <ele>13</ele>
      </trkpt>
      <trkpt lat="50.98518" lon="4.55936">
        <ele>13</ele>
      </trkpt>
      <trkpt lat="50.98454" lon="4.55978">
        <ele>13</ele>
      </trkpt>
      <trkpt lat="50.98323" lon="4.55913">
        <ele>10</ele>
      </trkpt>
      <trkpt lat="50.98241" lon="4.55867">
        <ele>9</ele>
      </trkpt>
      <trkpt lat="50.98221" lon="4.55848">
        <ele>9</ele>
      </trkpt>
      <trkpt lat="50.98181" lon="4.55822">
        <ele>9</ele>
      </trkpt>
      <trkpt lat="50.98156" lon="4.55805">
        <ele>9</ele>
      </trkpt>
      <trkpt lat="50.98141" lon="4.55799">
        <ele>8</ele>
      </trkpt>
      <trkpt lat="50.98086" lon="4.55791">
        <ele>9</ele>
      </trkpt>
      <trkpt lat="50.97955" lon="4.55782">
        <ele>9</ele>
      </trkpt>
      <trkpt lat="50.97832" lon="4.55774">
        <ele>8</ele>
      </trkpt>
      <trkpt lat="50.97828" lon="4.55771">
        <ele>8</ele>
      </trkpt>
      <trkpt lat="50.97825" lon="4.55765">
        <ele>8</ele>
      </trkpt>
      <trkpt lat="50.97808" lon="4.55793">
        <ele>9</ele>
      </trkpt>
      <trkpt lat="50.97803" lon="4.55785">
        <ele>9</ele>
      </trkpt>
      <trkpt lat="50.97796" lon="4.55782">
        <ele>8</ele>
      </trkpt>
      <trkpt lat="50.97784" lon="4.55786">
        <ele>8</ele>
      </trkpt>
      <trkpt lat="50.97749" lon="4.55806">
        <ele>7</ele>
      </trkpt>
      <trkpt lat="50.97575" lon="4.55906">
        <ele>7</ele>
      </trkpt>
      <trkpt lat="50.97492" lon="4.55949">
        <ele>8</ele>
      </trkpt>
      <trkpt lat="50.97482" lon="4.55934">
        <ele>8</ele>
      </trkpt>
      <trkpt lat="50.97464" lon="4.55906">
        <ele>8</ele>
      </trkpt>
      <trkpt lat="50.97448" lon="4.55877">
        <ele>8</ele>
      </trkpt>
      <trkpt lat="50.97442" lon="4.55882">
        <ele>8</ele>
      </trkpt>
      <trkpt lat="50.97419" lon="4.55914">
        <ele>8</ele>
      </trkpt>
      <trkpt lat="50.974" lon="4.55941">
        <ele>9</ele>
      </trkpt>
      <trkpt lat="50.97367" lon="4.56004">
        <ele>9</ele>
      </trkpt>
      <trkpt lat="50.97321" lon="4.56073">
        <ele>9</ele>
      </trkpt>
      <trkpt lat="50.97289" lon="4.56113">
        <ele>9</ele>
      </trkpt>
      <trkpt lat="50.97223" lon="4.56213">
        <ele>9</ele>
      </trkpt>
      <trkpt lat="50.96829" lon="4.56816">
        <ele>12</ele>
      </trkpt>
      <trkpt lat="50.96765" lon="4.56918">
        <ele>11</ele>
      </trkpt>
      <trkpt lat="50.96765" lon="4.56919">
        <ele>11</ele>
      </trkpt>
      <trkpt lat="50.96629" lon="4.57136">
        <ele>11</ele>
      </trkpt>
      <trkpt lat="50.96242" lon="4.57774">
        <ele>9</ele>
      </trkpt>
      <trkpt lat="50.95828" lon="4.58446">
        <ele>17</ele>
      </trkpt>
      <trkpt lat="50.95494" lon="4.58994">
        <ele>15</ele>
      </trkpt>
      <trkpt lat="50.95487" lon="4.59013">
        <ele>15</ele>
      </trkpt>
      <trkpt lat="50.95481" lon="4.59035">
        <ele>15</ele>
      </trkpt>
      <trkpt lat="50.95477" lon="4.59061">
        <ele>14</ele>
      </trkpt>
      <trkpt lat="50.95476" lon="4.59089">
        <ele>13</ele>
      </trkpt>
      <trkpt lat="50.95478" lon="4.59127">
        <ele>13</ele>
      </trkpt>
      <trkpt lat="50.95484" lon="4.59159">
        <ele>13</ele>
      </trkpt>
      <trkpt lat="50.95511" lon="4.59221">
        <ele>12</ele>
      </trkpt>
      <trkpt lat="50.95547" lon="4.59281">
        <ele>11</ele>
      </trkpt>
      <trkpt lat="50.95545" lon="4.59285">
        <ele>11</ele>
      </trkpt>
      <trkpt lat="50.9551" lon="4.5933">
        <ele>11</ele>
      </trkpt>
      <trkpt lat="50.95494" lon="4.59327">
        <ele>11</ele>
      </trkpt>
      <trkpt lat="50.95488" lon="4.59326">
        <ele>11</ele>
      </trkpt>
      <trkpt lat="50.95485" lon="4.59343">
        <ele>11</ele>
      </trkpt>
      <trkpt lat="50.95477" lon="4.59352">
        <ele>11</ele>
      </trkpt>
      <trkpt lat="50.95454" lon="4.59374">
        <ele>11</ele>
      </trkpt>
      <trkpt lat="50.95445" lon="4.59386">
        <ele>11</ele>
      </trkpt>
      <trkpt lat="50.95445" lon="4.5939">
        <ele>11</ele>
      </trkpt>
      <trkpt lat="50.95443" lon="4.59453">
        <ele>11</ele>
      </trkpt>
      <trkpt lat="50.95441" lon="4.59462">
        <ele>11</ele>
      </trkpt>
      <trkpt lat="50.95439" lon="4.59471">
        <ele>11</ele>
      </trkpt>
      <trkpt lat="50.95431" lon="4.59489">
        <ele>11</ele>
      </trkpt>
      <trkpt lat="50.95406" lon="4.59527">
        <ele>11</ele>
      </trkpt>
      <trkpt lat="50.95396" lon="4.59543">
        <ele>11</ele>
      </trkpt>
      <trkpt lat="50.95264" lon="4.59468">
        <ele>11</ele>
      </trkpt>
      <trkpt lat="50.95256" lon="4.59466">
        <ele>11</ele>
      </trkpt>
      <trkpt lat="50.95168" lon="4.59469">
        <ele>10</ele>
      </trkpt>
      <trkpt lat="50.94977" lon="4.59485">
        <ele>10</ele>
      </trkpt>
      <trkpt lat="50.94796" lon="4.595">
        <ele>11</ele>
      </trkpt>
      <trkpt lat="50.94714" lon="4.59525">
        <ele>11</ele>
      </trkpt>
      <trkpt lat="50.94702" lon="4.59501">
        <ele>11</ele>
      </trkpt>
      <trkpt lat="50.9465" lon="4.59409">
        <ele>11</ele>
      </trkpt>
      <trkpt lat="50.94602" lon="4.59323">
        <ele>11</ele>
      </trkpt>
      <trkpt lat="50.94591" lon="4.5929">
        <ele>11</ele>
      </trkpt>
      <trkpt lat="50.94547" lon="4.59016">
        <ele>13</ele>
      </trkpt>
      <trkpt lat="50.9455" lon="4.59004">
        <ele>13</ele>
      </trkpt>
      <trkpt lat="50.94574" lon="4.58951">
        <ele>13</ele>
      </trkpt>
      <trkpt lat="50.94578" lon="4.58924">
        <ele>13</ele>
      </trkpt>
      <trkpt lat="50.94581" lon="4.58835">
        <ele>13</ele>
      </trkpt>
      <trkpt lat="50.9458" lon="4.58801">
        <ele>13</ele>
      </trkpt>
      <trkpt lat="50.94574" lon="4.58765">
        <ele>14</ele>
      </trkpt>
      <trkpt lat="50.94559" lon="4.58708">
        <ele>14</ele>
      </trkpt>
      <trkpt lat="50.94549" lon="4.58662">
        <ele>14</ele>
      </trkpt>
      <trkpt lat="50.94502" lon="4.5869">
        <ele>13</ele>
      </trkpt>
      <trkpt lat="50.94502" lon="4.58691">
        <ele>13</ele>
      </trkpt>
      <trkpt lat="50.94229" lon="4.58866">
        <ele>13</ele>
      </trkpt>
      <trkpt lat="50.942" lon="4.58879">
        <ele>13</ele>
      </trkpt>
      <trkpt lat="50.94101" lon="4.58913">
        <ele>13</ele>
      </trkpt>
      <trkpt lat="50.94064" lon="4.58918">
        <ele>13</ele>
      </trkpt>
      <trkpt lat="50.93882" lon="4.58939">
        <ele>13</ele>
      </trkpt>
      <trkpt lat="50.93866" lon="4.58937">
        <ele>13</ele>
      </trkpt>
      <trkpt lat="50.93733" lon="4.58905">
        <ele>15</ele>
      </trkpt>
      <trkpt lat="50.93719" lon="4.58904">
        <ele>15</ele>
      </trkpt>
      <trkpt lat="50.93588" lon="4.58934">
        <ele>14</ele>
      </trkpt>
      <trkpt lat="50.93525" lon="4.58949">
        <ele>14</ele>
      </trkpt>
      <trkpt lat="50.9349" lon="4.58962">
        <ele>14</ele>
      </trkpt>
      <trkpt lat="50.9345" lon="4.58897">
        <ele>14</ele>
      </trkpt>
      <trkpt lat="50.93432" lon="4.58869">
        <ele>14</ele>
      </trkpt>
      <trkpt lat="50.93424" lon="4.5886">
        <ele>14</ele>
      </trkpt>
      <trkpt lat="50.9338" lon="4.58916">
        <ele>14</ele>
      </trkpt>
      <trkpt lat="50.93342" lon="4.58949">
        <ele>14</ele>
      </trkpt>
      <trkpt lat="50.93298" lon="4.58997">
        <ele>14</ele>
      </trkpt>
      <trkpt lat="50.93244" lon="4.59061">
        <ele>14</ele>
      </trkpt>
      <trkpt lat="50.93219" lon="4.59067">
        <ele>14</ele>
      </trkpt>
      <trkpt lat="50.93188" lon="4.59062">
        <ele>14</ele>
      </trkpt>
      <trkpt lat="50.93178" lon="4.59068">
        <ele>15</ele>
      </trkpt>
      <trkpt lat="50.93163" lon="4.59056">
        <ele>15</ele>
      </trkpt>
      <trkpt lat="50.92971" lon="4.59003">
        <ele>15</ele>
      </trkpt>
      <trkpt lat="50.9266" lon="4.58918">
        <ele>16</ele>
      </trkpt>
      <trkpt lat="50.92654" lon="4.58906">
        <ele>16</ele>
      </trkpt>
      <trkpt lat="50.92639" lon="4.58842">
        <ele>16</ele>
      </trkpt>
      <trkpt lat="50.92591" lon="4.58636">
        <ele>13</ele>
      </trkpt>
      <trkpt lat="50.92532" lon="4.58381">
        <ele>16</ele>
      </trkpt>
      <trkpt lat="50.92364" lon="4.57895">
        <ele>16</ele>
      </trkpt>
      <trkpt lat="50.9236" lon="4.57879">
        <ele>16</ele>
      </trkpt>
      <trkpt lat="50.92355" lon="4.57847">
        <ele>16</ele>
      </trkpt>
      <trkpt lat="50.92333" lon="4.57513">
        <ele>15</ele>
      </trkpt>
      <trkpt lat="50.92333" lon="4.57446">
        <ele>16</ele>
      </trkpt>
      <trkpt lat="50.92335" lon="4.57418">
        <ele>16</ele>
      </trkpt>
      <trkpt lat="50.92343" lon="4.57367">
        <ele>16</ele>
      </trkpt>
      <trkpt lat="50.92347" lon="4.5735">
        <ele>16</ele>
      </trkpt>
      <trkpt lat="50.9236" lon="4.57299">
        <ele>17</ele>
      </trkpt>
      <trkpt lat="50.92385" lon="4.57229">
        <ele>17</ele>
      </trkpt>
      <trkpt lat="50.92377" lon="4.57198">
        <ele>18</ele>
      </trkpt>
      <trkpt lat="50.92308" lon="4.57051">
        <ele>18</ele>
      </trkpt>
      <trkpt lat="50.92262" lon="4.56959">
        <ele>18</ele>
      </trkpt>
      <trkpt lat="50.92241" lon="4.56912">
        <ele>18</ele>
      </trkpt>
      <trkpt lat="50.92237" lon="4.56899">
        <ele>19</ele>
      </trkpt>
      <trkpt lat="50.92143" lon="4.56925">
        <ele>18</ele>
      </trkpt>
      <trkpt lat="50.92127" lon="4.56924">
        <ele>19</ele>
      </trkpt>
      <trkpt lat="50.92069" lon="4.56911">
        <ele>19</ele>
      </trkpt>
      <trkpt lat="50.92016" lon="4.56892">
        <ele>19</ele>
      </trkpt>
      <trkpt lat="50.91989" lon="4.56872">
        <ele>19</ele>
      </trkpt>
      <trkpt lat="50.91982" lon="4.56859">
        <ele>19</ele>
      </trkpt>
      <trkpt lat="50.91944" lon="4.5673">
        <ele>20</ele>
      </trkpt>
      <trkpt lat="50.91911" lon="4.56579">
        <ele>22</ele>
      </trkpt>
      <trkpt lat="50.919" lon="4.56526">
        <ele>23</ele>
      </trkpt>
      <trkpt lat="50.91893" lon="4.5652">
        <ele>23</ele>
      </trkpt>
      <trkpt lat="50.91884" lon="4.56503">
        <ele>23</ele>
      </trkpt>
      <trkpt lat="50.91875" lon="4.56485">
        <ele>24</ele>
      </trkpt>
      <trkpt lat="50.91873" lon="4.5647">
        <ele>24</ele>
      </trkpt>
      <trkpt lat="50.91876" lon="4.56446">
        <ele>24</ele>
      </trkpt>
      <trkpt lat="50.91876" lon="4.56398">
        <ele>24</ele>
      </trkpt>
      <trkpt lat="50.91865" lon="4.56344">
        <ele>24</ele>
      </trkpt>
      <trkpt lat="50.91858" lon="4.56305">
        <ele>24</ele>
      </trkpt>
      <trkpt lat="50.91836" lon="4.56303">
        <ele>24</ele>
      </trkpt>
      <trkpt lat="50.91821" lon="4.56304">
        <ele>24</ele>
      </trkpt>
      <trkpt lat="50.91803" lon="4.56307">
        <ele>24</ele>
      </trkpt>
      <trkpt lat="50.91793" lon="4.56312">
        <ele>24</ele>
      </trkpt>
      <trkpt lat="50.91774" lon="4.56321">
        <ele>24</ele>
      </trkpt>
      <trkpt lat="50.91661" lon="4.56403">
        <ele>25</ele>
      </trkpt>
      <trkpt lat="50.91616" lon="4.56428">
        <ele>25</ele>
      </trkpt>
      <trkpt lat="50.916" lon="4.56433">
        <ele>25</ele>
      </trkpt>
      <trkpt lat="50.91572" lon="4.56436">
        <ele>25</ele>
      </trkpt>
      <trkpt lat="50.91543" lon="4.56432">
        <ele>26</ele>
      </trkpt>
      <trkpt lat="50.91366" lon="4.56386">
        <ele>27</ele>
      </trkpt>
      <trkpt lat="50.91188" lon="4.56341">
        <ele>28</ele>
      </trkpt>
      <trkpt lat="50.91152" lon="4.56332">
        <ele>27</ele>
      </trkpt>
      <trkpt lat="50.91119" lon="4.56338">
        <ele>27</ele>
      </trkpt>
      <trkpt lat="50.91083" lon="4.56358">
        <ele>27</ele>
      </trkpt>
      <trkpt lat="50.90995" lon="4.56435">
        <ele>27</ele>
      </trkpt>
      <trkpt lat="50.90861" lon="4.56546">
        <ele>27</ele>
      </trkpt>
      <trkpt lat="50.90839" lon="4.56543">
        <ele>27</ele>
      </trkpt>
      <trkpt lat="50.9082" lon="4.56534">
        <ele>28</ele>
      </trkpt>
      <trkpt lat="50.90796" lon="4.56501">
        <ele>27</ele>
      </trkpt>
      <trkpt lat="50.90769" lon="4.56547">
        <ele>28</ele>
      </trkpt>
      <trkpt lat="50.90681" lon="4.56694">
        <ele>28</ele>
      </trkpt>
      <trkpt lat="50.90633" lon="4.56782">
        <ele>28</ele>
      </trkpt>
      <trkpt lat="50.90553" lon="4.56918">
        <ele>31</ele>
      </trkpt>
      <trkpt lat="50.90545" lon="4.5693">
        <ele>31</ele>
      </trkpt>
      <trkpt lat="50.90503" lon="4.56975">
        <ele>33</ele>
      </trkpt>
      <trkpt lat="50.90495" lon="4.56963">
        <ele>33</ele>
      </trkpt>
      <trkpt lat="50.90477" lon="4.56926">
        <ele>33</ele>
      </trkpt>
      <trkpt lat="50.90473" lon="4.56917">
        <ele>33</ele>
      </trkpt>
      <trkpt lat="50.90457" lon="4.569">
        <ele>34</ele>
      </trkpt>
      <trkpt lat="50.90438" lon="4.56856">
        <ele>34</ele>
      </trkpt>
      <trkpt lat="50.90397" lon="4.56765">
        <ele>35</ele>
      </trkpt>
      <trkpt lat="50.90314" lon="4.56596">
        <ele>35</ele>
      </trkpt>
      <trkpt lat="50.90179" lon="4.56304">
        <ele>35</ele>
      </trkpt>
      <trkpt lat="50.90138" lon="4.56217">
        <ele>35</ele>
      </trkpt>
      <trkpt lat="50.90087" lon="4.56125">
        <ele>36</ele>
      </trkpt>
      <trkpt lat="50.90071" lon="4.56074">
        <ele>35</ele>
      </trkpt>
      <trkpt lat="50.90068" lon="4.56066">
        <ele>35</ele>
      </trkpt>
      <trkpt lat="50.89797" lon="4.56354">
        <ele>37</ele>
      </trkpt>
      <trkpt lat="50.89716" lon="4.5644">
        <ele>37</ele>
      </trkpt>
      <trkpt lat="50.89624" lon="4.56534">
        <ele>37</ele>
      </trkpt>
      <trkpt lat="50.89465" lon="4.56684">
        <ele>37</ele>
      </trkpt>
      <trkpt lat="50.89359" lon="4.56814">
        <ele>36</ele>
      </trkpt>
      <trkpt lat="50.89279" lon="4.56905">
        <ele>34</ele>
      </trkpt>
      <trkpt lat="50.89191" lon="4.57027">
        <ele>35</ele>
      </trkpt>
      <trkpt lat="50.89183" lon="4.57035">
        <ele>35</ele>
      </trkpt>
      <trkpt lat="50.89171" lon="4.57041">
        <ele>35</ele>
      </trkpt>
      <trkpt lat="50.89171" lon="4.5705">
        <ele>35</ele>
      </trkpt>
      <trkpt lat="50.8917" lon="4.57058">
        <ele>35</ele>
      </trkpt>
      <trkpt lat="50.89167" lon="4.57066">
        <ele>35</ele>
      </trkpt>
      <trkpt lat="50.89162" lon="4.57071">
        <ele>35</ele>
      </trkpt>
      <trkpt lat="50.89157" lon="4.57074">
        <ele>35</ele>
      </trkpt>
      <trkpt lat="50.89151" lon="4.57074">
        <ele>36</ele>
      </trkpt>
      <trkpt lat="50.89145" lon="4.57071">
        <ele>36</ele>
      </trkpt>
      <trkpt lat="50.89141" lon="4.57065">
        <ele>36</ele>
      </trkpt>
      <trkpt lat="50.89138" lon="4.57056">
        <ele>35</ele>
      </trkpt>
      <trkpt lat="50.89128" lon="4.57063">
        <ele>36</ele>
      </trkpt>
      <trkpt lat="50.89109" lon="4.57092">
        <ele>36</ele>
      </trkpt>
      <trkpt lat="50.89102" lon="4.57116">
        <ele>36</ele>
      </trkpt>
      <trkpt lat="50.89097" lon="4.57141">
        <ele>36</ele>
      </trkpt>
      <trkpt lat="50.89088" lon="4.57167">
        <ele>37</ele>
      </trkpt>
      <trkpt lat="50.89078" lon="4.57185">
        <ele>37</ele>
      </trkpt>
      <trkpt lat="50.8905" lon="4.57229">
        <ele>37</ele>
      </trkpt>
      <trkpt lat="50.89021" lon="4.57268">
        <ele>37</ele>
      </trkpt>
      <trkpt lat="50.88989" lon="4.573">
        <ele>37</ele>
      </trkpt>
      <trkpt lat="50.88989" lon="4.57301">
        <ele>37</ele>
      </trkpt>
      <trkpt lat="50.88868" lon="4.57423">
        <ele>39</ele>
      </trkpt>
      <trkpt lat="50.8883" lon="4.57476">
        <ele>42</ele>
      </trkpt>
      <trkpt lat="50.88812" lon="4.57508">
        <ele>41</ele>
      </trkpt>
      <trkpt lat="50.88757" lon="4.57651">
        <ele>44</ele>
      </trkpt>
      <trkpt lat="50.8873" lon="4.57702">
        <ele>44</ele>
      </trkpt>
      <trkpt lat="50.88719" lon="4.57719">
        <ele>44</ele>
      </trkpt>
      <trkpt lat="50.88683" lon="4.57761">
        <ele>43</ele>
      </trkpt>
      <trkpt lat="50.88625" lon="4.57824">
        <ele>44</ele>
      </trkpt>
      <trkpt lat="50.88539" lon="4.57909">
        <ele>42</ele>
      </trkpt>
      <trkpt lat="50.884" lon="4.58055">
        <ele>38</ele>
      </trkpt>
      <trkpt lat="50.88349" lon="4.58118">
        <ele>38</ele>
      </trkpt>
      <trkpt lat="50.88308" lon="4.58191">
        <ele>40</ele>
      </trkpt>
      <trkpt lat="50.88302" lon="4.58173">
        <ele>39</ele>
      </trkpt>
      <trkpt lat="50.88256" lon="4.58007">
        <ele>37</ele>
      </trkpt>
      <trkpt lat="50.88194" lon="4.57805">
        <ele>37</ele>
      </trkpt>
      <trkpt lat="50.88125" lon="4.57644">
        <ele>40</ele>
      </trkpt>
      <trkpt lat="50.88015" lon="4.57443">
        <ele>42</ele>
      </trkpt>
      <trkpt lat="50.8799" lon="4.57392">
        <ele>44</ele>
      </trkpt>
      <trkpt lat="50.87931" lon="4.57211">
        <ele>47</ele>
      </trkpt>
      <trkpt lat="50.87882" lon="4.57121">
        <ele>48</ele>
      </trkpt>
      <trkpt lat="50.87866" lon="4.57102">
        <ele>49</ele>
      </trkpt>
      <trkpt lat="50.87829" lon="4.57074">
        <ele>51</ele>
      </trkpt>
      <trkpt lat="50.87821" lon="4.57058">
        <ele>52</ele>
      </trkpt>
      <trkpt lat="50.8781" lon="4.57023">
        <ele>52</ele>
      </trkpt>
      <trkpt lat="50.87798" lon="4.56991">
        <ele>51</ele>
      </trkpt>
      <trkpt lat="50.87779" lon="4.5695">
        <ele>52</ele>
      </trkpt>
      <trkpt lat="50.87748" lon="4.56894">
        <ele>54</ele>
      </trkpt>
      <trkpt lat="50.87736" lon="4.56862">
        <ele>54</ele>
      </trkpt>
      <trkpt lat="50.87731" lon="4.56833">
        <ele>54</ele>
      </trkpt>
      <trkpt lat="50.87727" lon="4.56833">
        <ele>54</ele>
      </trkpt>
      <trkpt lat="50.87721" lon="4.56826">
        <ele>53</ele>
      </trkpt>
      <trkpt lat="50.87719" lon="4.56816">
        <ele>53</ele>
      </trkpt>
      <trkpt lat="50.87722" lon="4.56806">
        <ele>53</ele>
      </trkpt>
      <trkpt lat="50.87725" lon="4.56802">
        <ele>53</ele>
      </trkpt>
      <trkpt lat="50.8773" lon="4.568">
        <ele>53</ele>
      </trkpt>
      <trkpt lat="50.87738" lon="4.56806">
        <ele>53</ele>
      </trkpt>
      <trkpt lat="50.87739" lon="4.5681">
        <ele>53</ele>
      </trkpt>
      <trkpt lat="50.87784" lon="4.56786">
        <ele>50</ele>
      </trkpt>
      <trkpt lat="50.87886" lon="4.567">
        <ele>46</ele>
      </trkpt>
      <trkpt lat="50.87905" lon="4.56689">
        <ele>46</ele>
      </trkpt>
      <trkpt lat="50.88002" lon="4.56636">
        <ele>46</ele>
      </trkpt>
      <trkpt lat="50.88002" lon="4.5663">
        <ele>46</ele>
      </trkpt>
      <trkpt lat="50.88006" lon="4.56621">
        <ele>46</ele>
      </trkpt>
      <trkpt lat="50.88009" lon="4.56619">
        <ele>46</ele>
      </trkpt>
      <trkpt lat="50.88005" lon="4.56437">
        <ele>49</ele>
      </trkpt>
      <trkpt lat="50.88007" lon="4.56408">
        <ele>51</ele>
      </trkpt>
      <trkpt lat="50.88038" lon="4.56249">
        <ele>58</ele>
      </trkpt>
      <trkpt lat="50.88047" lon="4.56195">
        <ele>59</ele>
      </trkpt>
      <trkpt lat="50.88051" lon="4.56139">
        <ele>59</ele>
      </trkpt>
      <trkpt lat="50.88046" lon="4.5608">
        <ele>59</ele>
      </trkpt>
      <trkpt lat="50.87985" lon="4.55718">
        <ele>55</ele>
      </trkpt>
      <trkpt lat="50.87933" lon="4.55516">
        <ele>54</ele>
      </trkpt>
      <trkpt lat="50.87926" lon="4.5547">
        <ele>51</ele>
      </trkpt>
      <trkpt lat="50.87886" lon="4.55141">
        <ele>54</ele>
      </trkpt>
      <trkpt lat="50.87888" lon="4.55141">
        <ele>54</ele>
      </trkpt>
    </trkseg>
  </trk>
</gpx>