<?xml version='1.0' encoding='UTF-8'?>
<gpx xmlns="http://www.topografix.com/GPX/1/1" xmlns:xsi="http://www.w3.org/2001/XMLSchema-instance" creator="RouteYou" version="1.1" xsi:schemaLocation="http://www.topografix.com/GPX/1/1 http://www.topografix.com/GPX/1/1/gpx.xsd">
  <trk>
    <name>Horst 2025</name>
    <desc />
    <trkseg>
      <trkpt lat="50.87747" lon="4.56891">
        <ele>54</ele>
      </trkpt>
      <trkpt lat="50.87779" lon="4.5695">
        <ele>52</ele>
      </trkpt>
      <trkpt lat="50.87798" lon="4.56991">
        <ele>51</ele>
      </trkpt>
      <trkpt lat="50.8781" lon="4.57023">
        <ele>52</ele>
      </trkpt>
      <trkpt lat="50.87821" lon="4.57058">
        <ele>52</ele>
      </trkpt>
      <trkpt lat="50.87829" lon="4.57074">
        <ele>51</ele>
      </trkpt>
      <trkpt lat="50.87866" lon="4.57102">
        <ele>49</ele>
      </trkpt>
      <trkpt lat="50.87882" lon="4.57121">
        <ele>48</ele>
      </trkpt>
      <trkpt lat="50.87903" lon="4.5716">
        <ele>48</ele>
      </trkpt>
      <trkpt lat="50.87886" lon="4.57177">
        <ele>48</ele>
      </trkpt>
      <trkpt lat="50.87806" lon="4.57267">
        <ele>49</ele>
      </trkpt>
      <trkpt lat="50.87814" lon="4.57283">
        <ele>50</ele>
      </trkpt>
      <trkpt lat="50.87817" lon="4.57433">
        <ele>47</ele>
      </trkpt>
      <trkpt lat="50.87827" lon="4.57621">
        <ele>44</ele>
      </trkpt>
      <trkpt lat="50.87822" lon="4.57656">
        <ele>44</ele>
      </trkpt>
      <trkpt lat="50.87744" lon="4.58084">
        <ele>43</ele>
      </trkpt>
      <trkpt lat="50.87738" lon="4.58122">
        <ele>43</ele>
      </trkpt>
      <trkpt lat="50.87737" lon="4.58137">
        <ele>43</ele>
      </trkpt>
      <trkpt lat="50.87738" lon="4.58164">
        <ele>43</ele>
      </trkpt>
      <trkpt lat="50.87751" lon="4.58221">
        <ele>43</ele>
      </trkpt>
      <trkpt lat="50.87773" lon="4.5828">
        <ele>42</ele>
      </trkpt>
      <trkpt lat="50.87794" lon="4.58336">
        <ele>42</ele>
      </trkpt>
      <trkpt lat="50.87813" lon="4.5838">
        <ele>42</ele>
      </trkpt>
      <trkpt lat="50.8783" lon="4.58408">
        <ele>42</ele>
      </trkpt>
      <trkpt lat="50.87913" lon="4.58536">
        <ele>42</ele>
      </trkpt>
      <trkpt lat="50.87931" lon="4.58544">
        <ele>42</ele>
      </trkpt>
      <trkpt lat="50.8797" lon="4.58535">
        <ele>42</ele>
      </trkpt>
      <trkpt lat="50.87982" lon="4.58539">
        <ele>42</ele>
      </trkpt>
      <trkpt lat="50.87988" lon="4.58545">
        <ele>42</ele>
      </trkpt>
      <trkpt lat="50.88067" lon="4.58698">
        <ele>44</ele>
      </trkpt>
      <trkpt lat="50.88084" lon="4.58736">
        <ele>44</ele>
      </trkpt>
      <trkpt lat="50.88142" lon="4.58848">
        <ele>44</ele>
      </trkpt>
      <trkpt lat="50.88186" lon="4.58927">
        <ele>41</ele>
      </trkpt>
      <trkpt lat="50.88231" lon="4.59003">
        <ele>40</ele>
      </trkpt>
      <trkpt lat="50.88237" lon="4.59015">
        <ele>40</ele>
      </trkpt>
      <trkpt lat="50.88254" lon="4.59057">
        <ele>40</ele>
      </trkpt>
      <trkpt lat="50.88264" lon="4.59101">
        <ele>39</ele>
      </trkpt>
      <trkpt lat="50.88271" lon="4.59193">
        <ele>38</ele>
      </trkpt>
      <trkpt lat="50.88276" lon="4.59233">
        <ele>38</ele>
      </trkpt>
      <trkpt lat="50.8829" lon="4.5928">
        <ele>37</ele>
      </trkpt>
      <trkpt lat="50.88298" lon="4.59299">
        <ele>37</ele>
      </trkpt>
      <trkpt lat="50.88315" lon="4.59329">
        <ele>38</ele>
      </trkpt>
      <trkpt lat="50.88509" lon="4.5967">
        <ele>39</ele>
      </trkpt>
      <trkpt lat="50.88528" lon="4.59687">
        <ele>39</ele>
      </trkpt>
      <trkpt lat="50.88548" lon="4.59699">
        <ele>39</ele>
      </trkpt>
      <trkpt lat="50.88556" lon="4.59707">
        <ele>39</ele>
      </trkpt>
      <trkpt lat="50.88564" lon="4.59719">
        <ele>39</ele>
      </trkpt>
      <trkpt lat="50.88586" lon="4.59767">
        <ele>39</ele>
      </trkpt>
      <trkpt lat="50.88606" lon="4.59804">
        <ele>39</ele>
      </trkpt>
      <trkpt lat="50.88998" lon="4.60338">
        <ele>36</ele>
      </trkpt>
      <trkpt lat="50.8911" lon="4.60475">
        <ele>35</ele>
      </trkpt>
      <trkpt lat="50.89376" lon="4.60786">
        <ele>37</ele>
      </trkpt>
      <trkpt lat="50.89556" lon="4.60997">
        <ele>34</ele>
      </trkpt>
      <trkpt lat="50.89589" lon="4.61033">
        <ele>34</ele>
      </trkpt>
      <trkpt lat="50.89602" lon="4.61049">
        <ele>33</ele>
      </trkpt>
      <trkpt lat="50.89649" lon="4.61116">
        <ele>33</ele>
      </trkpt>
      <trkpt lat="50.89679" lon="4.61181">
        <ele>34</ele>
      </trkpt>
      <trkpt lat="50.89744" lon="4.61323">
        <ele>32</ele>
      </trkpt>
      <trkpt lat="50.89807" lon="4.615">
        <ele>31</ele>
      </trkpt>
      <trkpt lat="50.8985" lon="4.61613">
        <ele>31</ele>
      </trkpt>
      <trkpt lat="50.89861" lon="4.6163">
        <ele>31</ele>
      </trkpt>
      <trkpt lat="50.89871" lon="4.6164">
        <ele>31</ele>
      </trkpt>
      <trkpt lat="50.89869" lon="4.61647">
        <ele>31</ele>
      </trkpt>
      <trkpt lat="50.89876" lon="4.61656">
        <ele>31</ele>
      </trkpt>
      <trkpt lat="50.89879" lon="4.61685">
        <ele>32</ele>
      </trkpt>
      <trkpt lat="50.8988" lon="4.61713">
        <ele>32</ele>
      </trkpt>
      <trkpt lat="50.89889" lon="4.61838">
        <ele>32</ele>
      </trkpt>
      <trkpt lat="50.89893" lon="4.6189">
        <ele>32</ele>
      </trkpt>
      <trkpt lat="50.89896" lon="4.61915">
        <ele>32</ele>
      </trkpt>
      <trkpt lat="50.89895" lon="4.6193">
        <ele>32</ele>
      </trkpt>
      <trkpt lat="50.89902" lon="4.62144">
        <ele>32</ele>
      </trkpt>
      <trkpt lat="50.89905" lon="4.62173">
        <ele>33</ele>
      </trkpt>
      <trkpt lat="50.89909" lon="4.62293">
        <ele>33</ele>
      </trkpt>
      <trkpt lat="50.89909" lon="4.6233">
        <ele>34</ele>
      </trkpt>
      <trkpt lat="50.89906" lon="4.62373">
        <ele>34</ele>
      </trkpt>
      <trkpt lat="50.89906" lon="4.62495">
        <ele>35</ele>
      </trkpt>
      <trkpt lat="50.89904" lon="4.62504">
        <ele>35</ele>
      </trkpt>
      <trkpt lat="50.89903" lon="4.62577">
        <ele>35</ele>
      </trkpt>
      <trkpt lat="50.89905" lon="4.6262">
        <ele>35</ele>
      </trkpt>
      <trkpt lat="50.89911" lon="4.62682">
        <ele>35</ele>
      </trkpt>
      <trkpt lat="50.89915" lon="4.62682">
        <ele>35</ele>
      </trkpt>
      <trkpt lat="50.89921" lon="4.6269">
        <ele>35</ele>
      </trkpt>
      <trkpt lat="50.89922" lon="4.62696">
        <ele>35</ele>
      </trkpt>
      <trkpt lat="50.89921" lon="4.62701">
        <ele>35</ele>
      </trkpt>
      <trkpt lat="50.89918" lon="4.62709">
        <ele>35</ele>
      </trkpt>
      <trkpt lat="50.89915" lon="4.62711">
        <ele>35</ele>
      </trkpt>
      <trkpt lat="50.8992" lon="4.62771">
        <ele>35</ele>
      </trkpt>
      <trkpt lat="50.89927" lon="4.62803">
        <ele>34</ele>
      </trkpt>
      <trkpt lat="50.89934" lon="4.62826">
        <ele>33</ele>
      </trkpt>
      <trkpt lat="50.89935" lon="4.62839">
        <ele>33</ele>
      </trkpt>
      <trkpt lat="50.89932" lon="4.62954">
        <ele>33</ele>
      </trkpt>
      <trkpt lat="50.89931" lon="4.62995">
        <ele>34</ele>
      </trkpt>
      <trkpt lat="50.89932" lon="4.63007">
        <ele>34</ele>
      </trkpt>
      <trkpt lat="50.89938" lon="4.63034">
        <ele>34</ele>
      </trkpt>
      <trkpt lat="50.89969" lon="4.63113">
        <ele>34</ele>
      </trkpt>
      <trkpt lat="50.90008" lon="4.63213">
        <ele>34</ele>
      </trkpt>
      <trkpt lat="50.90011" lon="4.63234">
        <ele>34</ele>
      </trkpt>
      <trkpt lat="50.90018" lon="4.6331">
        <ele>32</ele>
      </trkpt>
      <trkpt lat="50.90015" lon="4.63333">
        <ele>33</ele>
      </trkpt>
      <trkpt lat="50.89984" lon="4.63489">
        <ele>33</ele>
      </trkpt>
      <trkpt lat="50.89965" lon="4.63581">
        <ele>33</ele>
      </trkpt>
      <trkpt lat="50.8992" lon="4.63738">
        <ele>36</ele>
      </trkpt>
      <trkpt lat="50.89851" lon="4.63994">
        <ele>34</ele>
      </trkpt>
      <trkpt lat="50.89796" lon="4.64188">
        <ele>34</ele>
      </trkpt>
      <trkpt lat="50.89771" lon="4.64287">
        <ele>34</ele>
      </trkpt>
      <trkpt lat="50.8976" lon="4.64323">
        <ele>35</ele>
      </trkpt>
      <trkpt lat="50.89802" lon="4.64333">
        <ele>34</ele>
      </trkpt>
      <trkpt lat="50.89811" lon="4.64337">
        <ele>34</ele>
      </trkpt>
      <trkpt lat="50.89821" lon="4.64344">
        <ele>34</ele>
      </trkpt>
      <trkpt lat="50.89831" lon="4.64358">
        <ele>34</ele>
      </trkpt>
      <trkpt lat="50.89858" lon="4.64396">
        <ele>33</ele>
      </trkpt>
      <trkpt lat="50.89894" lon="4.64444">
        <ele>33</ele>
      </trkpt>
      <trkpt lat="50.89929" lon="4.64496">
        <ele>32</ele>
      </trkpt>
      <trkpt lat="50.89925" lon="4.645">
        <ele>32</ele>
      </trkpt>
      <trkpt lat="50.89876" lon="4.64554">
        <ele>32</ele>
      </trkpt>
      <trkpt lat="50.89868" lon="4.64568">
        <ele>32</ele>
      </trkpt>
      <trkpt lat="50.89865" lon="4.64584">
        <ele>32</ele>
      </trkpt>
      <trkpt lat="50.89866" lon="4.64598">
        <ele>32</ele>
      </trkpt>
      <trkpt lat="50.89874" lon="4.64625">
        <ele>32</ele>
      </trkpt>
      <trkpt lat="50.89883" lon="4.64643">
        <ele>32</ele>
      </trkpt>
      <trkpt lat="50.89895" lon="4.64666">
        <ele>32</ele>
      </trkpt>
      <trkpt lat="50.8999" lon="4.64803">
        <ele>31</ele>
      </trkpt>
      <trkpt lat="50.90006" lon="4.64831">
        <ele>31</ele>
      </trkpt>
      <trkpt lat="50.90041" lon="4.6491">
        <ele>30</ele>
      </trkpt>
      <trkpt lat="50.90071" lon="4.6504">
        <ele>31</ele>
      </trkpt>
      <trkpt lat="50.90116" lon="4.65249">
        <ele>30</ele>
      </trkpt>
      <trkpt lat="50.90118" lon="4.65285">
        <ele>30</ele>
      </trkpt>
      <trkpt lat="50.90121" lon="4.65301">
        <ele>30</ele>
      </trkpt>
      <trkpt lat="50.90124" lon="4.65315">
        <ele>30</ele>
      </trkpt>
      <trkpt lat="50.90135" lon="4.65345">
        <ele>30</ele>
      </trkpt>
      <trkpt lat="50.90129" lon="4.65357">
        <ele>30</ele>
      </trkpt>
      <trkpt lat="50.9013" lon="4.6537">
        <ele>30</ele>
      </trkpt>
      <trkpt lat="50.90163" lon="4.655">
        <ele>30</ele>
      </trkpt>
      <trkpt lat="50.90193" lon="4.65499">
        <ele>30</ele>
      </trkpt>
      <trkpt lat="50.90198" lon="4.65503">
        <ele>30</ele>
      </trkpt>
      <trkpt lat="50.902" lon="4.65512">
        <ele>30</ele>
      </trkpt>
      <trkpt lat="50.9021" lon="4.65655">
        <ele>30</ele>
      </trkpt>
      <trkpt lat="50.90267" lon="4.66402">
        <ele>31</ele>
      </trkpt>
      <trkpt lat="50.90267" lon="4.66412">
        <ele>31</ele>
      </trkpt>
      <trkpt lat="50.90263" lon="4.66425">
        <ele>32</ele>
      </trkpt>
      <trkpt lat="50.9026" lon="4.66439">
        <ele>32</ele>
      </trkpt>
      <trkpt lat="50.90263" lon="4.66486">
        <ele>32</ele>
      </trkpt>
      <trkpt lat="50.90266" lon="4.66491">
        <ele>32</ele>
      </trkpt>
      <trkpt lat="50.90275" lon="4.66491">
        <ele>32</ele>
      </trkpt>
      <trkpt lat="50.90279" lon="4.66495">
        <ele>32</ele>
      </trkpt>
      <trkpt lat="50.90282" lon="4.6651">
        <ele>32</ele>
      </trkpt>
      <trkpt lat="50.90299" lon="4.66728">
        <ele>33</ele>
      </trkpt>
      <trkpt lat="50.90309" lon="4.66859">
        <ele>32</ele>
      </trkpt>
      <trkpt lat="50.90306" lon="4.66878">
        <ele>32</ele>
      </trkpt>
      <trkpt lat="50.90312" lon="4.66889">
        <ele>32</ele>
      </trkpt>
      <trkpt lat="50.90314" lon="4.66896">
        <ele>31</ele>
      </trkpt>
      <trkpt lat="50.90346" lon="4.67361">
        <ele>32</ele>
      </trkpt>
      <trkpt lat="50.9035" lon="4.67376">
        <ele>32</ele>
      </trkpt>
      <trkpt lat="50.90358" lon="4.67487">
        <ele>32</ele>
      </trkpt>
      <trkpt lat="50.90396" lon="4.6798">
        <ele>28</ele>
      </trkpt>
      <trkpt lat="50.904" lon="4.68159">
        <ele>28</ele>
      </trkpt>
      <trkpt lat="50.9042" lon="4.68488">
        <ele>28</ele>
      </trkpt>
      <trkpt lat="50.90425" lon="4.68489">
        <ele>28</ele>
      </trkpt>
      <trkpt lat="50.90459" lon="4.68474">
        <ele>29</ele>
      </trkpt>
      <trkpt lat="50.90541" lon="4.68425">
        <ele>29</ele>
      </trkpt>
      <trkpt lat="50.90549" lon="4.68436">
        <ele>29</ele>
      </trkpt>
      <trkpt lat="50.90549" lon="4.68471">
        <ele>28</ele>
      </trkpt>
      <trkpt lat="50.90552" lon="4.68477">
        <ele>28</ele>
      </trkpt>
      <trkpt lat="50.90552" lon="4.68495">
        <ele>27</ele>
      </trkpt>
      <trkpt lat="50.90549" lon="4.68547">
        <ele>26</ele>
      </trkpt>
      <trkpt lat="50.90543" lon="4.68625">
        <ele>25</ele>
      </trkpt>
      <trkpt lat="50.90522" lon="4.68758">
        <ele>24</ele>
      </trkpt>
      <trkpt lat="50.90315" lon="4.6995">
        <ele>22</ele>
      </trkpt>
      <trkpt lat="50.90311" lon="4.69957">
        <ele>22</ele>
      </trkpt>
      <trkpt lat="50.90289" lon="4.70052">
        <ele>20</ele>
      </trkpt>
      <trkpt lat="50.90268" lon="4.70106">
        <ele>17</ele>
      </trkpt>
      <trkpt lat="50.90257" lon="4.70137">
        <ele>18</ele>
      </trkpt>
      <trkpt lat="50.90248" lon="4.70174">
        <ele>18</ele>
      </trkpt>
      <trkpt lat="50.90241" lon="4.70216">
        <ele>18</ele>
      </trkpt>
      <trkpt lat="50.90233" lon="4.70309">
        <ele>18</ele>
      </trkpt>
      <trkpt lat="50.90194" lon="4.7049">
        <ele>19</ele>
      </trkpt>
      <trkpt lat="50.90189" lon="4.70516">
        <ele>19</ele>
      </trkpt>
      <trkpt lat="50.90193" lon="4.70518">
        <ele>19</ele>
      </trkpt>
      <trkpt lat="50.90187" lon="4.70551">
        <ele>19</ele>
      </trkpt>
      <trkpt lat="50.90184" lon="4.70614">
        <ele>17</ele>
      </trkpt>
      <trkpt lat="50.90185" lon="4.70617">
        <ele>17</ele>
      </trkpt>
      <trkpt lat="50.90191" lon="4.7062">
        <ele>17</ele>
      </trkpt>
      <trkpt lat="50.90221" lon="4.70619">
        <ele>17</ele>
      </trkpt>
      <trkpt lat="50.90279" lon="4.70601">
        <ele>18</ele>
      </trkpt>
      <trkpt lat="50.90286" lon="4.70602">
        <ele>18</ele>
      </trkpt>
      <trkpt lat="50.90297" lon="4.70608">
        <ele>18</ele>
      </trkpt>
      <trkpt lat="50.90305" lon="4.70619">
        <ele>19</ele>
      </trkpt>
      <trkpt lat="50.90316" lon="4.70643">
        <ele>18</ele>
      </trkpt>
      <trkpt lat="50.90339" lon="4.7064">
        <ele>18</ele>
      </trkpt>
      <trkpt lat="50.90358" lon="4.70647">
        <ele>17</ele>
      </trkpt>
      <trkpt lat="50.90422" lon="4.70647">
        <ele>17</ele>
      </trkpt>
      <trkpt lat="50.90821" lon="4.70654">
        <ele>15</ele>
      </trkpt>
      <trkpt lat="50.91429" lon="4.70508">
        <ele>17</ele>
      </trkpt>
      <trkpt lat="50.9185" lon="4.70404">
        <ele>16</ele>
      </trkpt>
      <trkpt lat="50.91876" lon="4.70396">
        <ele>16</ele>
      </trkpt>
      <trkpt lat="50.91907" lon="4.70379">
        <ele>16</ele>
      </trkpt>
      <trkpt lat="50.91931" lon="4.70358">
        <ele>16</ele>
      </trkpt>
      <trkpt lat="50.91954" lon="4.7033">
        <ele>16</ele>
      </trkpt>
      <trkpt lat="50.91976" lon="4.70283">
        <ele>17</ele>
      </trkpt>
      <trkpt lat="50.92119" lon="4.6991">
        <ele>20</ele>
      </trkpt>
      <trkpt lat="50.92146" lon="4.69835">
        <ele>20</ele>
      </trkpt>
      <trkpt lat="50.92177" lon="4.69753">
        <ele>20</ele>
      </trkpt>
      <trkpt lat="50.92182" lon="4.69732">
        <ele>20</ele>
      </trkpt>
      <trkpt lat="50.9222" lon="4.6963">
        <ele>19</ele>
      </trkpt>
      <trkpt lat="50.9237" lon="4.69232">
        <ele>18</ele>
      </trkpt>
      <trkpt lat="50.92369" lon="4.69221">
        <ele>18</ele>
      </trkpt>
      <trkpt lat="50.92381" lon="4.69213">
        <ele>18</ele>
      </trkpt>
      <trkpt lat="50.92417" lon="4.69227">
        <ele>18</ele>
      </trkpt>
      <trkpt lat="50.92377" lon="4.69328">
        <ele>18</ele>
      </trkpt>
      <trkpt lat="50.92082" lon="4.70106">
        <ele>18</ele>
      </trkpt>
      <trkpt lat="50.92084" lon="4.70107">
        <ele>18</ele>
      </trkpt>
      <trkpt lat="50.92162" lon="4.70181">
        <ele>18</ele>
      </trkpt>
      <trkpt lat="50.92177" lon="4.70185">
        <ele>18</ele>
      </trkpt>
      <trkpt lat="50.9221" lon="4.70183">
        <ele>18</ele>
      </trkpt>
      <trkpt lat="50.92226" lon="4.70187">
        <ele>18</ele>
      </trkpt>
      <trkpt lat="50.92234" lon="4.70196">
        <ele>17</ele>
      </trkpt>
      <trkpt lat="50.92247" lon="4.70219">
        <ele>18</ele>
      </trkpt>
      <trkpt lat="50.9227" lon="4.70253">
        <ele>18</ele>
      </trkpt>
      <trkpt lat="50.92322" lon="4.70305">
        <ele>18</ele>
      </trkpt>
      <trkpt lat="50.92352" lon="4.70334">
        <ele>18</ele>
      </trkpt>
      <trkpt lat="50.92502" lon="4.70476">
        <ele>16</ele>
      </trkpt>
      <trkpt lat="50.92517" lon="4.70502">
        <ele>16</ele>
      </trkpt>
      <trkpt lat="50.92528" lon="4.70528">
        <ele>16</ele>
      </trkpt>
      <trkpt lat="50.92533" lon="4.70554">
        <ele>15</ele>
      </trkpt>
      <trkpt lat="50.92545" lon="4.70721">
        <ele>14</ele>
      </trkpt>
      <trkpt lat="50.92564" lon="4.71077">
        <ele>13</ele>
      </trkpt>
      <trkpt lat="50.92564" lon="4.71105">
        <ele>13</ele>
      </trkpt>
      <trkpt lat="50.9255" lon="4.71179">
        <ele>14</ele>
      </trkpt>
      <trkpt lat="50.92524" lon="4.71298">
        <ele>15</ele>
      </trkpt>
      <trkpt lat="50.92486" lon="4.71472">
        <ele>14</ele>
      </trkpt>
      <trkpt lat="50.92473" lon="4.71465">
        <ele>15</ele>
      </trkpt>
      <trkpt lat="50.92469" lon="4.71466">
        <ele>15</ele>
      </trkpt>
      <trkpt lat="50.92439" lon="4.71488">
        <ele>14</ele>
      </trkpt>
      <trkpt lat="50.92431" lon="4.71491">
        <ele>14</ele>
      </trkpt>
      <trkpt lat="50.92379" lon="4.71498">
        <ele>14</ele>
      </trkpt>
      <trkpt lat="50.92344" lon="4.715">
        <ele>14</ele>
      </trkpt>
      <trkpt lat="50.92274" lon="4.71484">
        <ele>14</ele>
      </trkpt>
      <trkpt lat="50.92252" lon="4.71472">
        <ele>13</ele>
      </trkpt>
      <trkpt lat="50.92249" lon="4.7148">
        <ele>13</ele>
      </trkpt>
      <trkpt lat="50.92246" lon="4.71485">
        <ele>13</ele>
      </trkpt>
      <trkpt lat="50.922" lon="4.715">
        <ele>13</ele>
      </trkpt>
      <trkpt lat="50.92188" lon="4.71512">
        <ele>13</ele>
      </trkpt>
      <trkpt lat="50.92184" lon="4.71521">
        <ele>13</ele>
      </trkpt>
      <trkpt lat="50.9218" lon="4.71538">
        <ele>13</ele>
      </trkpt>
      <trkpt lat="50.92179" lon="4.71771">
        <ele>13</ele>
      </trkpt>
      <trkpt lat="50.92164" lon="4.71869">
        <ele>13</ele>
      </trkpt>
      <trkpt lat="50.92166" lon="4.71881">
        <ele>13</ele>
      </trkpt>
      <trkpt lat="50.9219" lon="4.71981">
        <ele>14</ele>
      </trkpt>
      <trkpt lat="50.92196" lon="4.72026">
        <ele>14</ele>
      </trkpt>
      <trkpt lat="50.92217" lon="4.72109">
        <ele>14</ele>
      </trkpt>
      <trkpt lat="50.92237" lon="4.72207">
        <ele>14</ele>
      </trkpt>
      <trkpt lat="50.92243" lon="4.72254">
        <ele>13</ele>
      </trkpt>
      <trkpt lat="50.92244" lon="4.72284">
        <ele>13</ele>
      </trkpt>
      <trkpt lat="50.92242" lon="4.72342">
        <ele>13</ele>
      </trkpt>
      <trkpt lat="50.92242" lon="4.72428">
        <ele>13</ele>
      </trkpt>
      <trkpt lat="50.92245" lon="4.7247">
        <ele>13</ele>
      </trkpt>
      <trkpt lat="50.92245" lon="4.72488">
        <ele>13</ele>
      </trkpt>
      <trkpt lat="50.92242" lon="4.72547">
        <ele>13</ele>
      </trkpt>
      <trkpt lat="50.92239" lon="4.72556">
        <ele>13</ele>
      </trkpt>
      <trkpt lat="50.92227" lon="4.72571">
        <ele>13</ele>
      </trkpt>
      <trkpt lat="50.92219" lon="4.72574">
        <ele>13</ele>
      </trkpt>
      <trkpt lat="50.92217" lon="4.72601">
        <ele>13</ele>
      </trkpt>
      <trkpt lat="50.92217" lon="4.72835">
        <ele>14</ele>
      </trkpt>
      <trkpt lat="50.92215" lon="4.72861">
        <ele>14</ele>
      </trkpt>
      <trkpt lat="50.92212" lon="4.72878">
        <ele>14</ele>
      </trkpt>
      <trkpt lat="50.92057" lon="4.73341">
        <ele>22</ele>
      </trkpt>
      <trkpt lat="50.92043" lon="4.7337">
        <ele>22</ele>
      </trkpt>
      <trkpt lat="50.92015" lon="4.73413">
        <ele>21</ele>
      </trkpt>
      <trkpt lat="50.92012" lon="4.73439">
        <ele>21</ele>
      </trkpt>
      <trkpt lat="50.92016" lon="4.73544">
        <ele>20</ele>
      </trkpt>
      <trkpt lat="50.92045" lon="4.73693">
        <ele>21</ele>
      </trkpt>
      <trkpt lat="50.92047" lon="4.73741">
        <ele>22</ele>
      </trkpt>
      <trkpt lat="50.92077" lon="4.73901">
        <ele>22</ele>
      </trkpt>
      <trkpt lat="50.92079" lon="4.73929">
        <ele>20</ele>
      </trkpt>
      <trkpt lat="50.92077" lon="4.73933">
        <ele>20</ele>
      </trkpt>
      <trkpt lat="50.92058" lon="4.73947">
        <ele>21</ele>
      </trkpt>
      <trkpt lat="50.91865" lon="4.74111">
        <ele>19</ele>
      </trkpt>
      <trkpt lat="50.91774" lon="4.74174">
        <ele>18</ele>
      </trkpt>
      <trkpt lat="50.91723" lon="4.74208">
        <ele>17</ele>
      </trkpt>
      <trkpt lat="50.91683" lon="4.74247">
        <ele>19</ele>
      </trkpt>
      <trkpt lat="50.91726" lon="4.74395">
        <ele>19</ele>
      </trkpt>
      <trkpt lat="50.91815" lon="4.74661">
        <ele>20</ele>
      </trkpt>
      <trkpt lat="50.91836" lon="4.74739">
        <ele>21</ele>
      </trkpt>
      <trkpt lat="50.91878" lon="4.74874">
        <ele>20</ele>
      </trkpt>
      <trkpt lat="50.9192" lon="4.75013">
        <ele>24</ele>
      </trkpt>
      <trkpt lat="50.91921" lon="4.75031">
        <ele>24</ele>
      </trkpt>
      <trkpt lat="50.91919" lon="4.75036">
        <ele>24</ele>
      </trkpt>
      <trkpt lat="50.9193" lon="4.75052">
        <ele>23</ele>
      </trkpt>
      <trkpt lat="50.91938" lon="4.75069">
        <ele>21</ele>
      </trkpt>
      <trkpt lat="50.91973" lon="4.75178">
        <ele>23</ele>
      </trkpt>
      <trkpt lat="50.91984" lon="4.75222">
        <ele>23</ele>
      </trkpt>
      <trkpt lat="50.9199" lon="4.75285">
        <ele>24</ele>
      </trkpt>
      <trkpt lat="50.91994" lon="4.75431">
        <ele>27</ele>
      </trkpt>
      <trkpt lat="50.92002" lon="4.75538">
        <ele>27</ele>
      </trkpt>
      <trkpt lat="50.92009" lon="4.75601">
        <ele>28</ele>
      </trkpt>
      <trkpt lat="50.92038" lon="4.75797">
        <ele>22</ele>
      </trkpt>
      <trkpt lat="50.92028" lon="4.75824">
        <ele>23</ele>
      </trkpt>
      <trkpt lat="50.92017" lon="4.75843">
        <ele>24</ele>
      </trkpt>
      <trkpt lat="50.92012" lon="4.75856">
        <ele>26</ele>
      </trkpt>
      <trkpt lat="50.9201" lon="4.75871">
        <ele>27</ele>
      </trkpt>
      <trkpt lat="50.92014" lon="4.75904">
        <ele>26</ele>
      </trkpt>
      <trkpt lat="50.92036" lon="4.76076">
        <ele>23</ele>
      </trkpt>
      <trkpt lat="50.92043" lon="4.76155">
        <ele>23</ele>
      </trkpt>
      <trkpt lat="50.92056" lon="4.76541">
        <ele>23</ele>
      </trkpt>
      <trkpt lat="50.92057" lon="4.76609">
        <ele>23</ele>
      </trkpt>
      <trkpt lat="50.92052" lon="4.76706">
        <ele>23</ele>
      </trkpt>
      <trkpt lat="50.92053" lon="4.76748">
        <ele>23</ele>
      </trkpt>
      <trkpt lat="50.92068" lon="4.76923">
        <ele>24</ele>
      </trkpt>
      <trkpt lat="50.92089" lon="4.77124">
        <ele>24</ele>
      </trkpt>
      <trkpt lat="50.92091" lon="4.77173">
        <ele>23</ele>
      </trkpt>
      <trkpt lat="50.92088" lon="4.77269">
        <ele>22</ele>
      </trkpt>
      <trkpt lat="50.92054" lon="4.77911">
        <ele>22</ele>
      </trkpt>
      <trkpt lat="50.92054" lon="4.77934">
        <ele>22</ele>
      </trkpt>
      <trkpt lat="50.92003" lon="4.77957">
        <ele>25</ele>
      </trkpt>
      <trkpt lat="50.91975" lon="4.7797">
        <ele>25</ele>
      </trkpt>
      <trkpt lat="50.91948" lon="4.77988">
        <ele>26</ele>
      </trkpt>
      <trkpt lat="50.9181" lon="4.78123">
        <ele>29</ele>
      </trkpt>
      <trkpt lat="50.91791" lon="4.78147">
        <ele>29</ele>
      </trkpt>
      <trkpt lat="50.91743" lon="4.7822">
        <ele>28</ele>
      </trkpt>
      <trkpt lat="50.91705" lon="4.78283">
        <ele>27</ele>
      </trkpt>
      <trkpt lat="50.91689" lon="4.78342">
        <ele>26</ele>
      </trkpt>
      <trkpt lat="50.91648" lon="4.78459">
        <ele>25</ele>
      </trkpt>
      <trkpt lat="50.91641" lon="4.78476">
        <ele>25</ele>
      </trkpt>
      <trkpt lat="50.91663" lon="4.78509">
        <ele>25</ele>
      </trkpt>
      <trkpt lat="50.91671" lon="4.78531">
        <ele>25</ele>
      </trkpt>
      <trkpt lat="50.91698" lon="4.78598">
        <ele>24</ele>
      </trkpt>
      <trkpt lat="50.91795" lon="4.78542">
        <ele>23</ele>
      </trkpt>
      <trkpt lat="50.91815" lon="4.78541">
        <ele>23</ele>
      </trkpt>
      <trkpt lat="50.91824" lon="4.78548">
        <ele>23</ele>
      </trkpt>
      <trkpt lat="50.91832" lon="4.78557">
        <ele>23</ele>
      </trkpt>
      <trkpt lat="50.91839" lon="4.78571">
        <ele>24</ele>
      </trkpt>
      <trkpt lat="50.91859" lon="4.78641">
        <ele>24</ele>
      </trkpt>
      <trkpt lat="50.9187" lon="4.78659">
        <ele>24</ele>
      </trkpt>
      <trkpt lat="50.91907" lon="4.78693">
        <ele>25</ele>
      </trkpt>
      <trkpt lat="50.91918" lon="4.78708">
        <ele>25</ele>
      </trkpt>
      <trkpt lat="50.91943" lon="4.78795">
        <ele>26</ele>
      </trkpt>
      <trkpt lat="50.91993" lon="4.78898">
        <ele>26</ele>
      </trkpt>
      <trkpt lat="50.92007" lon="4.78922">
        <ele>27</ele>
      </trkpt>
      <trkpt lat="50.92027" lon="4.78942">
        <ele>26</ele>
      </trkpt>
      <trkpt lat="50.92028" lon="4.78948">
        <ele>26</ele>
      </trkpt>
      <trkpt lat="50.92024" lon="4.78967">
        <ele>26</ele>
      </trkpt>
      <trkpt lat="50.92019" lon="4.78981">
        <ele>26</ele>
      </trkpt>
      <trkpt lat="50.91996" lon="4.79022">
        <ele>28</ele>
      </trkpt>
      <trkpt lat="50.91955" lon="4.79075">
        <ele>29</ele>
      </trkpt>
      <trkpt lat="50.91914" lon="4.79111">
        <ele>31</ele>
      </trkpt>
      <trkpt lat="50.91945" lon="4.79203">
        <ele>33</ele>
      </trkpt>
      <trkpt lat="50.91983" lon="4.7931">
        <ele>35</ele>
      </trkpt>
      <trkpt lat="50.91986" lon="4.79329">
        <ele>35</ele>
      </trkpt>
      <trkpt lat="50.91935" lon="4.79379">
        <ele>37</ele>
      </trkpt>
      <trkpt lat="50.91867" lon="4.79445">
        <ele>41</ele>
      </trkpt>
      <trkpt lat="50.91851" lon="4.79457">
        <ele>41</ele>
      </trkpt>
      <trkpt lat="50.91818" lon="4.79476">
        <ele>42</ele>
      </trkpt>
      <trkpt lat="50.91817" lon="4.79487">
        <ele>42</ele>
      </trkpt>
      <trkpt lat="50.91856" lon="4.7964">
        <ele>45</ele>
      </trkpt>
      <trkpt lat="50.91895" lon="4.79782">
        <ele>47</ele>
      </trkpt>
      <trkpt lat="50.91895" lon="4.79792">
        <ele>47</ele>
      </trkpt>
      <trkpt lat="50.91888" lon="4.79802">
        <ele>46</ele>
      </trkpt>
      <trkpt lat="50.91873" lon="4.79822">
        <ele>46</ele>
      </trkpt>
      <trkpt lat="50.91854" lon="4.79859">
        <ele>46</ele>
      </trkpt>
      <trkpt lat="50.91845" lon="4.79884">
        <ele>46</ele>
      </trkpt>
      <trkpt lat="50.91813" lon="4.80013">
        <ele>44</ele>
      </trkpt>
      <trkpt lat="50.91799" lon="4.80039">
        <ele>44</ele>
      </trkpt>
      <trkpt lat="50.91682" lon="4.80139">
        <ele>41</ele>
      </trkpt>
      <trkpt lat="50.91672" lon="4.80145">
        <ele>41</ele>
      </trkpt>
      <trkpt lat="50.91614" lon="4.80213">
        <ele>40</ele>
      </trkpt>
      <trkpt lat="50.91596" lon="4.80231">
        <ele>41</ele>
      </trkpt>
      <trkpt lat="50.91579" lon="4.80244">
        <ele>41</ele>
      </trkpt>
      <trkpt lat="50.91531" lon="4.80264">
        <ele>40</ele>
      </trkpt>
      <trkpt lat="50.91514" lon="4.80334">
        <ele>39</ele>
      </trkpt>
      <trkpt lat="50.9151" lon="4.80365">
        <ele>39</ele>
      </trkpt>
      <trkpt lat="50.91509" lon="4.80505">
        <ele>38</ele>
      </trkpt>
      <trkpt lat="50.91514" lon="4.80542">
        <ele>38</ele>
      </trkpt>
      <trkpt lat="50.91552" lon="4.80698">
        <ele>40</ele>
      </trkpt>
      <trkpt lat="50.91552" lon="4.80712">
        <ele>40</ele>
      </trkpt>
      <trkpt lat="50.91492" lon="4.80713">
        <ele>38</ele>
      </trkpt>
      <trkpt lat="50.91121" lon="4.80713">
        <ele>45</ele>
      </trkpt>
      <trkpt lat="50.91048" lon="4.80709">
        <ele>47</ele>
      </trkpt>
      <trkpt lat="50.90962" lon="4.80695">
        <ele>49</ele>
      </trkpt>
      <trkpt lat="50.90818" lon="4.80631">
        <ele>51</ele>
      </trkpt>
      <trkpt lat="50.90757" lon="4.80616">
        <ele>51</ele>
      </trkpt>
      <trkpt lat="50.9071" lon="4.80612">
        <ele>51</ele>
      </trkpt>
      <trkpt lat="50.90648" lon="4.80618">
        <ele>51</ele>
      </trkpt>
      <trkpt lat="50.90606" lon="4.8063">
        <ele>51</ele>
      </trkpt>
      <trkpt lat="50.90437" lon="4.80695">
        <ele>54</ele>
      </trkpt>
      <trkpt lat="50.90386" lon="4.8071">
        <ele>57</ele>
      </trkpt>
      <trkpt lat="50.90324" lon="4.8072">
        <ele>58</ele>
      </trkpt>
      <trkpt lat="50.90327" lon="4.8074">
        <ele>58</ele>
      </trkpt>
      <trkpt lat="50.90376" lon="4.80876">
        <ele>54</ele>
      </trkpt>
      <trkpt lat="50.90389" lon="4.80913">
        <ele>54</ele>
      </trkpt>
      <trkpt lat="50.9041" lon="4.80964">
        <ele>53</ele>
      </trkpt>
      <trkpt lat="50.90546" lon="4.81263">
        <ele>54</ele>
      </trkpt>
      <trkpt lat="50.9059" lon="4.81366">
        <ele>55</ele>
      </trkpt>
      <trkpt lat="50.90621" lon="4.81453">
        <ele>54</ele>
      </trkpt>
      <trkpt lat="50.90665" lon="4.81544">
        <ele>55</ele>
      </trkpt>
      <trkpt lat="50.90671" lon="4.81571">
        <ele>55</ele>
      </trkpt>
      <trkpt lat="50.90726" lon="4.81802">
        <ele>59</ele>
      </trkpt>
      <trkpt lat="50.90745" lon="4.81817">
        <ele>60</ele>
      </trkpt>
      <trkpt lat="50.90798" lon="4.81818">
        <ele>62</ele>
      </trkpt>
      <trkpt lat="50.90804" lon="4.81821">
        <ele>62</ele>
      </trkpt>
      <trkpt lat="50.90812" lon="4.81829">
        <ele>63</ele>
      </trkpt>
      <trkpt lat="50.90819" lon="4.8184">
        <ele>63</ele>
      </trkpt>
      <trkpt lat="50.90871" lon="4.81935">
        <ele>68</ele>
      </trkpt>
      <trkpt lat="50.90889" lon="4.81975">
        <ele>69</ele>
      </trkpt>
      <trkpt lat="50.90901" lon="4.81997">
        <ele>69</ele>
      </trkpt>
      <trkpt lat="50.9099" lon="4.82123">
        <ele>72</ele>
      </trkpt>
      <trkpt lat="50.91025" lon="4.82203">
        <ele>72</ele>
      </trkpt>
      <trkpt lat="50.91068" lon="4.82331">
        <ele>72</ele>
      </trkpt>
      <trkpt lat="50.91094" lon="4.82392">
        <ele>72</ele>
      </trkpt>
      <trkpt lat="50.91104" lon="4.82412">
        <ele>70</ele>
      </trkpt>
      <trkpt lat="50.91162" lon="4.8255">
        <ele>70</ele>
      </trkpt>
      <trkpt lat="50.91177" lon="4.82593">
        <ele>70</ele>
      </trkpt>
      <trkpt lat="50.91202" lon="4.82678">
        <ele>68</ele>
      </trkpt>
      <trkpt lat="50.9122" lon="4.82712">
        <ele>68</ele>
      </trkpt>
      <trkpt lat="50.91224" lon="4.82728">
        <ele>68</ele>
      </trkpt>
      <trkpt lat="50.91227" lon="4.82764">
        <ele>67</ele>
      </trkpt>
      <trkpt lat="50.91255" lon="4.82843">
        <ele>66</ele>
      </trkpt>
      <trkpt lat="50.91291" lon="4.82919">
        <ele>62</ele>
      </trkpt>
      <trkpt lat="50.91304" lon="4.82948">
        <ele>62</ele>
      </trkpt>
      <trkpt lat="50.91324" lon="4.83005">
        <ele>60</ele>
      </trkpt>
      <trkpt lat="50.91331" lon="4.83032">
        <ele>59</ele>
      </trkpt>
      <trkpt lat="50.91345" lon="4.831">
        <ele>57</ele>
      </trkpt>
      <trkpt lat="50.91351" lon="4.83122">
        <ele>56</ele>
      </trkpt>
      <trkpt lat="50.91358" lon="4.83138">
        <ele>56</ele>
      </trkpt>
      <trkpt lat="50.91393" lon="4.83201">
        <ele>54</ele>
      </trkpt>
      <trkpt lat="50.91425" lon="4.83249">
        <ele>53</ele>
      </trkpt>
      <trkpt lat="50.91492" lon="4.83342">
        <ele>51</ele>
      </trkpt>
      <trkpt lat="50.91543" lon="4.83433">
        <ele>50</ele>
      </trkpt>
      <trkpt lat="50.91563" lon="4.83459">
        <ele>50</ele>
      </trkpt>
      <trkpt lat="50.91656" lon="4.83534">
        <ele>48</ele>
      </trkpt>
      <trkpt lat="50.91671" lon="4.83542">
        <ele>47</ele>
      </trkpt>
      <trkpt lat="50.91715" lon="4.83547">
        <ele>45</ele>
      </trkpt>
      <trkpt lat="50.91732" lon="4.83561">
        <ele>45</ele>
      </trkpt>
      <trkpt lat="50.91766" lon="4.836">
        <ele>43</ele>
      </trkpt>
      <trkpt lat="50.91811" lon="4.83659">
        <ele>43</ele>
      </trkpt>
      <trkpt lat="50.91831" lon="4.83681">
        <ele>42</ele>
      </trkpt>
      <trkpt lat="50.91875" lon="4.83723">
        <ele>42</ele>
      </trkpt>
      <trkpt lat="50.91887" lon="4.83738">
        <ele>42</ele>
      </trkpt>
      <trkpt lat="50.9191" lon="4.83788">
        <ele>42</ele>
      </trkpt>
      <trkpt lat="50.91963" lon="4.83835">
        <ele>44</ele>
      </trkpt>
      <trkpt lat="50.9197" lon="4.83846">
        <ele>44</ele>
      </trkpt>
      <trkpt lat="50.91988" lon="4.8389">
        <ele>44</ele>
      </trkpt>
      <trkpt lat="50.91998" lon="4.83876">
        <ele>44</ele>
      </trkpt>
      <trkpt lat="50.92017" lon="4.83859">
        <ele>46</ele>
      </trkpt>
      <trkpt lat="50.92342" lon="4.83572">
        <ele>47</ele>
      </trkpt>
      <trkpt lat="50.92358" lon="4.83564">
        <ele>47</ele>
      </trkpt>
      <trkpt lat="50.924" lon="4.83549">
        <ele>47</ele>
      </trkpt>
      <trkpt lat="50.92543" lon="4.83506">
        <ele>45</ele>
      </trkpt>
      <trkpt lat="50.93129" lon="4.83327">
        <ele>33</ele>
      </trkpt>
      <trkpt lat="50.93217" lon="4.833">
        <ele>31</ele>
      </trkpt>
      <trkpt lat="50.93212" lon="4.83091">
        <ele>30</ele>
      </trkpt>
      <trkpt lat="50.932" lon="4.82965">
        <ele>28</ele>
      </trkpt>
      <trkpt lat="50.932" lon="4.82931">
        <ele>28</ele>
      </trkpt>
      <trkpt lat="50.9321" lon="4.82828">
        <ele>26</ele>
      </trkpt>
      <trkpt lat="50.93222" lon="4.8273">
        <ele>25</ele>
      </trkpt>
      <trkpt lat="50.93234" lon="4.82657">
        <ele>25</ele>
      </trkpt>
      <trkpt lat="50.93248" lon="4.82558">
        <ele>25</ele>
      </trkpt>
      <trkpt lat="50.93264" lon="4.82432">
        <ele>26</ele>
      </trkpt>
      <trkpt lat="50.93271" lon="4.82353">
        <ele>27</ele>
      </trkpt>
      <trkpt lat="50.93272" lon="4.82307">
        <ele>27</ele>
      </trkpt>
      <trkpt lat="50.93271" lon="4.82256">
        <ele>28</ele>
      </trkpt>
      <trkpt lat="50.93266" lon="4.82208">
        <ele>28</ele>
      </trkpt>
      <trkpt lat="50.93256" lon="4.82138">
        <ele>30</ele>
      </trkpt>
      <trkpt lat="50.93232" lon="4.82019">
        <ele>30</ele>
      </trkpt>
      <trkpt lat="50.93203" lon="4.81911">
        <ele>27</ele>
      </trkpt>
      <trkpt lat="50.93183" lon="4.81843">
        <ele>27</ele>
      </trkpt>
      <trkpt lat="50.93163" lon="4.81761">
        <ele>29</ele>
      </trkpt>
      <trkpt lat="50.93124" lon="4.81575">
        <ele>27</ele>
      </trkpt>
      <trkpt lat="50.93062" lon="4.81289">
        <ele>25</ele>
      </trkpt>
      <trkpt lat="50.93038" lon="4.8118">
        <ele>25</ele>
      </trkpt>
      <trkpt lat="50.93029" lon="4.81147">
        <ele>24</ele>
      </trkpt>
      <trkpt lat="50.93006" lon="4.81087">
        <ele>25</ele>
      </trkpt>
      <trkpt lat="50.92982" lon="4.81044">
        <ele>24</ele>
      </trkpt>
      <trkpt lat="50.92952" lon="4.81">
        <ele>24</ele>
      </trkpt>
      <trkpt lat="50.92936" lon="4.80983">
        <ele>23</ele>
      </trkpt>
      <trkpt lat="50.9292" lon="4.80973">
        <ele>24</ele>
      </trkpt>
      <trkpt lat="50.92903" lon="4.80972">
        <ele>24</ele>
      </trkpt>
      <trkpt lat="50.92893" lon="4.80976">
        <ele>24</ele>
      </trkpt>
      <trkpt lat="50.9271" lon="4.81119">
        <ele>29</ele>
      </trkpt>
      <trkpt lat="50.92696" lon="4.81127">
        <ele>29</ele>
      </trkpt>
      <trkpt lat="50.92684" lon="4.81126">
        <ele>29</ele>
      </trkpt>
      <trkpt lat="50.92669" lon="4.81113">
        <ele>29</ele>
      </trkpt>
      <trkpt lat="50.92663" lon="4.81103">
        <ele>29</ele>
      </trkpt>
      <trkpt lat="50.92647" lon="4.81061">
        <ele>28</ele>
      </trkpt>
      <trkpt lat="50.92617" lon="4.80951">
        <ele>27</ele>
      </trkpt>
      <trkpt lat="50.92592" lon="4.80882">
        <ele>29</ele>
      </trkpt>
      <trkpt lat="50.92583" lon="4.80848">
        <ele>30</ele>
      </trkpt>
      <trkpt lat="50.92575" lon="4.80788">
        <ele>31</ele>
      </trkpt>
      <trkpt lat="50.92626" lon="4.8078">
        <ele>28</ele>
      </trkpt>
      <trkpt lat="50.9264" lon="4.80769">
        <ele>28</ele>
      </trkpt>
      <trkpt lat="50.92657" lon="4.80749">
        <ele>27</ele>
      </trkpt>
      <trkpt lat="50.9289" lon="4.80439">
        <ele>21</ele>
      </trkpt>
      <trkpt lat="50.9292" lon="4.80391">
        <ele>21</ele>
      </trkpt>
      <trkpt lat="50.92956" lon="4.80323">
        <ele>20</ele>
      </trkpt>
      <trkpt lat="50.92967" lon="4.80308">
        <ele>20</ele>
      </trkpt>
      <trkpt lat="50.92991" lon="4.80285">
        <ele>20</ele>
      </trkpt>
      <trkpt lat="50.93007" lon="4.80273">
        <ele>20</ele>
      </trkpt>
      <trkpt lat="50.93048" lon="4.80257">
        <ele>20</ele>
      </trkpt>
      <trkpt lat="50.93404" lon="4.8014">
        <ele>18</ele>
      </trkpt>
      <trkpt lat="50.93437" lon="4.80131">
        <ele>18</ele>
      </trkpt>
      <trkpt lat="50.93455" lon="4.80131">
        <ele>18</ele>
      </trkpt>
      <trkpt lat="50.93473" lon="4.80134">
        <ele>19</ele>
      </trkpt>
      <trkpt lat="50.93488" lon="4.80139">
        <ele>18</ele>
      </trkpt>
      <trkpt lat="50.93526" lon="4.80163">
        <ele>19</ele>
      </trkpt>
      <trkpt lat="50.93556" lon="4.80198">
        <ele>18</ele>
      </trkpt>
      <trkpt lat="50.93614" lon="4.80292">
        <ele>19</ele>
      </trkpt>
      <trkpt lat="50.93624" lon="4.80307">
        <ele>19</ele>
      </trkpt>
      <trkpt lat="50.93651" lon="4.80334">
        <ele>18</ele>
      </trkpt>
      <trkpt lat="50.93665" lon="4.80345">
        <ele>18</ele>
      </trkpt>
      <trkpt lat="50.937" lon="4.8036">
        <ele>19</ele>
      </trkpt>
      <trkpt lat="50.93731" lon="4.80363">
        <ele>19</ele>
      </trkpt>
      <trkpt lat="50.93764" lon="4.80358">
        <ele>20</ele>
      </trkpt>
      <trkpt lat="50.93841" lon="4.80338">
        <ele>22</ele>
      </trkpt>
      <trkpt lat="50.93879" lon="4.80339">
        <ele>25</ele>
      </trkpt>
      <trkpt lat="50.93918" lon="4.80345">
        <ele>25</ele>
      </trkpt>
      <trkpt lat="50.94032" lon="4.80396">
        <ele>23</ele>
      </trkpt>
      <trkpt lat="50.94053" lon="4.80402">
        <ele>22</ele>
      </trkpt>
      <trkpt lat="50.94084" lon="4.80405">
        <ele>22</ele>
      </trkpt>
      <trkpt lat="50.94122" lon="4.80394">
        <ele>20</ele>
      </trkpt>
      <trkpt lat="50.94145" lon="4.8038">
        <ele>19</ele>
      </trkpt>
      <trkpt lat="50.94159" lon="4.80369">
        <ele>20</ele>
      </trkpt>
      <trkpt lat="50.94183" lon="4.80343">
        <ele>20</ele>
      </trkpt>
      <trkpt lat="50.94396" lon="4.80054">
        <ele>20</ele>
      </trkpt>
      <trkpt lat="50.94405" lon="4.80045">
        <ele>20</ele>
      </trkpt>
      <trkpt lat="50.94363" lon="4.79799">
        <ele>20</ele>
      </trkpt>
      <trkpt lat="50.94353" lon="4.79725">
        <ele>20</ele>
      </trkpt>
      <trkpt lat="50.94321" lon="4.79406">
        <ele>21</ele>
      </trkpt>
      <trkpt lat="50.94249" lon="4.78648">
        <ele>19</ele>
      </trkpt>
      <trkpt lat="50.94246" lon="4.78571">
        <ele>19</ele>
      </trkpt>
      <trkpt lat="50.94246" lon="4.78389">
        <ele>19</ele>
      </trkpt>
      <trkpt lat="50.94243" lon="4.78177">
        <ele>18</ele>
      </trkpt>
      <trkpt lat="50.94243" lon="4.7814">
        <ele>18</ele>
      </trkpt>
      <trkpt lat="50.94246" lon="4.7812">
        <ele>18</ele>
      </trkpt>
      <trkpt lat="50.94251" lon="4.78108">
        <ele>18</ele>
      </trkpt>
      <trkpt lat="50.94243" lon="4.78096">
        <ele>18</ele>
      </trkpt>
      <trkpt lat="50.94241" lon="4.78088">
        <ele>18</ele>
      </trkpt>
      <trkpt lat="50.94242" lon="4.78056">
        <ele>17</ele>
      </trkpt>
      <trkpt lat="50.9427" lon="4.77875">
        <ele>18</ele>
      </trkpt>
      <trkpt lat="50.94276" lon="4.77825">
        <ele>17</ele>
      </trkpt>
      <trkpt lat="50.94286" lon="4.77658">
        <ele>16</ele>
      </trkpt>
      <trkpt lat="50.94319" lon="4.77462">
        <ele>15</ele>
      </trkpt>
      <trkpt lat="50.94319" lon="4.77445">
        <ele>15</ele>
      </trkpt>
      <trkpt lat="50.94309" lon="4.77372">
        <ele>15</ele>
      </trkpt>
      <trkpt lat="50.94303" lon="4.77331">
        <ele>15</ele>
      </trkpt>
      <trkpt lat="50.94305" lon="4.77285">
        <ele>15</ele>
      </trkpt>
      <trkpt lat="50.94308" lon="4.77271">
        <ele>15</ele>
      </trkpt>
      <trkpt lat="50.94352" lon="4.77113">
        <ele>15</ele>
      </trkpt>
      <trkpt lat="50.94358" lon="4.77081">
        <ele>15</ele>
      </trkpt>
      <trkpt lat="50.94359" lon="4.77059">
        <ele>15</ele>
      </trkpt>
      <trkpt lat="50.94353" lon="4.76953">
        <ele>15</ele>
      </trkpt>
      <trkpt lat="50.94345" lon="4.76933">
        <ele>15</ele>
      </trkpt>
      <trkpt lat="50.94341" lon="4.76925">
        <ele>15</ele>
      </trkpt>
      <trkpt lat="50.94268" lon="4.76808">
        <ele>16</ele>
      </trkpt>
      <trkpt lat="50.94261" lon="4.76775">
        <ele>17</ele>
      </trkpt>
      <trkpt lat="50.94263" lon="4.76749">
        <ele>17</ele>
      </trkpt>
      <trkpt lat="50.94269" lon="4.76711">
        <ele>17</ele>
      </trkpt>
      <trkpt lat="50.94279" lon="4.76666">
        <ele>17</ele>
      </trkpt>
      <trkpt lat="50.94293" lon="4.7663">
        <ele>16</ele>
      </trkpt>
      <trkpt lat="50.9431" lon="4.76597">
        <ele>16</ele>
      </trkpt>
      <trkpt lat="50.94417" lon="4.76437">
        <ele>14</ele>
      </trkpt>
      <trkpt lat="50.94496" lon="4.76316">
        <ele>15</ele>
      </trkpt>
      <trkpt lat="50.94513" lon="4.76276">
        <ele>15</ele>
      </trkpt>
      <trkpt lat="50.94526" lon="4.76228">
        <ele>15</ele>
      </trkpt>
      <trkpt lat="50.94537" lon="4.76179">
        <ele>15</ele>
      </trkpt>
      <trkpt lat="50.94553" lon="4.76144">
        <ele>15</ele>
      </trkpt>
      <trkpt lat="50.94612" lon="4.76076">
        <ele>15</ele>
      </trkpt>
      <trkpt lat="50.94634" lon="4.76048">
        <ele>15</ele>
      </trkpt>
      <trkpt lat="50.94654" lon="4.76013">
        <ele>15</ele>
      </trkpt>
      <trkpt lat="50.94674" lon="4.75973">
        <ele>16</ele>
      </trkpt>
      <trkpt lat="50.94682" lon="4.75946">
        <ele>16</ele>
      </trkpt>
      <trkpt lat="50.94686" lon="4.7592">
        <ele>17</ele>
      </trkpt>
      <trkpt lat="50.94693" lon="4.75847">
        <ele>17</ele>
      </trkpt>
      <trkpt lat="50.94704" lon="4.75804">
        <ele>17</ele>
      </trkpt>
      <trkpt lat="50.94711" lon="4.75788">
        <ele>17</ele>
      </trkpt>
      <trkpt lat="50.94728" lon="4.75765">
        <ele>17</ele>
      </trkpt>
      <trkpt lat="50.94755" lon="4.75742">
        <ele>17</ele>
      </trkpt>
      <trkpt lat="50.94755" lon="4.75725">
        <ele>17</ele>
      </trkpt>
      <trkpt lat="50.94761" lon="4.75706">
        <ele>17</ele>
      </trkpt>
      <trkpt lat="50.94766" lon="4.75661">
        <ele>16</ele>
      </trkpt>
      <trkpt lat="50.94777" lon="4.7561">
        <ele>16</ele>
      </trkpt>
      <trkpt lat="50.94777" lon="4.75606">
        <ele>16</ele>
      </trkpt>
      <trkpt lat="50.94796" lon="4.7561">
        <ele>16</ele>
      </trkpt>
      <trkpt lat="50.94803" lon="4.75614">
        <ele>16</ele>
      </trkpt>
      <trkpt lat="50.94814" lon="4.75559">
        <ele>16</ele>
      </trkpt>
      <trkpt lat="50.94844" lon="4.75461">
        <ele>16</ele>
      </trkpt>
      <trkpt lat="50.94868" lon="4.75401">
        <ele>15</ele>
      </trkpt>
      <trkpt lat="50.94846" lon="4.75356">
        <ele>15</ele>
      </trkpt>
      <trkpt lat="50.94873" lon="4.75338">
        <ele>15</ele>
      </trkpt>
      <trkpt lat="50.94895" lon="4.75329">
        <ele>14</ele>
      </trkpt>
      <trkpt lat="50.94889" lon="4.75257">
        <ele>14</ele>
      </trkpt>
      <trkpt lat="50.94849" lon="4.74754">
        <ele>13</ele>
      </trkpt>
      <trkpt lat="50.94847" lon="4.74742">
        <ele>13</ele>
      </trkpt>
      <trkpt lat="50.94842" lon="4.74729">
        <ele>13</ele>
      </trkpt>
      <trkpt lat="50.94829" lon="4.74718">
        <ele>13</ele>
      </trkpt>
      <trkpt lat="50.94787" lon="4.74702">
        <ele>13</ele>
      </trkpt>
      <trkpt lat="50.94777" lon="4.747">
        <ele>13</ele>
      </trkpt>
      <trkpt lat="50.94755" lon="4.74702">
        <ele>13</ele>
      </trkpt>
      <trkpt lat="50.94705" lon="4.74728">
        <ele>13</ele>
      </trkpt>
      <trkpt lat="50.94688" lon="4.74652">
        <ele>13</ele>
      </trkpt>
      <trkpt lat="50.94672" lon="4.74592">
        <ele>13</ele>
      </trkpt>
      <trkpt lat="50.94653" lon="4.74513">
        <ele>13</ele>
      </trkpt>
      <trkpt lat="50.94647" lon="4.74477">
        <ele>14</ele>
      </trkpt>
      <trkpt lat="50.94643" lon="4.74442">
        <ele>14</ele>
      </trkpt>
      <trkpt lat="50.9464" lon="4.74307">
        <ele>14</ele>
      </trkpt>
      <trkpt lat="50.94643" lon="4.74274">
        <ele>14</ele>
      </trkpt>
      <trkpt lat="50.9465" lon="4.7425">
        <ele>14</ele>
      </trkpt>
      <trkpt lat="50.94685" lon="4.741">
        <ele>14</ele>
      </trkpt>
      <trkpt lat="50.94697" lon="4.74041">
        <ele>13</ele>
      </trkpt>
      <trkpt lat="50.94711" lon="4.73938">
        <ele>12</ele>
      </trkpt>
      <trkpt lat="50.94713" lon="4.73871">
        <ele>12</ele>
      </trkpt>
      <trkpt lat="50.94714" lon="4.73716">
        <ele>12</ele>
      </trkpt>
      <trkpt lat="50.94712" lon="4.73677">
        <ele>12</ele>
      </trkpt>
      <trkpt lat="50.94707" lon="4.73622">
        <ele>12</ele>
      </trkpt>
      <trkpt lat="50.94701" lon="4.7358">
        <ele>12</ele>
      </trkpt>
      <trkpt lat="50.947" lon="4.73554">
        <ele>12</ele>
      </trkpt>
      <trkpt lat="50.94702" lon="4.73537">
        <ele>12</ele>
      </trkpt>
      <trkpt lat="50.94708" lon="4.7351">
        <ele>12</ele>
      </trkpt>
      <trkpt lat="50.94705" lon="4.73497">
        <ele>12</ele>
      </trkpt>
      <trkpt lat="50.94686" lon="4.73448">
        <ele>12</ele>
      </trkpt>
      <trkpt lat="50.94681" lon="4.73441">
        <ele>12</ele>
      </trkpt>
      <trkpt lat="50.94663" lon="4.73427">
        <ele>12</ele>
      </trkpt>
      <trkpt lat="50.94662" lon="4.73417">
        <ele>12</ele>
      </trkpt>
      <trkpt lat="50.94665" lon="4.73404">
        <ele>12</ele>
      </trkpt>
      <trkpt lat="50.94678" lon="4.73378">
        <ele>12</ele>
      </trkpt>
      <trkpt lat="50.94684" lon="4.73377">
        <ele>12</ele>
      </trkpt>
      <trkpt lat="50.94689" lon="4.73381">
        <ele>12</ele>
      </trkpt>
      <trkpt lat="50.94693" lon="4.73392">
        <ele>12</ele>
      </trkpt>
      <trkpt lat="50.947" lon="4.73397">
        <ele>12</ele>
      </trkpt>
      <trkpt lat="50.94703" lon="4.73395">
        <ele>12</ele>
      </trkpt>
      <trkpt lat="50.94744" lon="4.73345">
        <ele>12</ele>
      </trkpt>
      <trkpt lat="50.94756" lon="4.73322">
        <ele>12</ele>
      </trkpt>
      <trkpt lat="50.94757" lon="4.73293">
        <ele>12</ele>
      </trkpt>
      <trkpt lat="50.94754" lon="4.7328">
        <ele>12</ele>
      </trkpt>
      <trkpt lat="50.94834" lon="4.73185">
        <ele>13</ele>
      </trkpt>
      <trkpt lat="50.94898" lon="4.73043">
        <ele>13</ele>
      </trkpt>
      <trkpt lat="50.94921" lon="4.73003">
        <ele>13</ele>
      </trkpt>
      <trkpt lat="50.94958" lon="4.72969">
        <ele>13</ele>
      </trkpt>
      <trkpt lat="50.94972" lon="4.72956">
        <ele>12</ele>
      </trkpt>
      <trkpt lat="50.94993" lon="4.72927">
        <ele>13</ele>
      </trkpt>
      <trkpt lat="50.95023" lon="4.72874">
        <ele>12</ele>
      </trkpt>
      <trkpt lat="50.95098" lon="4.72723">
        <ele>12</ele>
      </trkpt>
      <trkpt lat="50.95132" lon="4.72663">
        <ele>14</ele>
      </trkpt>
      <trkpt lat="50.9517" lon="4.72607">
        <ele>14</ele>
      </trkpt>
      <trkpt lat="50.95206" lon="4.72564">
        <ele>14</ele>
      </trkpt>
      <trkpt lat="50.95249" lon="4.72497">
        <ele>14</ele>
      </trkpt>
      <trkpt lat="50.95301" lon="4.72397">
        <ele>13</ele>
      </trkpt>
      <trkpt lat="50.9535" lon="4.72282">
        <ele>12</ele>
      </trkpt>
      <trkpt lat="50.95367" lon="4.72248">
        <ele>12</ele>
      </trkpt>
      <trkpt lat="50.95376" lon="4.72235">
        <ele>12</ele>
      </trkpt>
      <trkpt lat="50.95379" lon="4.72232">
        <ele>12</ele>
      </trkpt>
      <trkpt lat="50.9541" lon="4.72227">
        <ele>12</ele>
      </trkpt>
      <trkpt lat="50.95456" lon="4.72197">
        <ele>11</ele>
      </trkpt>
      <trkpt lat="50.95503" lon="4.72162">
        <ele>11</ele>
      </trkpt>
      <trkpt lat="50.95501" lon="4.72151">
        <ele>11</ele>
      </trkpt>
      <trkpt lat="50.95574" lon="4.72117">
        <ele>11</ele>
      </trkpt>
      <trkpt lat="50.95618" lon="4.72107">
        <ele>11</ele>
      </trkpt>
      <trkpt lat="50.95704" lon="4.72092">
        <ele>11</ele>
      </trkpt>
      <trkpt lat="50.9571" lon="4.72087">
        <ele>11</ele>
      </trkpt>
      <trkpt lat="50.95714" lon="4.72077">
        <ele>11</ele>
      </trkpt>
      <trkpt lat="50.95727" lon="4.7208">
        <ele>11</ele>
      </trkpt>
      <trkpt lat="50.95744" lon="4.72091">
        <ele>11</ele>
      </trkpt>
      <trkpt lat="50.95784" lon="4.72088">
        <ele>11</ele>
      </trkpt>
      <trkpt lat="50.95866" lon="4.7208">
        <ele>11</ele>
      </trkpt>
      <trkpt lat="50.95896" lon="4.72083">
        <ele>11</ele>
      </trkpt>
      <trkpt lat="50.95936" lon="4.72074">
        <ele>11</ele>
      </trkpt>
      <trkpt lat="50.95958" lon="4.72061">
        <ele>12</ele>
      </trkpt>
      <trkpt lat="50.95975" lon="4.72054">
        <ele>12</ele>
      </trkpt>
      <trkpt lat="50.96114" lon="4.7203">
        <ele>11</ele>
      </trkpt>
      <trkpt lat="50.96124" lon="4.72032">
        <ele>11</ele>
      </trkpt>
      <trkpt lat="50.96137" lon="4.72025">
        <ele>11</ele>
      </trkpt>
      <trkpt lat="50.96188" lon="4.71989">
        <ele>11</ele>
      </trkpt>
      <trkpt lat="50.96274" lon="4.71946">
        <ele>11</ele>
      </trkpt>
      <trkpt lat="50.96303" lon="4.71931">
        <ele>11</ele>
      </trkpt>
      <trkpt lat="50.96313" lon="4.71928">
        <ele>11</ele>
      </trkpt>
      <trkpt lat="50.9632" lon="4.72121">
        <ele>12</ele>
      </trkpt>
      <trkpt lat="50.96372" lon="4.72128">
        <ele>12</ele>
      </trkpt>
      <trkpt lat="50.96392" lon="4.72127">
        <ele>12</ele>
      </trkpt>
      <trkpt lat="50.96451" lon="4.72101">
        <ele>13</ele>
      </trkpt>
      <trkpt lat="50.96503" lon="4.72075">
        <ele>13</ele>
      </trkpt>
      <trkpt lat="50.96516" lon="4.7206">
        <ele>13</ele>
      </trkpt>
      <trkpt lat="50.96552" lon="4.72008">
        <ele>15</ele>
      </trkpt>
      <trkpt lat="50.96577" lon="4.71988">
        <ele>15</ele>
      </trkpt>
      <trkpt lat="50.96597" lon="4.71979">
        <ele>15</ele>
      </trkpt>
      <trkpt lat="50.96615" lon="4.71976">
        <ele>16</ele>
      </trkpt>
      <trkpt lat="50.96863" lon="4.71911">
        <ele>13</ele>
      </trkpt>
      <trkpt lat="50.96931" lon="4.71883">
        <ele>13</ele>
      </trkpt>
      <trkpt lat="50.96971" lon="4.71866">
        <ele>11</ele>
      </trkpt>
      <trkpt lat="50.97012" lon="4.7186">
        <ele>12</ele>
      </trkpt>
      <trkpt lat="50.9701" lon="4.71793">
        <ele>12</ele>
      </trkpt>
      <trkpt lat="50.97006" lon="4.7173">
        <ele>12</ele>
      </trkpt>
      <trkpt lat="50.97001" lon="4.71685">
        <ele>12</ele>
      </trkpt>
      <trkpt lat="50.9699" lon="4.71628">
        <ele>12</ele>
      </trkpt>
      <trkpt lat="50.96954" lon="4.71489">
        <ele>12</ele>
      </trkpt>
      <trkpt lat="50.96943" lon="4.71388">
        <ele>11</ele>
      </trkpt>
      <trkpt lat="50.96935" lon="4.71341">
        <ele>11</ele>
      </trkpt>
      <trkpt lat="50.96929" lon="4.71316">
        <ele>11</ele>
      </trkpt>
      <trkpt lat="50.96913" lon="4.71278">
        <ele>11</ele>
      </trkpt>
      <trkpt lat="50.96906" lon="4.7125">
        <ele>11</ele>
      </trkpt>
      <trkpt lat="50.96905" lon="4.71238">
        <ele>11</ele>
      </trkpt>
      <trkpt lat="50.96901" lon="4.7115">
        <ele>11</ele>
      </trkpt>
      <trkpt lat="50.96902" lon="4.71125">
        <ele>11</ele>
      </trkpt>
      <trkpt lat="50.96907" lon="4.71109">
        <ele>11</ele>
      </trkpt>
      <trkpt lat="50.96933" lon="4.71075">
        <ele>13</ele>
      </trkpt>
      <trkpt lat="50.9694" lon="4.71062">
        <ele>13</ele>
      </trkpt>
      <trkpt lat="50.96948" lon="4.7103">
        <ele>13</ele>
      </trkpt>
      <trkpt lat="50.96948" lon="4.71007">
        <ele>13</ele>
      </trkpt>
      <trkpt lat="50.96908" lon="4.70781">
        <ele>10</ele>
      </trkpt>
      <trkpt lat="50.96873" lon="4.70462">
        <ele>12</ele>
      </trkpt>
      <trkpt lat="50.96863" lon="4.70353">
        <ele>12</ele>
      </trkpt>
      <trkpt lat="50.96857" lon="4.70252">
        <ele>11</ele>
      </trkpt>
      <trkpt lat="50.9685" lon="4.70083">
        <ele>10</ele>
      </trkpt>
      <trkpt lat="50.96847" lon="4.7003">
        <ele>11</ele>
      </trkpt>
      <trkpt lat="50.96817" lon="4.69837">
        <ele>11</ele>
      </trkpt>
      <trkpt lat="50.96786" lon="4.69732">
        <ele>10</ele>
      </trkpt>
      <trkpt lat="50.96777" lon="4.69699">
        <ele>10</ele>
      </trkpt>
      <trkpt lat="50.96765" lon="4.69643">
        <ele>11</ele>
      </trkpt>
      <trkpt lat="50.96765" lon="4.69623">
        <ele>10</ele>
      </trkpt>
      <trkpt lat="50.96766" lon="4.69605">
        <ele>10</ele>
      </trkpt>
      <trkpt lat="50.96782" lon="4.69542">
        <ele>9</ele>
      </trkpt>
      <trkpt lat="50.96798" lon="4.69487">
        <ele>9</ele>
      </trkpt>
      <trkpt lat="50.96816" lon="4.6944">
        <ele>10</ele>
      </trkpt>
      <trkpt lat="50.96864" lon="4.69329">
        <ele>9</ele>
      </trkpt>
      <trkpt lat="50.96891" lon="4.69284">
        <ele>9</ele>
      </trkpt>
      <trkpt lat="50.96902" lon="4.69279">
        <ele>9</ele>
      </trkpt>
      <trkpt lat="50.96916" lon="4.69137">
        <ele>9</ele>
      </trkpt>
      <trkpt lat="50.96915" lon="4.69131">
        <ele>9</ele>
      </trkpt>
      <trkpt lat="50.96911" lon="4.69125">
        <ele>9</ele>
      </trkpt>
      <trkpt lat="50.96909" lon="4.69105">
        <ele>9</ele>
      </trkpt>
      <trkpt lat="50.96906" lon="4.69093">
        <ele>9</ele>
      </trkpt>
      <trkpt lat="50.96922" lon="4.69081">
        <ele>8</ele>
      </trkpt>
      <trkpt lat="50.96922" lon="4.69078">
        <ele>8</ele>
      </trkpt>
      <trkpt lat="50.96942" lon="4.69083">
        <ele>9</ele>
      </trkpt>
      <trkpt lat="50.96944" lon="4.69092">
        <ele>9</ele>
      </trkpt>
      <trkpt lat="50.96942" lon="4.69114">
        <ele>9</ele>
      </trkpt>
      <trkpt lat="50.96959" lon="4.69117">
        <ele>9</ele>
      </trkpt>
      <trkpt lat="50.96979" lon="4.69118">
        <ele>9</ele>
      </trkpt>
      <trkpt lat="50.97032" lon="4.69078">
        <ele>9</ele>
      </trkpt>
      <trkpt lat="50.97058" lon="4.69058">
        <ele>8</ele>
      </trkpt>
      <trkpt lat="50.97089" lon="4.69028">
        <ele>9</ele>
      </trkpt>
      <trkpt lat="50.97157" lon="4.68958">
        <ele>8</ele>
      </trkpt>
      <trkpt lat="50.97196" lon="4.68907">
        <ele>8</ele>
      </trkpt>
      <trkpt lat="50.97217" lon="4.68881">
        <ele>8</ele>
      </trkpt>
      <trkpt lat="50.97229" lon="4.6887">
        <ele>8</ele>
      </trkpt>
      <trkpt lat="50.97248" lon="4.68857">
        <ele>8</ele>
      </trkpt>
      <trkpt lat="50.97262" lon="4.68855">
        <ele>8</ele>
      </trkpt>
      <trkpt lat="50.97288" lon="4.68864">
        <ele>8</ele>
      </trkpt>
      <trkpt lat="50.97295" lon="4.68862">
        <ele>8</ele>
      </trkpt>
      <trkpt lat="50.97314" lon="4.68843">
        <ele>8</ele>
      </trkpt>
      <trkpt lat="50.97324" lon="4.68827">
        <ele>8</ele>
      </trkpt>
      <trkpt lat="50.97337" lon="4.68802">
        <ele>8</ele>
      </trkpt>
      <trkpt lat="50.97358" lon="4.68753">
        <ele>8</ele>
      </trkpt>
      <trkpt lat="50.97387" lon="4.68686">
        <ele>8</ele>
      </trkpt>
      <trkpt lat="50.97395" lon="4.68673">
        <ele>8</ele>
      </trkpt>
      <trkpt lat="50.97421" lon="4.68635">
        <ele>8</ele>
      </trkpt>
      <trkpt lat="50.97437" lon="4.68617">
        <ele>8</ele>
      </trkpt>
      <trkpt lat="50.97451" lon="4.68604">
        <ele>8</ele>
      </trkpt>
      <trkpt lat="50.97464" lon="4.686">
        <ele>8</ele>
      </trkpt>
      <trkpt lat="50.975" lon="4.68609">
        <ele>8</ele>
      </trkpt>
      <trkpt lat="50.97579" lon="4.68619">
        <ele>8</ele>
      </trkpt>
      <trkpt lat="50.97599" lon="4.68615">
        <ele>8</ele>
      </trkpt>
      <trkpt lat="50.97606" lon="4.6861">
        <ele>8</ele>
      </trkpt>
      <trkpt lat="50.97663" lon="4.68529">
        <ele>8</ele>
      </trkpt>
      <trkpt lat="50.97677" lon="4.6851">
        <ele>8</ele>
      </trkpt>
      <trkpt lat="50.97693" lon="4.68493">
        <ele>8</ele>
      </trkpt>
      <trkpt lat="50.97733" lon="4.68444">
        <ele>8</ele>
      </trkpt>
      <trkpt lat="50.97735" lon="4.68439">
        <ele>8</ele>
      </trkpt>
      <trkpt lat="50.97736" lon="4.68431">
        <ele>8</ele>
      </trkpt>
      <trkpt lat="50.97723" lon="4.68381">
        <ele>9</ele>
      </trkpt>
      <trkpt lat="50.97712" lon="4.68346">
        <ele>9</ele>
      </trkpt>
      <trkpt lat="50.97703" lon="4.68243">
        <ele>9</ele>
      </trkpt>
      <trkpt lat="50.97701" lon="4.68206">
        <ele>9</ele>
      </trkpt>
      <trkpt lat="50.97697" lon="4.68178">
        <ele>9</ele>
      </trkpt>
      <trkpt lat="50.97667" lon="4.68094">
        <ele>8</ele>
      </trkpt>
      <trkpt lat="50.97651" lon="4.68043">
        <ele>8</ele>
      </trkpt>
      <trkpt lat="50.97634" lon="4.67983">
        <ele>8</ele>
      </trkpt>
      <trkpt lat="50.97613" lon="4.67886">
        <ele>8</ele>
      </trkpt>
      <trkpt lat="50.97612" lon="4.67873">
        <ele>8</ele>
      </trkpt>
      <trkpt lat="50.97614" lon="4.67859">
        <ele>8</ele>
      </trkpt>
      <trkpt lat="50.97617" lon="4.67849">
        <ele>8</ele>
      </trkpt>
      <trkpt lat="50.97658" lon="4.67773">
        <ele>7</ele>
      </trkpt>
      <trkpt lat="50.97661" lon="4.67763">
        <ele>7</ele>
      </trkpt>
      <trkpt lat="50.97661" lon="4.67755">
        <ele>7</ele>
      </trkpt>
      <trkpt lat="50.97629" lon="4.67664">
        <ele>7</ele>
      </trkpt>
      <trkpt lat="50.97596" lon="4.67561">
        <ele>8</ele>
      </trkpt>
      <trkpt lat="50.9758" lon="4.67505">
        <ele>8</ele>
      </trkpt>
      <trkpt lat="50.97573" lon="4.6747">
        <ele>8</ele>
      </trkpt>
      <trkpt lat="50.97556" lon="4.67372">
        <ele>7</ele>
      </trkpt>
      <trkpt lat="50.97539" lon="4.67232">
        <ele>6</ele>
      </trkpt>
      <trkpt lat="50.97534" lon="4.6721">
        <ele>6</ele>
      </trkpt>
      <trkpt lat="50.97504" lon="4.67143">
        <ele>7</ele>
      </trkpt>
      <trkpt lat="50.97499" lon="4.67126">
        <ele>7</ele>
      </trkpt>
      <trkpt lat="50.97493" lon="4.67081">
        <ele>7</ele>
      </trkpt>
      <trkpt lat="50.97493" lon="4.6702">
        <ele>8</ele>
      </trkpt>
      <trkpt lat="50.97496" lon="4.66979">
        <ele>8</ele>
      </trkpt>
      <trkpt lat="50.97515" lon="4.66863">
        <ele>8</ele>
      </trkpt>
      <trkpt lat="50.97524" lon="4.66767">
        <ele>9</ele>
      </trkpt>
      <trkpt lat="50.97528" lon="4.66751">
        <ele>9</ele>
      </trkpt>
      <trkpt lat="50.97533" lon="4.6674">
        <ele>8</ele>
      </trkpt>
      <trkpt lat="50.97539" lon="4.66731">
        <ele>8</ele>
      </trkpt>
      <trkpt lat="50.97547" lon="4.66725">
        <ele>8</ele>
      </trkpt>
      <trkpt lat="50.97572" lon="4.66714">
        <ele>8</ele>
      </trkpt>
      <trkpt lat="50.97579" lon="4.66708">
        <ele>8</ele>
      </trkpt>
      <trkpt lat="50.97587" lon="4.66696">
        <ele>8</ele>
      </trkpt>
      <trkpt lat="50.97595" lon="4.66671">
        <ele>8</ele>
      </trkpt>
      <trkpt lat="50.97618" lon="4.66605">
        <ele>8</ele>
      </trkpt>
      <trkpt lat="50.97624" lon="4.66583">
        <ele>8</ele>
      </trkpt>
      <trkpt lat="50.97624" lon="4.66559">
        <ele>7</ele>
      </trkpt>
      <trkpt lat="50.97619" lon="4.66517">
        <ele>6</ele>
      </trkpt>
      <trkpt lat="50.9762" lon="4.66501">
        <ele>6</ele>
      </trkpt>
      <trkpt lat="50.97631" lon="4.66459">
        <ele>6</ele>
      </trkpt>
      <trkpt lat="50.97636" lon="4.66422">
        <ele>6</ele>
      </trkpt>
      <trkpt lat="50.97638" lon="4.66229">
        <ele>7</ele>
      </trkpt>
      <trkpt lat="50.97506" lon="4.66284">
        <ele>7</ele>
      </trkpt>
      <trkpt lat="50.97501" lon="4.6629">
        <ele>7</ele>
      </trkpt>
      <trkpt lat="50.9746" lon="4.66376">
        <ele>6</ele>
      </trkpt>
      <trkpt lat="50.97447" lon="4.66398">
        <ele>7</ele>
      </trkpt>
      <trkpt lat="50.97439" lon="4.66404">
        <ele>7</ele>
      </trkpt>
      <trkpt lat="50.97412" lon="4.66415">
        <ele>7</ele>
      </trkpt>
      <trkpt lat="50.97397" lon="4.66433">
        <ele>7</ele>
      </trkpt>
      <trkpt lat="50.97373" lon="4.66475">
        <ele>7</ele>
      </trkpt>
      <trkpt lat="50.97364" lon="4.66484">
        <ele>7</ele>
      </trkpt>
      <trkpt lat="50.9733" lon="4.66504">
        <ele>7</ele>
      </trkpt>
      <trkpt lat="50.97307" lon="4.66523">
        <ele>7</ele>
      </trkpt>
      <trkpt lat="50.97296" lon="4.66535">
        <ele>6</ele>
      </trkpt>
      <trkpt lat="50.97253" lon="4.66597">
        <ele>6</ele>
      </trkpt>
      <trkpt lat="50.97246" lon="4.6661">
        <ele>6</ele>
      </trkpt>
      <trkpt lat="50.97225" lon="4.66654">
        <ele>6</ele>
      </trkpt>
      <trkpt lat="50.97208" lon="4.66676">
        <ele>7</ele>
      </trkpt>
      <trkpt lat="50.97197" lon="4.66684">
        <ele>7</ele>
      </trkpt>
      <trkpt lat="50.97186" lon="4.66682">
        <ele>6</ele>
      </trkpt>
      <trkpt lat="50.97183" lon="4.66717">
        <ele>6</ele>
      </trkpt>
      <trkpt lat="50.97173" lon="4.66715">
        <ele>6</ele>
      </trkpt>
      <trkpt lat="50.97153" lon="4.6673">
        <ele>6</ele>
      </trkpt>
      <trkpt lat="50.9714" lon="4.66734">
        <ele>6</ele>
      </trkpt>
      <trkpt lat="50.97038" lon="4.66712">
        <ele>6</ele>
      </trkpt>
      <trkpt lat="50.97031" lon="4.66713">
        <ele>6</ele>
      </trkpt>
      <trkpt lat="50.96923" lon="4.6677">
        <ele>6</ele>
      </trkpt>
      <trkpt lat="50.96903" lon="4.66774">
        <ele>6</ele>
      </trkpt>
      <trkpt lat="50.96889" lon="4.66772">
        <ele>6</ele>
      </trkpt>
      <trkpt lat="50.96762" lon="4.66746">
        <ele>6</ele>
      </trkpt>
      <trkpt lat="50.96721" lon="4.66732">
        <ele>6</ele>
      </trkpt>
      <trkpt lat="50.96673" lon="4.6673">
        <ele>6</ele>
      </trkpt>
      <trkpt lat="50.96666" lon="4.66733">
        <ele>6</ele>
      </trkpt>
      <trkpt lat="50.96661" lon="4.66738">
        <ele>6</ele>
      </trkpt>
      <trkpt lat="50.96594" lon="4.66829">
        <ele>5</ele>
      </trkpt>
      <trkpt lat="50.96553" lon="4.66896">
        <ele>5</ele>
      </trkpt>
      <trkpt lat="50.96543" lon="4.66915">
        <ele>6</ele>
      </trkpt>
      <trkpt lat="50.96492" lon="4.67015">
        <ele>7</ele>
      </trkpt>
      <trkpt lat="50.96478" lon="4.67029">
        <ele>7</ele>
      </trkpt>
      <trkpt lat="50.96388" lon="4.67061">
        <ele>7</ele>
      </trkpt>
      <trkpt lat="50.96374" lon="4.67071">
        <ele>7</ele>
      </trkpt>
      <trkpt lat="50.96359" lon="4.67087">
        <ele>7</ele>
      </trkpt>
      <trkpt lat="50.96333" lon="4.67126">
        <ele>7</ele>
      </trkpt>
      <trkpt lat="50.96321" lon="4.67135">
        <ele>7</ele>
      </trkpt>
      <trkpt lat="50.96273" lon="4.67141">
        <ele>7</ele>
      </trkpt>
      <trkpt lat="50.96263" lon="4.67139">
        <ele>7</ele>
      </trkpt>
      <trkpt lat="50.96224" lon="4.67117">
        <ele>6</ele>
      </trkpt>
      <trkpt lat="50.9618" lon="4.67099">
        <ele>7</ele>
      </trkpt>
      <trkpt lat="50.96158" lon="4.67096">
        <ele>7</ele>
      </trkpt>
      <trkpt lat="50.96149" lon="4.67097">
        <ele>7</ele>
      </trkpt>
      <trkpt lat="50.9614" lon="4.67102">
        <ele>7</ele>
      </trkpt>
      <trkpt lat="50.96099" lon="4.67135">
        <ele>8</ele>
      </trkpt>
      <trkpt lat="50.96075" lon="4.67147">
        <ele>8</ele>
      </trkpt>
      <trkpt lat="50.96009" lon="4.67177">
        <ele>9</ele>
      </trkpt>
      <trkpt lat="50.95896" lon="4.67219">
        <ele>10</ele>
      </trkpt>
      <trkpt lat="50.95889" lon="4.67218">
        <ele>10</ele>
      </trkpt>
      <trkpt lat="50.95884" lon="4.67246">
        <ele>10</ele>
      </trkpt>
      <trkpt lat="50.95878" lon="4.67264">
        <ele>10</ele>
      </trkpt>
      <trkpt lat="50.95868" lon="4.67282">
        <ele>10</ele>
      </trkpt>
      <trkpt lat="50.95862" lon="4.67289">
        <ele>10</ele>
      </trkpt>
      <trkpt lat="50.95804" lon="4.67344">
        <ele>11</ele>
      </trkpt>
      <trkpt lat="50.95784" lon="4.67365">
        <ele>11</ele>
      </trkpt>
      <trkpt lat="50.95755" lon="4.67385">
        <ele>11</ele>
      </trkpt>
      <trkpt lat="50.95718" lon="4.67397">
        <ele>11</ele>
      </trkpt>
      <trkpt lat="50.95681" lon="4.674">
        <ele>11</ele>
      </trkpt>
      <trkpt lat="50.95668" lon="4.67399">
        <ele>11</ele>
      </trkpt>
      <trkpt lat="50.95665" lon="4.67386">
        <ele>11</ele>
      </trkpt>
      <trkpt lat="50.95677" lon="4.67168">
        <ele>12</ele>
      </trkpt>
      <trkpt lat="50.95677" lon="4.6714">
        <ele>12</ele>
      </trkpt>
      <trkpt lat="50.95665" lon="4.67033">
        <ele>11</ele>
      </trkpt>
      <trkpt lat="50.95657" lon="4.66962">
        <ele>11</ele>
      </trkpt>
      <trkpt lat="50.95661" lon="4.66843">
        <ele>10</ele>
      </trkpt>
      <trkpt lat="50.9565" lon="4.6671">
        <ele>11</ele>
      </trkpt>
      <trkpt lat="50.95652" lon="4.66664">
        <ele>11</ele>
      </trkpt>
      <trkpt lat="50.95679" lon="4.66555">
        <ele>11</ele>
      </trkpt>
      <trkpt lat="50.95682" lon="4.66536">
        <ele>11</ele>
      </trkpt>
      <trkpt lat="50.95681" lon="4.66519">
        <ele>11</ele>
      </trkpt>
      <trkpt lat="50.9566" lon="4.66427">
        <ele>10</ele>
      </trkpt>
      <trkpt lat="50.95656" lon="4.66387">
        <ele>10</ele>
      </trkpt>
      <trkpt lat="50.95652" lon="4.66265">
        <ele>12</ele>
      </trkpt>
      <trkpt lat="50.95653" lon="4.66234">
        <ele>12</ele>
      </trkpt>
      <trkpt lat="50.9566" lon="4.66171">
        <ele>12</ele>
      </trkpt>
      <trkpt lat="50.95664" lon="4.66125">
        <ele>12</ele>
      </trkpt>
      <trkpt lat="50.95671" lon="4.66034">
        <ele>11</ele>
      </trkpt>
      <trkpt lat="50.95688" lon="4.65919">
        <ele>10</ele>
      </trkpt>
      <trkpt lat="50.95701" lon="4.65853">
        <ele>10</ele>
      </trkpt>
      <trkpt lat="50.95715" lon="4.65794">
        <ele>11</ele>
      </trkpt>
      <trkpt lat="50.95721" lon="4.65683">
        <ele>11</ele>
      </trkpt>
      <trkpt lat="50.95711" lon="4.65683">
        <ele>11</ele>
      </trkpt>
      <trkpt lat="50.957" lon="4.6567">
        <ele>11</ele>
      </trkpt>
      <trkpt lat="50.95676" lon="4.65633">
        <ele>11</ele>
      </trkpt>
      <trkpt lat="50.95658" lon="4.65595">
        <ele>11</ele>
      </trkpt>
      <trkpt lat="50.95625" lon="4.65592">
        <ele>11</ele>
      </trkpt>
      <trkpt lat="50.95601" lon="4.65595">
        <ele>11</ele>
      </trkpt>
      <trkpt lat="50.95593" lon="4.656">
        <ele>11</ele>
      </trkpt>
      <trkpt lat="50.95548" lon="4.65653">
        <ele>11</ele>
      </trkpt>
      <trkpt lat="50.95502" lon="4.65707">
        <ele>9</ele>
      </trkpt>
      <trkpt lat="50.95492" lon="4.65711">
        <ele>9</ele>
      </trkpt>
      <trkpt lat="50.95482" lon="4.6571">
        <ele>9</ele>
      </trkpt>
      <trkpt lat="50.95446" lon="4.65669">
        <ele>9</ele>
      </trkpt>
      <trkpt lat="50.95431" lon="4.65667">
        <ele>9</ele>
      </trkpt>
      <trkpt lat="50.95414" lon="4.65724">
        <ele>9</ele>
      </trkpt>
      <trkpt lat="50.95405" lon="4.65746">
        <ele>9</ele>
      </trkpt>
      <trkpt lat="50.9528" lon="4.65975">
        <ele>10</ele>
      </trkpt>
      <trkpt lat="50.9522" lon="4.66081">
        <ele>11</ele>
      </trkpt>
      <trkpt lat="50.95183" lon="4.66142">
        <ele>11</ele>
      </trkpt>
      <trkpt lat="50.95169" lon="4.66179">
        <ele>12</ele>
      </trkpt>
      <trkpt lat="50.9514" lon="4.66261">
        <ele>11</ele>
      </trkpt>
      <trkpt lat="50.95124" lon="4.66317">
        <ele>11</ele>
      </trkpt>
      <trkpt lat="50.95106" lon="4.66366">
        <ele>11</ele>
      </trkpt>
      <trkpt lat="50.95079" lon="4.66413">
        <ele>10</ele>
      </trkpt>
      <trkpt lat="50.95036" lon="4.66469">
        <ele>10</ele>
      </trkpt>
      <trkpt lat="50.95031" lon="4.66481">
        <ele>10</ele>
      </trkpt>
      <trkpt lat="50.95013" lon="4.66539">
        <ele>11</ele>
      </trkpt>
      <trkpt lat="50.95002" lon="4.66541">
        <ele>11</ele>
      </trkpt>
      <trkpt lat="50.94979" lon="4.66529">
        <ele>11</ele>
      </trkpt>
      <trkpt lat="50.9496" lon="4.66513">
        <ele>11</ele>
      </trkpt>
      <trkpt lat="50.94948" lon="4.66498">
        <ele>11</ele>
      </trkpt>
      <trkpt lat="50.9494" lon="4.66486">
        <ele>11</ele>
      </trkpt>
      <trkpt lat="50.94935" lon="4.66465">
        <ele>11</ele>
      </trkpt>
      <trkpt lat="50.94923" lon="4.66372">
        <ele>12</ele>
      </trkpt>
      <trkpt lat="50.94902" lon="4.66281">
        <ele>12</ele>
      </trkpt>
      <trkpt lat="50.94874" lon="4.66185">
        <ele>12</ele>
      </trkpt>
      <trkpt lat="50.94856" lon="4.66106">
        <ele>12</ele>
      </trkpt>
      <trkpt lat="50.94849" lon="4.66054">
        <ele>12</ele>
      </trkpt>
      <trkpt lat="50.94845" lon="4.659">
        <ele>12</ele>
      </trkpt>
      <trkpt lat="50.94843" lon="4.65769">
        <ele>11</ele>
      </trkpt>
      <trkpt lat="50.94836" lon="4.65651">
        <ele>11</ele>
      </trkpt>
      <trkpt lat="50.94834" lon="4.65624">
        <ele>11</ele>
      </trkpt>
      <trkpt lat="50.94819" lon="4.65539">
        <ele>11</ele>
      </trkpt>
      <trkpt lat="50.94664" lon="4.64731">
        <ele>14</ele>
      </trkpt>
      <trkpt lat="50.9466" lon="4.64726">
        <ele>14</ele>
      </trkpt>
      <trkpt lat="50.94723" lon="4.64378">
        <ele>13</ele>
      </trkpt>
      <trkpt lat="50.94719" lon="4.64368">
        <ele>13</ele>
      </trkpt>
      <trkpt lat="50.9472" lon="4.64362">
        <ele>13</ele>
      </trkpt>
      <trkpt lat="50.94687" lon="4.64348">
        <ele>14</ele>
      </trkpt>
      <trkpt lat="50.94674" lon="4.64353">
        <ele>15</ele>
      </trkpt>
      <trkpt lat="50.94591" lon="4.64425">
        <ele>15</ele>
      </trkpt>
      <trkpt lat="50.94514" lon="4.64496">
        <ele>15</ele>
      </trkpt>
      <trkpt lat="50.94502" lon="4.64502">
        <ele>15</ele>
      </trkpt>
      <trkpt lat="50.94476" lon="4.64505">
        <ele>15</ele>
      </trkpt>
      <trkpt lat="50.94364" lon="4.64474">
        <ele>15</ele>
      </trkpt>
      <trkpt lat="50.94328" lon="4.64463">
        <ele>14</ele>
      </trkpt>
      <trkpt lat="50.94323" lon="4.64458">
        <ele>14</ele>
      </trkpt>
      <trkpt lat="50.94264" lon="4.64366">
        <ele>14</ele>
      </trkpt>
      <trkpt lat="50.94156" lon="4.64226">
        <ele>14</ele>
      </trkpt>
      <trkpt lat="50.93847" lon="4.63806">
        <ele>15</ele>
      </trkpt>
      <trkpt lat="50.9383" lon="4.63799">
        <ele>15</ele>
      </trkpt>
      <trkpt lat="50.93824" lon="4.63802">
        <ele>15</ele>
      </trkpt>
      <trkpt lat="50.93806" lon="4.63817">
        <ele>15</ele>
      </trkpt>
      <trkpt lat="50.93768" lon="4.63856">
        <ele>15</ele>
      </trkpt>
      <trkpt lat="50.937" lon="4.63922">
        <ele>16</ele>
      </trkpt>
      <trkpt lat="50.93679" lon="4.63937">
        <ele>16</ele>
      </trkpt>
      <trkpt lat="50.93651" lon="4.63953">
        <ele>16</ele>
      </trkpt>
      <trkpt lat="50.93455" lon="4.64024">
        <ele>16</ele>
      </trkpt>
      <trkpt lat="50.93448" lon="4.64023">
        <ele>16</ele>
      </trkpt>
      <trkpt lat="50.93443" lon="4.64018">
        <ele>16</ele>
      </trkpt>
      <trkpt lat="50.9344" lon="4.64009">
        <ele>16</ele>
      </trkpt>
      <trkpt lat="50.93438" lon="4.63995">
        <ele>16</ele>
      </trkpt>
      <trkpt lat="50.93434" lon="4.63874">
        <ele>15</ele>
      </trkpt>
      <trkpt lat="50.93434" lon="4.63844">
        <ele>15</ele>
      </trkpt>
      <trkpt lat="50.93438" lon="4.63789">
        <ele>16</ele>
      </trkpt>
      <trkpt lat="50.93438" lon="4.63769">
        <ele>16</ele>
      </trkpt>
      <trkpt lat="50.93434" lon="4.63744">
        <ele>16</ele>
      </trkpt>
      <trkpt lat="50.93366" lon="4.63483">
        <ele>17</ele>
      </trkpt>
      <trkpt lat="50.93329" lon="4.63327">
        <ele>17</ele>
      </trkpt>
      <trkpt lat="50.93316" lon="4.63289">
        <ele>17</ele>
      </trkpt>
      <trkpt lat="50.93302" lon="4.63265">
        <ele>17</ele>
      </trkpt>
      <trkpt lat="50.93207" lon="4.63109">
        <ele>17</ele>
      </trkpt>
      <trkpt lat="50.93161" lon="4.63055">
        <ele>18</ele>
      </trkpt>
      <trkpt lat="50.93151" lon="4.63048">
        <ele>18</ele>
      </trkpt>
      <trkpt lat="50.93143" lon="4.63045">
        <ele>17</ele>
      </trkpt>
      <trkpt lat="50.92858" lon="4.6309">
        <ele>17</ele>
      </trkpt>
      <trkpt lat="50.92834" lon="4.63089">
        <ele>17</ele>
      </trkpt>
      <trkpt lat="50.92815" lon="4.63084">
        <ele>17</ele>
      </trkpt>
      <trkpt lat="50.92756" lon="4.63051">
        <ele>18</ele>
      </trkpt>
      <trkpt lat="50.92757" lon="4.63036">
        <ele>18</ele>
      </trkpt>
      <trkpt lat="50.92731" lon="4.62857">
        <ele>18</ele>
      </trkpt>
      <trkpt lat="50.92727" lon="4.62806">
        <ele>17</ele>
      </trkpt>
      <trkpt lat="50.92724" lon="4.62767">
        <ele>17</ele>
      </trkpt>
      <trkpt lat="50.92706" lon="4.62393">
        <ele>17</ele>
      </trkpt>
      <trkpt lat="50.92682" lon="4.6239">
        <ele>18</ele>
      </trkpt>
      <trkpt lat="50.92639" lon="4.62378">
        <ele>18</ele>
      </trkpt>
      <trkpt lat="50.92651" lon="4.62083">
        <ele>17</ele>
      </trkpt>
      <trkpt lat="50.92652" lon="4.6201">
        <ele>17</ele>
      </trkpt>
      <trkpt lat="50.92661" lon="4.61822">
        <ele>17</ele>
      </trkpt>
      <trkpt lat="50.92623" lon="4.61806">
        <ele>17</ele>
      </trkpt>
      <trkpt lat="50.92541" lon="4.61746">
        <ele>17</ele>
      </trkpt>
      <trkpt lat="50.9249" lon="4.61709">
        <ele>17</ele>
      </trkpt>
      <trkpt lat="50.92412" lon="4.61646">
        <ele>17</ele>
      </trkpt>
      <trkpt lat="50.92371" lon="4.61603">
        <ele>17</ele>
      </trkpt>
      <trkpt lat="50.92331" lon="4.61549">
        <ele>18</ele>
      </trkpt>
      <trkpt lat="50.92296" lon="4.61507">
        <ele>18</ele>
      </trkpt>
      <trkpt lat="50.92257" lon="4.61474">
        <ele>18</ele>
      </trkpt>
      <trkpt lat="50.92237" lon="4.61464">
        <ele>18</ele>
      </trkpt>
      <trkpt lat="50.92207" lon="4.61455">
        <ele>18</ele>
      </trkpt>
      <trkpt lat="50.92174" lon="4.61452">
        <ele>20</ele>
      </trkpt>
      <trkpt lat="50.92039" lon="4.61463">
        <ele>21</ele>
      </trkpt>
      <trkpt lat="50.92016" lon="4.61463">
        <ele>20</ele>
      </trkpt>
      <trkpt lat="50.9197" lon="4.61453">
        <ele>19</ele>
      </trkpt>
      <trkpt lat="50.91895" lon="4.61421">
        <ele>20</ele>
      </trkpt>
      <trkpt lat="50.91872" lon="4.61413">
        <ele>20</ele>
      </trkpt>
      <trkpt lat="50.91836" lon="4.61409">
        <ele>20</ele>
      </trkpt>
      <trkpt lat="50.91793" lon="4.61413">
        <ele>20</ele>
      </trkpt>
      <trkpt lat="50.91659" lon="4.61457">
        <ele>19</ele>
      </trkpt>
      <trkpt lat="50.91494" lon="4.61516">
        <ele>20</ele>
      </trkpt>
      <trkpt lat="50.91451" lon="4.61526">
        <ele>20</ele>
      </trkpt>
      <trkpt lat="50.91396" lon="4.61528">
        <ele>20</ele>
      </trkpt>
      <trkpt lat="50.91357" lon="4.61531">
        <ele>21</ele>
      </trkpt>
      <trkpt lat="50.91321" lon="4.61543">
        <ele>21</ele>
      </trkpt>
      <trkpt lat="50.91278" lon="4.61563">
        <ele>21</ele>
      </trkpt>
      <trkpt lat="50.91087" lon="4.61666">
        <ele>22</ele>
      </trkpt>
      <trkpt lat="50.91047" lon="4.6169">
        <ele>22</ele>
      </trkpt>
      <trkpt lat="50.90946" lon="4.61692">
        <ele>22</ele>
      </trkpt>
      <trkpt lat="50.90921" lon="4.61701">
        <ele>23</ele>
      </trkpt>
      <trkpt lat="50.90905" lon="4.61715">
        <ele>23</ele>
      </trkpt>
      <trkpt lat="50.90888" lon="4.61738">
        <ele>23</ele>
      </trkpt>
      <trkpt lat="50.90822" lon="4.61884">
        <ele>23</ele>
      </trkpt>
      <trkpt lat="50.90774" lon="4.61928">
        <ele>23</ele>
      </trkpt>
      <trkpt lat="50.90671" lon="4.62022">
        <ele>25</ele>
      </trkpt>
      <trkpt lat="50.90639" lon="4.62066">
        <ele>26</ele>
      </trkpt>
      <trkpt lat="50.90625" lon="4.6208">
        <ele>26</ele>
      </trkpt>
      <trkpt lat="50.90616" lon="4.62084">
        <ele>26</ele>
      </trkpt>
      <trkpt lat="50.90398" lon="4.62116">
        <ele>27</ele>
      </trkpt>
      <trkpt lat="50.90356" lon="4.62133">
        <ele>28</ele>
      </trkpt>
      <trkpt lat="50.90337" lon="4.62069">
        <ele>28</ele>
      </trkpt>
      <trkpt lat="50.90307" lon="4.6196">
        <ele>30</ele>
      </trkpt>
      <trkpt lat="50.90266" lon="4.61798">
        <ele>30</ele>
      </trkpt>
      <trkpt lat="50.90235" lon="4.6164">
        <ele>30</ele>
      </trkpt>
      <trkpt lat="50.90212" lon="4.61539">
        <ele>29</ele>
      </trkpt>
      <trkpt lat="50.90207" lon="4.61526">
        <ele>29</ele>
      </trkpt>
      <trkpt lat="50.90193" lon="4.61503">
        <ele>29</ele>
      </trkpt>
      <trkpt lat="50.90182" lon="4.61492">
        <ele>29</ele>
      </trkpt>
      <trkpt lat="50.90195" lon="4.61474">
        <ele>28</ele>
      </trkpt>
      <trkpt lat="50.90165" lon="4.61403">
        <ele>28</ele>
      </trkpt>
      <trkpt lat="50.90141" lon="4.61359">
        <ele>28</ele>
      </trkpt>
      <trkpt lat="50.90118" lon="4.6131">
        <ele>27</ele>
      </trkpt>
      <trkpt lat="50.90077" lon="4.61223">
        <ele>27</ele>
      </trkpt>
      <trkpt lat="50.89951" lon="4.60986">
        <ele>27</ele>
      </trkpt>
      <trkpt lat="50.89921" lon="4.60932">
        <ele>27</ele>
      </trkpt>
      <trkpt lat="50.89935" lon="4.6085">
        <ele>27</ele>
      </trkpt>
      <trkpt lat="50.89933" lon="4.60834">
        <ele>27</ele>
      </trkpt>
      <trkpt lat="50.89955" lon="4.60731">
        <ele>29</ele>
      </trkpt>
      <trkpt lat="50.90046" lon="4.60293">
        <ele>27</ele>
      </trkpt>
      <trkpt lat="50.90058" lon="4.60243">
        <ele>27</ele>
      </trkpt>
      <trkpt lat="50.90064" lon="4.60238">
        <ele>27</ele>
      </trkpt>
      <trkpt lat="50.90071" lon="4.60213">
        <ele>27</ele>
      </trkpt>
      <trkpt lat="50.90081" lon="4.60186">
        <ele>27</ele>
      </trkpt>
      <trkpt lat="50.90075" lon="4.6018">
        <ele>27</ele>
      </trkpt>
      <trkpt lat="50.90072" lon="4.60173">
        <ele>27</ele>
      </trkpt>
      <trkpt lat="50.90067" lon="4.6013">
        <ele>27</ele>
      </trkpt>
      <trkpt lat="50.90061" lon="4.60051">
        <ele>28</ele>
      </trkpt>
      <trkpt lat="50.90054" lon="4.599">
        <ele>26</ele>
      </trkpt>
      <trkpt lat="50.90042" lon="4.59669">
        <ele>26</ele>
      </trkpt>
      <trkpt lat="50.90033" lon="4.59584">
        <ele>26</ele>
      </trkpt>
      <trkpt lat="50.90027" lon="4.59541">
        <ele>26</ele>
      </trkpt>
      <trkpt lat="50.90007" lon="4.59493">
        <ele>26</ele>
      </trkpt>
      <trkpt lat="50.89982" lon="4.59464">
        <ele>26</ele>
      </trkpt>
      <trkpt lat="50.89967" lon="4.59439">
        <ele>27</ele>
      </trkpt>
      <trkpt lat="50.89954" lon="4.59413">
        <ele>26</ele>
      </trkpt>
      <trkpt lat="50.89935" lon="4.59364">
        <ele>27</ele>
      </trkpt>
      <trkpt lat="50.89915" lon="4.59301">
        <ele>28</ele>
      </trkpt>
      <trkpt lat="50.89904" lon="4.59275">
        <ele>28</ele>
      </trkpt>
      <trkpt lat="50.89891" lon="4.59253">
        <ele>28</ele>
      </trkpt>
      <trkpt lat="50.89867" lon="4.59225">
        <ele>29</ele>
      </trkpt>
      <trkpt lat="50.89798" lon="4.59167">
        <ele>30</ele>
      </trkpt>
      <trkpt lat="50.89784" lon="4.59152">
        <ele>30</ele>
      </trkpt>
      <trkpt lat="50.89778" lon="4.59132">
        <ele>30</ele>
      </trkpt>
      <trkpt lat="50.89774" lon="4.59101">
        <ele>30</ele>
      </trkpt>
      <trkpt lat="50.89779" lon="4.59023">
        <ele>31</ele>
      </trkpt>
      <trkpt lat="50.89778" lon="4.59005">
        <ele>31</ele>
      </trkpt>
      <trkpt lat="50.89736" lon="4.58825">
        <ele>31</ele>
      </trkpt>
      <trkpt lat="50.89679" lon="4.5858">
        <ele>32</ele>
      </trkpt>
      <trkpt lat="50.89669" lon="4.58497">
        <ele>32</ele>
      </trkpt>
      <trkpt lat="50.89669" lon="4.58471">
        <ele>32</ele>
      </trkpt>
      <trkpt lat="50.89673" lon="4.58463">
        <ele>32</ele>
      </trkpt>
      <trkpt lat="50.89674" lon="4.58443">
        <ele>32</ele>
      </trkpt>
      <trkpt lat="50.8966" lon="4.58284">
        <ele>32</ele>
      </trkpt>
      <trkpt lat="50.89657" lon="4.58267">
        <ele>32</ele>
      </trkpt>
      <trkpt lat="50.89651" lon="4.58252">
        <ele>32</ele>
      </trkpt>
      <trkpt lat="50.89649" lon="4.58244">
        <ele>32</ele>
      </trkpt>
      <trkpt lat="50.89617" lon="4.57904">
        <ele>32</ele>
      </trkpt>
      <trkpt lat="50.89607" lon="4.57756">
        <ele>33</ele>
      </trkpt>
      <trkpt lat="50.89579" lon="4.5744">
        <ele>33</ele>
      </trkpt>
      <trkpt lat="50.89548" lon="4.57083">
        <ele>34</ele>
      </trkpt>
      <trkpt lat="50.89547" lon="4.57049">
        <ele>35</ele>
      </trkpt>
      <trkpt lat="50.89515" lon="4.56679">
        <ele>37</ele>
      </trkpt>
      <trkpt lat="50.89521" lon="4.56662">
        <ele>37</ele>
      </trkpt>
      <trkpt lat="50.89547" lon="4.56636">
        <ele>37</ele>
      </trkpt>
      <trkpt lat="50.89626" lon="4.56549">
        <ele>37</ele>
      </trkpt>
      <trkpt lat="50.89627" lon="4.56545">
        <ele>37</ele>
      </trkpt>
      <trkpt lat="50.89627" lon="4.56541">
        <ele>37</ele>
      </trkpt>
      <trkpt lat="50.89624" lon="4.56534">
        <ele>37</ele>
      </trkpt>
      <trkpt lat="50.89615" lon="4.5655">
        <ele>37</ele>
      </trkpt>
      <trkpt lat="50.89466" lon="4.56689">
        <ele>37</ele>
      </trkpt>
      <trkpt lat="50.89387" lon="4.5679">
        <ele>36</ele>
      </trkpt>
      <trkpt lat="50.89297" lon="4.5689">
        <ele>34</ele>
      </trkpt>
      <trkpt lat="50.89269" lon="4.56923">
        <ele>34</ele>
      </trkpt>
      <trkpt lat="50.892" lon="4.57021">
        <ele>35</ele>
      </trkpt>
      <trkpt lat="50.89188" lon="4.57042">
        <ele>35</ele>
      </trkpt>
      <trkpt lat="50.89178" lon="4.57054">
        <ele>35</ele>
      </trkpt>
      <trkpt lat="50.89176" lon="4.57066">
        <ele>35</ele>
      </trkpt>
      <trkpt lat="50.8917" lon="4.57079">
        <ele>36</ele>
      </trkpt>
      <trkpt lat="50.8917" lon="4.57091">
        <ele>36</ele>
      </trkpt>
      <trkpt lat="50.8915" lon="4.57096">
        <ele>36</ele>
      </trkpt>
      <trkpt lat="50.89148" lon="4.57087">
        <ele>36</ele>
      </trkpt>
      <trkpt lat="50.89138" lon="4.57075">
        <ele>36</ele>
      </trkpt>
      <trkpt lat="50.89132" lon="4.57073">
        <ele>36</ele>
      </trkpt>
      <trkpt lat="50.89122" lon="4.57053">
        <ele>36</ele>
      </trkpt>
      <trkpt lat="50.89129" lon="4.57043">
        <ele>35</ele>
      </trkpt>
      <trkpt lat="50.89138" lon="4.57017">
        <ele>35</ele>
      </trkpt>
      <trkpt lat="50.89138" lon="4.57004">
        <ele>35</ele>
      </trkpt>
      <trkpt lat="50.89157" lon="4.56998">
        <ele>35</ele>
      </trkpt>
      <trkpt lat="50.89158" lon="4.57006">
        <ele>35</ele>
      </trkpt>
      <trkpt lat="50.8916" lon="4.57011">
        <ele>35</ele>
      </trkpt>
      <trkpt lat="50.89167" lon="4.57015">
        <ele>35</ele>
      </trkpt>
      <trkpt lat="50.89172" lon="4.57022">
        <ele>35</ele>
      </trkpt>
      <trkpt lat="50.89175" lon="4.57024">
        <ele>35</ele>
      </trkpt>
      <trkpt lat="50.89192" lon="4.57015">
        <ele>35</ele>
      </trkpt>
      <trkpt lat="50.89265" lon="4.56915">
        <ele>34</ele>
      </trkpt>
      <trkpt lat="50.89299" lon="4.56873">
        <ele>34</ele>
      </trkpt>
      <trkpt lat="50.89385" lon="4.56778">
        <ele>36</ele>
      </trkpt>
      <trkpt lat="50.89474" lon="4.56666">
        <ele>37</ele>
      </trkpt>
      <trkpt lat="50.89511" lon="4.56633">
        <ele>37</ele>
      </trkpt>
      <trkpt lat="50.89516" lon="4.56629">
        <ele>37</ele>
      </trkpt>
      <trkpt lat="50.8961" lon="4.56542">
        <ele>37</ele>
      </trkpt>
      <trkpt lat="50.89624" lon="4.56534">
        <ele>37</ele>
      </trkpt>
      <trkpt lat="50.89615" lon="4.5655">
        <ele>37</ele>
      </trkpt>
      <trkpt lat="50.89466" lon="4.56689">
        <ele>37</ele>
      </trkpt>
      <trkpt lat="50.89387" lon="4.5679">
        <ele>36</ele>
      </trkpt>
      <trkpt lat="50.89297" lon="4.5689">
        <ele>34</ele>
      </trkpt>
      <trkpt lat="50.89269" lon="4.56923">
        <ele>34</ele>
      </trkpt>
      <trkpt lat="50.892" lon="4.57021">
        <ele>35</ele>
      </trkpt>
      <trkpt lat="50.89188" lon="4.57042">
        <ele>35</ele>
      </trkpt>
      <trkpt lat="50.89178" lon="4.57054">
        <ele>35</ele>
      </trkpt>
      <trkpt lat="50.89176" lon="4.57066">
        <ele>35</ele>
      </trkpt>
      <trkpt lat="50.8917" lon="4.57079">
        <ele>36</ele>
      </trkpt>
      <trkpt lat="50.8917" lon="4.57091">
        <ele>36</ele>
      </trkpt>
      <trkpt lat="50.8915" lon="4.57096">
        <ele>36</ele>
      </trkpt>
      <trkpt lat="50.89148" lon="4.57087">
        <ele>36</ele>
      </trkpt>
      <trkpt lat="50.89138" lon="4.57075">
        <ele>36</ele>
      </trkpt>
      <trkpt lat="50.89132" lon="4.57073">
        <ele>36</ele>
      </trkpt>
      <trkpt lat="50.89128" lon="4.57075">
        <ele>36</ele>
      </trkpt>
      <trkpt lat="50.89123" lon="4.57078">
        <ele>36</ele>
      </trkpt>
      <trkpt lat="50.89117" lon="4.57087">
        <ele>36</ele>
      </trkpt>
      <trkpt lat="50.89102" lon="4.57116">
        <ele>36</ele>
      </trkpt>
      <trkpt lat="50.89097" lon="4.57141">
        <ele>36</ele>
      </trkpt>
      <trkpt lat="50.89088" lon="4.57167">
        <ele>37</ele>
      </trkpt>
      <trkpt lat="50.8905" lon="4.57229">
        <ele>37</ele>
      </trkpt>
      <trkpt lat="50.89021" lon="4.57268">
        <ele>37</ele>
      </trkpt>
      <trkpt lat="50.88868" lon="4.57423">
        <ele>39</ele>
      </trkpt>
      <trkpt lat="50.8883" lon="4.57476">
        <ele>42</ele>
      </trkpt>
      <trkpt lat="50.88812" lon="4.57508">
        <ele>41</ele>
      </trkpt>
      <trkpt lat="50.88757" lon="4.57651">
        <ele>44</ele>
      </trkpt>
      <trkpt lat="50.8873" lon="4.57702">
        <ele>44</ele>
      </trkpt>
      <trkpt lat="50.88719" lon="4.57719">
        <ele>44</ele>
      </trkpt>
      <trkpt lat="50.88683" lon="4.57761">
        <ele>43</ele>
      </trkpt>
      <trkpt lat="50.88625" lon="4.57824">
        <ele>44</ele>
      </trkpt>
      <trkpt lat="50.88539" lon="4.57909">
        <ele>42</ele>
      </trkpt>
      <trkpt lat="50.88425" lon="4.58028">
        <ele>38</ele>
      </trkpt>
      <trkpt lat="50.884" lon="4.58055">
        <ele>38</ele>
      </trkpt>
      <trkpt lat="50.88349" lon="4.58118">
        <ele>38</ele>
      </trkpt>
      <trkpt lat="50.88308" lon="4.58191">
        <ele>40</ele>
      </trkpt>
      <trkpt lat="50.88302" lon="4.58173">
        <ele>39</ele>
      </trkpt>
      <trkpt lat="50.8826" lon="4.58019">
        <ele>37</ele>
      </trkpt>
      <trkpt lat="50.88194" lon="4.57805">
        <ele>37</ele>
      </trkpt>
      <trkpt lat="50.8814" lon="4.57681">
        <ele>39</ele>
      </trkpt>
      <trkpt lat="50.88125" lon="4.57644">
        <ele>40</ele>
      </trkpt>
      <trkpt lat="50.88035" lon="4.5748">
        <ele>42</ele>
      </trkpt>
      <trkpt lat="50.8799" lon="4.57392">
        <ele>44</ele>
      </trkpt>
      <trkpt lat="50.87958" lon="4.57294">
        <ele>44</ele>
      </trkpt>
      <trkpt lat="50.87931" lon="4.57211">
        <ele>47</ele>
      </trkpt>
      <trkpt lat="50.87894" lon="4.57142">
        <ele>48</ele>
      </trkpt>
      <trkpt lat="50.87882" lon="4.57121">
        <ele>48</ele>
      </trkpt>
      <trkpt lat="50.87866" lon="4.57102">
        <ele>49</ele>
      </trkpt>
      <trkpt lat="50.87829" lon="4.57074">
        <ele>51</ele>
      </trkpt>
      <trkpt lat="50.87821" lon="4.57058">
        <ele>52</ele>
      </trkpt>
      <trkpt lat="50.8781" lon="4.57023">
        <ele>52</ele>
      </trkpt>
      <trkpt lat="50.87798" lon="4.56991">
        <ele>51</ele>
      </trkpt>
      <trkpt lat="50.87779" lon="4.5695">
        <ele>52</ele>
      </trkpt>
      <trkpt lat="50.87748" lon="4.56894">
        <ele>54</ele>
      </trkpt>
    </trkseg>
  </trk>
</gpx>