<?xml version='1.0' encoding='UTF-8'?>
<gpx xmlns="http://www.topografix.com/GPX/1/1" xmlns:xsi="http://www.w3.org/2001/XMLSchema-instance" creator="RouteYou" version="1.1" xsi:schemaLocation="http://www.topografix.com/GPX/1/1 http://www.topografix.com/GPX/1/1/gpx.xsd">
  <trk>
    <name>Keerbergen 2025</name>
    <desc />
    <trkseg>
      <trkpt lat="50.87884" lon="4.55127">
        <ele>54</ele>
      </trkpt>
      <trkpt lat="50.87875" lon="4.55058">
        <ele>57</ele>
      </trkpt>
      <trkpt lat="50.87859" lon="4.54962">
        <ele>62</ele>
      </trkpt>
      <trkpt lat="50.87847" lon="4.54906">
        <ele>60</ele>
      </trkpt>
      <trkpt lat="50.87825" lon="4.5483">
        <ele>60</ele>
      </trkpt>
      <trkpt lat="50.87805" lon="4.54777">
        <ele>61</ele>
      </trkpt>
      <trkpt lat="50.87783" lon="4.54728">
        <ele>65</ele>
      </trkpt>
      <trkpt lat="50.87759" lon="4.54667">
        <ele>59</ele>
      </trkpt>
      <trkpt lat="50.87722" lon="4.54561">
        <ele>60</ele>
      </trkpt>
      <trkpt lat="50.87645" lon="4.544">
        <ele>62</ele>
      </trkpt>
      <trkpt lat="50.87643" lon="4.54405">
        <ele>62</ele>
      </trkpt>
      <trkpt lat="50.8764" lon="4.54409">
        <ele>62</ele>
      </trkpt>
      <trkpt lat="50.87637" lon="4.54409">
        <ele>62</ele>
      </trkpt>
      <trkpt lat="50.87634" lon="4.54406">
        <ele>62</ele>
      </trkpt>
      <trkpt lat="50.8763" lon="4.54392">
        <ele>62</ele>
      </trkpt>
      <trkpt lat="50.87629" lon="4.5438">
        <ele>62</ele>
      </trkpt>
      <trkpt lat="50.8763" lon="4.54378">
        <ele>62</ele>
      </trkpt>
      <trkpt lat="50.87604" lon="4.54284">
        <ele>63</ele>
      </trkpt>
      <trkpt lat="50.87595" lon="4.54242">
        <ele>62</ele>
      </trkpt>
      <trkpt lat="50.87593" lon="4.5421">
        <ele>62</ele>
      </trkpt>
      <trkpt lat="50.87594" lon="4.54184">
        <ele>62</ele>
      </trkpt>
      <trkpt lat="50.87598" lon="4.54159">
        <ele>60</ele>
      </trkpt>
      <trkpt lat="50.87605" lon="4.54126">
        <ele>59</ele>
      </trkpt>
      <trkpt lat="50.87628" lon="4.54072">
        <ele>57</ele>
      </trkpt>
      <trkpt lat="50.87644" lon="4.54087">
        <ele>59</ele>
      </trkpt>
      <trkpt lat="50.87728" lon="4.54066">
        <ele>55</ele>
      </trkpt>
      <trkpt lat="50.87753" lon="4.54064">
        <ele>55</ele>
      </trkpt>
      <trkpt lat="50.87782" lon="4.54067">
        <ele>53</ele>
      </trkpt>
      <trkpt lat="50.87818" lon="4.5407">
        <ele>53</ele>
      </trkpt>
      <trkpt lat="50.87866" lon="4.54062">
        <ele>49</ele>
      </trkpt>
      <trkpt lat="50.8791" lon="4.5406">
        <ele>48</ele>
      </trkpt>
      <trkpt lat="50.8792" lon="4.54065">
        <ele>48</ele>
      </trkpt>
      <trkpt lat="50.87989" lon="4.54205">
        <ele>50</ele>
      </trkpt>
      <trkpt lat="50.8809" lon="4.54313">
        <ele>49</ele>
      </trkpt>
      <trkpt lat="50.88123" lon="4.54354">
        <ele>47</ele>
      </trkpt>
      <trkpt lat="50.88141" lon="4.54368">
        <ele>46</ele>
      </trkpt>
      <trkpt lat="50.88168" lon="4.54375">
        <ele>47</ele>
      </trkpt>
      <trkpt lat="50.88204" lon="4.54379">
        <ele>45</ele>
      </trkpt>
      <trkpt lat="50.88212" lon="4.54384">
        <ele>45</ele>
      </trkpt>
      <trkpt lat="50.8822" lon="4.54393">
        <ele>45</ele>
      </trkpt>
      <trkpt lat="50.88235" lon="4.5444">
        <ele>45</ele>
      </trkpt>
      <trkpt lat="50.88242" lon="4.54449">
        <ele>45</ele>
      </trkpt>
      <trkpt lat="50.88255" lon="4.54456">
        <ele>45</ele>
      </trkpt>
      <trkpt lat="50.88337" lon="4.54454">
        <ele>44</ele>
      </trkpt>
      <trkpt lat="50.88349" lon="4.54458">
        <ele>43</ele>
      </trkpt>
      <trkpt lat="50.88392" lon="4.54492">
        <ele>43</ele>
      </trkpt>
      <trkpt lat="50.88432" lon="4.54511">
        <ele>43</ele>
      </trkpt>
      <trkpt lat="50.88495" lon="4.54523">
        <ele>44</ele>
      </trkpt>
      <trkpt lat="50.88536" lon="4.5454">
        <ele>44</ele>
      </trkpt>
      <trkpt lat="50.88559" lon="4.54535">
        <ele>44</ele>
      </trkpt>
      <trkpt lat="50.88837" lon="4.54401">
        <ele>47</ele>
      </trkpt>
      <trkpt lat="50.88839" lon="4.54409">
        <ele>47</ele>
      </trkpt>
      <trkpt lat="50.8888" lon="4.54384">
        <ele>47</ele>
      </trkpt>
      <trkpt lat="50.88936" lon="4.54355">
        <ele>47</ele>
      </trkpt>
      <trkpt lat="50.89228" lon="4.5422">
        <ele>44</ele>
      </trkpt>
      <trkpt lat="50.8925" lon="4.54209">
        <ele>44</ele>
      </trkpt>
      <trkpt lat="50.89254" lon="4.54205">
        <ele>44</ele>
      </trkpt>
      <trkpt lat="50.89256" lon="4.54172">
        <ele>44</ele>
      </trkpt>
      <trkpt lat="50.89245" lon="4.54048">
        <ele>44</ele>
      </trkpt>
      <trkpt lat="50.89229" lon="4.53964">
        <ele>44</ele>
      </trkpt>
      <trkpt lat="50.89227" lon="4.53946">
        <ele>44</ele>
      </trkpt>
      <trkpt lat="50.89227" lon="4.53927">
        <ele>44</ele>
      </trkpt>
      <trkpt lat="50.89234" lon="4.5389">
        <ele>44</ele>
      </trkpt>
      <trkpt lat="50.89246" lon="4.53864">
        <ele>44</ele>
      </trkpt>
      <trkpt lat="50.89263" lon="4.53844">
        <ele>44</ele>
      </trkpt>
      <trkpt lat="50.89273" lon="4.53838">
        <ele>45</ele>
      </trkpt>
      <trkpt lat="50.89291" lon="4.53833">
        <ele>45</ele>
      </trkpt>
      <trkpt lat="50.89308" lon="4.53835">
        <ele>45</ele>
      </trkpt>
      <trkpt lat="50.8933" lon="4.53842">
        <ele>45</ele>
      </trkpt>
      <trkpt lat="50.89339" lon="4.53838">
        <ele>45</ele>
      </trkpt>
      <trkpt lat="50.89341" lon="4.53835">
        <ele>45</ele>
      </trkpt>
      <trkpt lat="50.8932" lon="4.53793">
        <ele>46</ele>
      </trkpt>
      <trkpt lat="50.89283" lon="4.53839">
        <ele>45</ele>
      </trkpt>
      <trkpt lat="50.89277" lon="4.5385">
        <ele>45</ele>
      </trkpt>
      <trkpt lat="50.89277" lon="4.53872">
        <ele>45</ele>
      </trkpt>
      <trkpt lat="50.89277" lon="4.5385">
        <ele>45</ele>
      </trkpt>
      <trkpt lat="50.89283" lon="4.53839">
        <ele>45</ele>
      </trkpt>
      <trkpt lat="50.8932" lon="4.53793">
        <ele>46</ele>
      </trkpt>
      <trkpt lat="50.89341" lon="4.53835">
        <ele>45</ele>
      </trkpt>
      <trkpt lat="50.89345" lon="4.53831">
        <ele>45</ele>
      </trkpt>
      <trkpt lat="50.89352" lon="4.53827">
        <ele>45</ele>
      </trkpt>
      <trkpt lat="50.8936" lon="4.53828">
        <ele>46</ele>
      </trkpt>
      <trkpt lat="50.8937" lon="4.53845">
        <ele>45</ele>
      </trkpt>
      <trkpt lat="50.8937" lon="4.53856">
        <ele>45</ele>
      </trkpt>
      <trkpt lat="50.89363" lon="4.53869">
        <ele>45</ele>
      </trkpt>
      <trkpt lat="50.8959" lon="4.54252">
        <ele>42</ele>
      </trkpt>
      <trkpt lat="50.8963" lon="4.54318">
        <ele>43</ele>
      </trkpt>
      <trkpt lat="50.89666" lon="4.54372">
        <ele>42</ele>
      </trkpt>
      <trkpt lat="50.89751" lon="4.54483">
        <ele>41</ele>
      </trkpt>
      <trkpt lat="50.89775" lon="4.54499">
        <ele>41</ele>
      </trkpt>
      <trkpt lat="50.89894" lon="4.54609">
        <ele>41</ele>
      </trkpt>
      <trkpt lat="50.89919" lon="4.54636">
        <ele>41</ele>
      </trkpt>
      <trkpt lat="50.89939" lon="4.54652">
        <ele>41</ele>
      </trkpt>
      <trkpt lat="50.90028" lon="4.5475">
        <ele>41</ele>
      </trkpt>
      <trkpt lat="50.90037" lon="4.54762">
        <ele>41</ele>
      </trkpt>
      <trkpt lat="50.90072" lon="4.54823">
        <ele>41</ele>
      </trkpt>
      <trkpt lat="50.90169" lon="4.55053">
        <ele>39</ele>
      </trkpt>
      <trkpt lat="50.9019" lon="4.55115">
        <ele>39</ele>
      </trkpt>
      <trkpt lat="50.9025" lon="4.55274">
        <ele>38</ele>
      </trkpt>
      <trkpt lat="50.90276" lon="4.55344">
        <ele>39</ele>
      </trkpt>
      <trkpt lat="50.90287" lon="4.55359">
        <ele>38</ele>
      </trkpt>
      <trkpt lat="50.90338" lon="4.55512">
        <ele>37</ele>
      </trkpt>
      <trkpt lat="50.90368" lon="4.55614">
        <ele>37</ele>
      </trkpt>
      <trkpt lat="50.90398" lon="4.55708">
        <ele>37</ele>
      </trkpt>
      <trkpt lat="50.90437" lon="4.55799">
        <ele>36</ele>
      </trkpt>
      <trkpt lat="50.90442" lon="4.55815">
        <ele>36</ele>
      </trkpt>
      <trkpt lat="50.90466" lon="4.55907">
        <ele>35</ele>
      </trkpt>
      <trkpt lat="50.90515" lon="4.56057">
        <ele>34</ele>
      </trkpt>
      <trkpt lat="50.90551" lon="4.5615">
        <ele>32</ele>
      </trkpt>
      <trkpt lat="50.90651" lon="4.56297">
        <ele>29</ele>
      </trkpt>
      <trkpt lat="50.9082" lon="4.56534">
        <ele>28</ele>
      </trkpt>
      <trkpt lat="50.90839" lon="4.56543">
        <ele>27</ele>
      </trkpt>
      <trkpt lat="50.90861" lon="4.56546">
        <ele>27</ele>
      </trkpt>
      <trkpt lat="50.90924" lon="4.56494">
        <ele>27</ele>
      </trkpt>
      <trkpt lat="50.90995" lon="4.56435">
        <ele>27</ele>
      </trkpt>
      <trkpt lat="50.91083" lon="4.56358">
        <ele>27</ele>
      </trkpt>
      <trkpt lat="50.91119" lon="4.56338">
        <ele>27</ele>
      </trkpt>
      <trkpt lat="50.91152" lon="4.56332">
        <ele>27</ele>
      </trkpt>
      <trkpt lat="50.91255" lon="4.56356">
        <ele>28</ele>
      </trkpt>
      <trkpt lat="50.91366" lon="4.56386">
        <ele>27</ele>
      </trkpt>
      <trkpt lat="50.91374" lon="4.56382">
        <ele>27</ele>
      </trkpt>
      <trkpt lat="50.91537" lon="4.56424">
        <ele>26</ele>
      </trkpt>
      <trkpt lat="50.91543" lon="4.56432">
        <ele>26</ele>
      </trkpt>
      <trkpt lat="50.91572" lon="4.56436">
        <ele>25</ele>
      </trkpt>
      <trkpt lat="50.916" lon="4.56433">
        <ele>25</ele>
      </trkpt>
      <trkpt lat="50.91616" lon="4.56428">
        <ele>25</ele>
      </trkpt>
      <trkpt lat="50.91661" lon="4.56403">
        <ele>25</ele>
      </trkpt>
      <trkpt lat="50.91774" lon="4.56321">
        <ele>24</ele>
      </trkpt>
      <trkpt lat="50.91803" lon="4.56307">
        <ele>24</ele>
      </trkpt>
      <trkpt lat="50.91836" lon="4.56303">
        <ele>24</ele>
      </trkpt>
      <trkpt lat="50.91858" lon="4.56305">
        <ele>24</ele>
      </trkpt>
      <trkpt lat="50.91859" lon="4.56311">
        <ele>24</ele>
      </trkpt>
      <trkpt lat="50.91876" lon="4.56398">
        <ele>24</ele>
      </trkpt>
      <trkpt lat="50.91876" lon="4.56446">
        <ele>24</ele>
      </trkpt>
      <trkpt lat="50.91873" lon="4.5647">
        <ele>24</ele>
      </trkpt>
      <trkpt lat="50.91875" lon="4.56485">
        <ele>24</ele>
      </trkpt>
      <trkpt lat="50.91884" lon="4.56503">
        <ele>23</ele>
      </trkpt>
      <trkpt lat="50.91893" lon="4.5652">
        <ele>23</ele>
      </trkpt>
      <trkpt lat="50.919" lon="4.56526">
        <ele>23</ele>
      </trkpt>
      <trkpt lat="50.91944" lon="4.5673">
        <ele>20</ele>
      </trkpt>
      <trkpt lat="50.91957" lon="4.56774">
        <ele>20</ele>
      </trkpt>
      <trkpt lat="50.91982" lon="4.56859">
        <ele>19</ele>
      </trkpt>
      <trkpt lat="50.91989" lon="4.56872">
        <ele>19</ele>
      </trkpt>
      <trkpt lat="50.92016" lon="4.56892">
        <ele>19</ele>
      </trkpt>
      <trkpt lat="50.92069" lon="4.56911">
        <ele>19</ele>
      </trkpt>
      <trkpt lat="50.92126" lon="4.56924">
        <ele>19</ele>
      </trkpt>
      <trkpt lat="50.92143" lon="4.56925">
        <ele>18</ele>
      </trkpt>
      <trkpt lat="50.92237" lon="4.56899">
        <ele>19</ele>
      </trkpt>
      <trkpt lat="50.92241" lon="4.56912">
        <ele>18</ele>
      </trkpt>
      <trkpt lat="50.92262" lon="4.56959">
        <ele>18</ele>
      </trkpt>
      <trkpt lat="50.92308" lon="4.57052">
        <ele>18</ele>
      </trkpt>
      <trkpt lat="50.92377" lon="4.57198">
        <ele>18</ele>
      </trkpt>
      <trkpt lat="50.92385" lon="4.57229">
        <ele>17</ele>
      </trkpt>
      <trkpt lat="50.9236" lon="4.57299">
        <ele>17</ele>
      </trkpt>
      <trkpt lat="50.92343" lon="4.57367">
        <ele>16</ele>
      </trkpt>
      <trkpt lat="50.92335" lon="4.57418">
        <ele>16</ele>
      </trkpt>
      <trkpt lat="50.92333" lon="4.57445">
        <ele>16</ele>
      </trkpt>
      <trkpt lat="50.92333" lon="4.57513">
        <ele>15</ele>
      </trkpt>
      <trkpt lat="50.92355" lon="4.57847">
        <ele>16</ele>
      </trkpt>
      <trkpt lat="50.9236" lon="4.57879">
        <ele>16</ele>
      </trkpt>
      <trkpt lat="50.92364" lon="4.57895">
        <ele>16</ele>
      </trkpt>
      <trkpt lat="50.92532" lon="4.58381">
        <ele>16</ele>
      </trkpt>
      <trkpt lat="50.92639" lon="4.58842">
        <ele>16</ele>
      </trkpt>
      <trkpt lat="50.92654" lon="4.58906">
        <ele>16</ele>
      </trkpt>
      <trkpt lat="50.9266" lon="4.58918">
        <ele>16</ele>
      </trkpt>
      <trkpt lat="50.92916" lon="4.58988">
        <ele>15</ele>
      </trkpt>
      <trkpt lat="50.93163" lon="4.59056">
        <ele>15</ele>
      </trkpt>
      <trkpt lat="50.93178" lon="4.59068">
        <ele>15</ele>
      </trkpt>
      <trkpt lat="50.93188" lon="4.59062">
        <ele>14</ele>
      </trkpt>
      <trkpt lat="50.93219" lon="4.59067">
        <ele>14</ele>
      </trkpt>
      <trkpt lat="50.93244" lon="4.59061">
        <ele>14</ele>
      </trkpt>
      <trkpt lat="50.93342" lon="4.58949">
        <ele>14</ele>
      </trkpt>
      <trkpt lat="50.9338" lon="4.58916">
        <ele>14</ele>
      </trkpt>
      <trkpt lat="50.93424" lon="4.5886">
        <ele>14</ele>
      </trkpt>
      <trkpt lat="50.93432" lon="4.58869">
        <ele>14</ele>
      </trkpt>
      <trkpt lat="50.93443" lon="4.58885">
        <ele>14</ele>
      </trkpt>
      <trkpt lat="50.9349" lon="4.58962">
        <ele>14</ele>
      </trkpt>
      <trkpt lat="50.93525" lon="4.58949">
        <ele>14</ele>
      </trkpt>
      <trkpt lat="50.93719" lon="4.58904">
        <ele>15</ele>
      </trkpt>
      <trkpt lat="50.93733" lon="4.58905">
        <ele>15</ele>
      </trkpt>
      <trkpt lat="50.93866" lon="4.58937">
        <ele>13</ele>
      </trkpt>
      <trkpt lat="50.93882" lon="4.58939">
        <ele>13</ele>
      </trkpt>
      <trkpt lat="50.93964" lon="4.5893">
        <ele>13</ele>
      </trkpt>
      <trkpt lat="50.94101" lon="4.58913">
        <ele>13</ele>
      </trkpt>
      <trkpt lat="50.942" lon="4.58879">
        <ele>13</ele>
      </trkpt>
      <trkpt lat="50.94229" lon="4.58866">
        <ele>13</ele>
      </trkpt>
      <trkpt lat="50.94477" lon="4.58706">
        <ele>12</ele>
      </trkpt>
      <trkpt lat="50.94549" lon="4.58662">
        <ele>14</ele>
      </trkpt>
      <trkpt lat="50.94559" lon="4.58708">
        <ele>14</ele>
      </trkpt>
      <trkpt lat="50.94574" lon="4.58765">
        <ele>14</ele>
      </trkpt>
      <trkpt lat="50.9458" lon="4.58801">
        <ele>13</ele>
      </trkpt>
      <trkpt lat="50.94581" lon="4.58835">
        <ele>13</ele>
      </trkpt>
      <trkpt lat="50.94578" lon="4.58924">
        <ele>13</ele>
      </trkpt>
      <trkpt lat="50.94574" lon="4.58951">
        <ele>13</ele>
      </trkpt>
      <trkpt lat="50.9455" lon="4.59004">
        <ele>13</ele>
      </trkpt>
      <trkpt lat="50.94547" lon="4.59016">
        <ele>13</ele>
      </trkpt>
      <trkpt lat="50.94591" lon="4.5929">
        <ele>11</ele>
      </trkpt>
      <trkpt lat="50.94602" lon="4.59323">
        <ele>11</ele>
      </trkpt>
      <trkpt lat="50.94678" lon="4.59459">
        <ele>11</ele>
      </trkpt>
      <trkpt lat="50.94702" lon="4.59501">
        <ele>11</ele>
      </trkpt>
      <trkpt lat="50.94714" lon="4.59525">
        <ele>11</ele>
      </trkpt>
      <trkpt lat="50.94796" lon="4.595">
        <ele>11</ele>
      </trkpt>
      <trkpt lat="50.95168" lon="4.59469">
        <ele>10</ele>
      </trkpt>
      <trkpt lat="50.95205" lon="4.59468">
        <ele>11</ele>
      </trkpt>
      <trkpt lat="50.95256" lon="4.59466">
        <ele>11</ele>
      </trkpt>
      <trkpt lat="50.95264" lon="4.59468">
        <ele>11</ele>
      </trkpt>
      <trkpt lat="50.95374" lon="4.59531">
        <ele>11</ele>
      </trkpt>
      <trkpt lat="50.95396" lon="4.59543">
        <ele>11</ele>
      </trkpt>
      <trkpt lat="50.95431" lon="4.59489">
        <ele>11</ele>
      </trkpt>
      <trkpt lat="50.95439" lon="4.59471">
        <ele>11</ele>
      </trkpt>
      <trkpt lat="50.95443" lon="4.59453">
        <ele>11</ele>
      </trkpt>
      <trkpt lat="50.95445" lon="4.59386">
        <ele>11</ele>
      </trkpt>
      <trkpt lat="50.95454" lon="4.59374">
        <ele>11</ele>
      </trkpt>
      <trkpt lat="50.95477" lon="4.59352">
        <ele>11</ele>
      </trkpt>
      <trkpt lat="50.95485" lon="4.59343">
        <ele>11</ele>
      </trkpt>
      <trkpt lat="50.95488" lon="4.59326">
        <ele>11</ele>
      </trkpt>
      <trkpt lat="50.9551" lon="4.5933">
        <ele>11</ele>
      </trkpt>
      <trkpt lat="50.95547" lon="4.59281">
        <ele>11</ele>
      </trkpt>
      <trkpt lat="50.95569" lon="4.59319">
        <ele>11</ele>
      </trkpt>
      <trkpt lat="50.95586" lon="4.59366">
        <ele>11</ele>
      </trkpt>
      <trkpt lat="50.95569" lon="4.59319">
        <ele>11</ele>
      </trkpt>
      <trkpt lat="50.95512" lon="4.59223">
        <ele>12</ele>
      </trkpt>
      <trkpt lat="50.95484" lon="4.59159">
        <ele>13</ele>
      </trkpt>
      <trkpt lat="50.95478" lon="4.59127">
        <ele>13</ele>
      </trkpt>
      <trkpt lat="50.95476" lon="4.59089">
        <ele>13</ele>
      </trkpt>
      <trkpt lat="50.95477" lon="4.59061">
        <ele>14</ele>
      </trkpt>
      <trkpt lat="50.95481" lon="4.59035">
        <ele>15</ele>
      </trkpt>
      <trkpt lat="50.95487" lon="4.59013">
        <ele>15</ele>
      </trkpt>
      <trkpt lat="50.95494" lon="4.58994">
        <ele>15</ele>
      </trkpt>
      <trkpt lat="50.9553" lon="4.58934">
        <ele>15</ele>
      </trkpt>
      <trkpt lat="50.95808" lon="4.58478">
        <ele>17</ele>
      </trkpt>
      <trkpt lat="50.96242" lon="4.57774">
        <ele>9</ele>
      </trkpt>
      <trkpt lat="50.96629" lon="4.57136">
        <ele>11</ele>
      </trkpt>
      <trkpt lat="50.96665" lon="4.57079">
        <ele>11</ele>
      </trkpt>
      <trkpt lat="50.96691" lon="4.57035">
        <ele>12</ele>
      </trkpt>
      <trkpt lat="50.96829" lon="4.56816">
        <ele>12</ele>
      </trkpt>
      <trkpt lat="50.97223" lon="4.56213">
        <ele>9</ele>
      </trkpt>
      <trkpt lat="50.97272" lon="4.56138">
        <ele>9</ele>
      </trkpt>
      <trkpt lat="50.97289" lon="4.56113">
        <ele>9</ele>
      </trkpt>
      <trkpt lat="50.97321" lon="4.56073">
        <ele>9</ele>
      </trkpt>
      <trkpt lat="50.97367" lon="4.56004">
        <ele>9</ele>
      </trkpt>
      <trkpt lat="50.974" lon="4.55941">
        <ele>9</ele>
      </trkpt>
      <trkpt lat="50.97442" lon="4.55882">
        <ele>8</ele>
      </trkpt>
      <trkpt lat="50.97448" lon="4.55877">
        <ele>8</ele>
      </trkpt>
      <trkpt lat="50.97464" lon="4.55906">
        <ele>8</ele>
      </trkpt>
      <trkpt lat="50.97492" lon="4.55949">
        <ele>8</ele>
      </trkpt>
      <trkpt lat="50.97561" lon="4.55913">
        <ele>7</ele>
      </trkpt>
      <trkpt lat="50.97784" lon="4.55786">
        <ele>8</ele>
      </trkpt>
      <trkpt lat="50.97796" lon="4.55782">
        <ele>8</ele>
      </trkpt>
      <trkpt lat="50.97803" lon="4.55785">
        <ele>8</ele>
      </trkpt>
      <trkpt lat="50.97808" lon="4.55793">
        <ele>9</ele>
      </trkpt>
      <trkpt lat="50.97825" lon="4.55765">
        <ele>8</ele>
      </trkpt>
      <trkpt lat="50.97828" lon="4.55771">
        <ele>8</ele>
      </trkpt>
      <trkpt lat="50.97832" lon="4.55774">
        <ele>8</ele>
      </trkpt>
      <trkpt lat="50.98017" lon="4.55786">
        <ele>9</ele>
      </trkpt>
      <trkpt lat="50.98086" lon="4.55791">
        <ele>9</ele>
      </trkpt>
      <trkpt lat="50.98141" lon="4.55799">
        <ele>8</ele>
      </trkpt>
      <trkpt lat="50.98156" lon="4.55805">
        <ele>9</ele>
      </trkpt>
      <trkpt lat="50.98221" lon="4.55848">
        <ele>9</ele>
      </trkpt>
      <trkpt lat="50.98241" lon="4.55867">
        <ele>9</ele>
      </trkpt>
      <trkpt lat="50.98323" lon="4.55913">
        <ele>10</ele>
      </trkpt>
      <trkpt lat="50.98454" lon="4.55978">
        <ele>13</ele>
      </trkpt>
      <trkpt lat="50.98562" lon="4.55909">
        <ele>13</ele>
      </trkpt>
      <trkpt lat="50.98581" lon="4.55901">
        <ele>13</ele>
      </trkpt>
      <trkpt lat="50.98641" lon="4.55885">
        <ele>10</ele>
      </trkpt>
      <trkpt lat="50.98665" lon="4.55873">
        <ele>10</ele>
      </trkpt>
      <trkpt lat="50.98684" lon="4.55844">
        <ele>8</ele>
      </trkpt>
      <trkpt lat="50.98712" lon="4.55776">
        <ele>8</ele>
      </trkpt>
      <trkpt lat="50.9873" lon="4.55742">
        <ele>8</ele>
      </trkpt>
      <trkpt lat="50.98736" lon="4.55737">
        <ele>8</ele>
      </trkpt>
      <trkpt lat="50.98791" lon="4.55693">
        <ele>8</ele>
      </trkpt>
      <trkpt lat="50.98797" lon="4.55683">
        <ele>8</ele>
      </trkpt>
      <trkpt lat="50.98813" lon="4.55698">
        <ele>9</ele>
      </trkpt>
      <trkpt lat="50.98892" lon="4.55759">
        <ele>8</ele>
      </trkpt>
      <trkpt lat="50.98901" lon="4.55763">
        <ele>8</ele>
      </trkpt>
      <trkpt lat="50.98924" lon="4.5576">
        <ele>8</ele>
      </trkpt>
      <trkpt lat="50.98968" lon="4.55734">
        <ele>8</ele>
      </trkpt>
      <trkpt lat="50.98972" lon="4.55735">
        <ele>8</ele>
      </trkpt>
      <trkpt lat="50.98975" lon="4.55739">
        <ele>8</ele>
      </trkpt>
      <trkpt lat="50.98979" lon="4.55733">
        <ele>8</ele>
      </trkpt>
      <trkpt lat="50.99002" lon="4.55716">
        <ele>8</ele>
      </trkpt>
      <trkpt lat="50.99125" lon="4.55643">
        <ele>9</ele>
      </trkpt>
      <trkpt lat="50.99142" lon="4.55631">
        <ele>10</ele>
      </trkpt>
      <trkpt lat="50.99211" lon="4.55552">
        <ele>9</ele>
      </trkpt>
      <trkpt lat="50.9923" lon="4.55535">
        <ele>9</ele>
      </trkpt>
      <trkpt lat="50.99249" lon="4.55525">
        <ele>9</ele>
      </trkpt>
      <trkpt lat="50.99256" lon="4.55514">
        <ele>9</ele>
      </trkpt>
      <trkpt lat="50.99257" lon="4.55481">
        <ele>9</ele>
      </trkpt>
      <trkpt lat="50.9926" lon="4.55474">
        <ele>9</ele>
      </trkpt>
      <trkpt lat="50.99265" lon="4.55467">
        <ele>9</ele>
      </trkpt>
      <trkpt lat="50.99304" lon="4.55439">
        <ele>9</ele>
      </trkpt>
      <trkpt lat="50.99313" lon="4.5543">
        <ele>9</ele>
      </trkpt>
      <trkpt lat="50.99336" lon="4.55373">
        <ele>9</ele>
      </trkpt>
      <trkpt lat="50.99351" lon="4.55343">
        <ele>9</ele>
      </trkpt>
      <trkpt lat="50.99373" lon="4.55304">
        <ele>9</ele>
      </trkpt>
      <trkpt lat="50.99467" lon="4.5518">
        <ele>8</ele>
      </trkpt>
      <trkpt lat="50.99573" lon="4.55049">
        <ele>7</ele>
      </trkpt>
      <trkpt lat="50.99616" lon="4.54994">
        <ele>7</ele>
      </trkpt>
      <trkpt lat="50.99634" lon="4.54961">
        <ele>7</ele>
      </trkpt>
      <trkpt lat="50.99648" lon="4.54932">
        <ele>7</ele>
      </trkpt>
      <trkpt lat="50.9966" lon="4.54901">
        <ele>7</ele>
      </trkpt>
      <trkpt lat="50.99672" lon="4.54865">
        <ele>7</ele>
      </trkpt>
      <trkpt lat="50.99683" lon="4.54815">
        <ele>7</ele>
      </trkpt>
      <trkpt lat="50.9969" lon="4.5475">
        <ele>7</ele>
      </trkpt>
      <trkpt lat="50.99699" lon="4.54592">
        <ele>7</ele>
      </trkpt>
      <trkpt lat="50.99708" lon="4.54504">
        <ele>7</ele>
      </trkpt>
      <trkpt lat="50.99726" lon="4.54361">
        <ele>6</ele>
      </trkpt>
      <trkpt lat="50.99771" lon="4.54108">
        <ele>6</ele>
      </trkpt>
      <trkpt lat="50.99784" lon="4.54038">
        <ele>6</ele>
      </trkpt>
      <trkpt lat="50.99798" lon="4.53957">
        <ele>7</ele>
      </trkpt>
      <trkpt lat="50.99801" lon="4.53925">
        <ele>7</ele>
      </trkpt>
      <trkpt lat="50.99816" lon="4.53924">
        <ele>7</ele>
      </trkpt>
      <trkpt lat="50.99842" lon="4.53901">
        <ele>7</ele>
      </trkpt>
      <trkpt lat="50.99905" lon="4.5385">
        <ele>6</ele>
      </trkpt>
      <trkpt lat="50.99915" lon="4.53839">
        <ele>6</ele>
      </trkpt>
      <trkpt lat="50.9994" lon="4.53798">
        <ele>5</ele>
      </trkpt>
      <trkpt lat="50.99999" lon="4.53635">
        <ele>6</ele>
      </trkpt>
      <trkpt lat="51.00097" lon="4.53385">
        <ele>6</ele>
      </trkpt>
      <trkpt lat="51.00133" lon="4.53267">
        <ele>5</ele>
      </trkpt>
      <trkpt lat="51.00133" lon="4.53219">
        <ele>5</ele>
      </trkpt>
      <trkpt lat="51.00133" lon="4.53179">
        <ele>5</ele>
      </trkpt>
      <trkpt lat="51.00137" lon="4.53146">
        <ele>5</ele>
      </trkpt>
      <trkpt lat="51.00143" lon="4.53125">
        <ele>4</ele>
      </trkpt>
      <trkpt lat="51.00151" lon="4.53109">
        <ele>4</ele>
      </trkpt>
      <trkpt lat="51.00181" lon="4.53091">
        <ele>4</ele>
      </trkpt>
      <trkpt lat="51.00218" lon="4.53075">
        <ele>3</ele>
      </trkpt>
      <trkpt lat="51.00227" lon="4.53067">
        <ele>3</ele>
      </trkpt>
      <trkpt lat="51.0027" lon="4.53008">
        <ele>3</ele>
      </trkpt>
      <trkpt lat="51.00308" lon="4.52941">
        <ele>4</ele>
      </trkpt>
      <trkpt lat="51.00368" lon="4.52878">
        <ele>4</ele>
      </trkpt>
      <trkpt lat="51.0044" lon="4.52811">
        <ele>3</ele>
      </trkpt>
      <trkpt lat="51.00459" lon="4.52798">
        <ele>3</ele>
      </trkpt>
      <trkpt lat="51.00492" lon="4.52782">
        <ele>3</ele>
      </trkpt>
      <trkpt lat="51.00567" lon="4.52723">
        <ele>3</ele>
      </trkpt>
      <trkpt lat="51.0059" lon="4.52698">
        <ele>3</ele>
      </trkpt>
      <trkpt lat="51.00629" lon="4.52641">
        <ele>4</ele>
      </trkpt>
      <trkpt lat="51.00649" lon="4.52608">
        <ele>4</ele>
      </trkpt>
      <trkpt lat="51.00664" lon="4.52578">
        <ele>4</ele>
      </trkpt>
      <trkpt lat="51.00678" lon="4.52546">
        <ele>5</ele>
      </trkpt>
      <trkpt lat="51.00718" lon="4.52444">
        <ele>5</ele>
      </trkpt>
      <trkpt lat="51.00745" lon="4.52394">
        <ele>6</ele>
      </trkpt>
      <trkpt lat="51.00826" lon="4.52255">
        <ele>7</ele>
      </trkpt>
      <trkpt lat="51.0098" lon="4.51944">
        <ele>9</ele>
      </trkpt>
      <trkpt lat="51.01012" lon="4.51969">
        <ele>10</ele>
      </trkpt>
      <trkpt lat="51.0108" lon="4.52018">
        <ele>8</ele>
      </trkpt>
      <trkpt lat="51.01101" lon="4.52037">
        <ele>6</ele>
      </trkpt>
      <trkpt lat="51.01115" lon="4.52056">
        <ele>6</ele>
      </trkpt>
      <trkpt lat="51.01159" lon="4.52126">
        <ele>5</ele>
      </trkpt>
      <trkpt lat="51.01162" lon="4.52134">
        <ele>5</ele>
      </trkpt>
      <trkpt lat="51.01169" lon="4.52112">
        <ele>5</ele>
      </trkpt>
      <trkpt lat="51.01199" lon="4.52045">
        <ele>4</ele>
      </trkpt>
      <trkpt lat="51.01249" lon="4.5198">
        <ele>3</ele>
      </trkpt>
      <trkpt lat="51.01311" lon="4.519">
        <ele>2</ele>
      </trkpt>
      <trkpt lat="51.0137" lon="4.51817">
        <ele>3</ele>
      </trkpt>
      <trkpt lat="51.01387" lon="4.51797">
        <ele>3</ele>
      </trkpt>
      <trkpt lat="51.01408" lon="4.51785">
        <ele>3</ele>
      </trkpt>
      <trkpt lat="51.01435" lon="4.51779">
        <ele>4</ele>
      </trkpt>
      <trkpt lat="51.01496" lon="4.51783">
        <ele>3</ele>
      </trkpt>
      <trkpt lat="51.01505" lon="4.51776">
        <ele>3</ele>
      </trkpt>
      <trkpt lat="51.01526" lon="4.51745">
        <ele>3</ele>
      </trkpt>
      <trkpt lat="51.01624" lon="4.51607">
        <ele>4</ele>
      </trkpt>
      <trkpt lat="51.0163" lon="4.51612">
        <ele>4</ele>
      </trkpt>
      <trkpt lat="51.0164" lon="4.51635">
        <ele>4</ele>
      </trkpt>
      <trkpt lat="51.01642" lon="4.51653">
        <ele>4</ele>
      </trkpt>
      <trkpt lat="51.01646" lon="4.5167">
        <ele>4</ele>
      </trkpt>
      <trkpt lat="51.01682" lon="4.5172">
        <ele>4</ele>
      </trkpt>
      <trkpt lat="51.01753" lon="4.51788">
        <ele>3</ele>
      </trkpt>
      <trkpt lat="51.01789" lon="4.51818">
        <ele>2</ele>
      </trkpt>
      <trkpt lat="51.01823" lon="4.51854">
        <ele>2</ele>
      </trkpt>
      <trkpt lat="51.01829" lon="4.51868">
        <ele>2</ele>
      </trkpt>
      <trkpt lat="51.01861" lon="4.52005">
        <ele>2</ele>
      </trkpt>
      <trkpt lat="51.01884" lon="4.52119">
        <ele>2</ele>
      </trkpt>
      <trkpt lat="51.01891" lon="4.52226">
        <ele>2</ele>
      </trkpt>
      <trkpt lat="51.01901" lon="4.52315">
        <ele>1</ele>
      </trkpt>
      <trkpt lat="51.01903" lon="4.52447">
        <ele>2</ele>
      </trkpt>
      <trkpt lat="51.01921" lon="4.52621">
        <ele>5</ele>
      </trkpt>
      <trkpt lat="51.0193" lon="4.52729">
        <ele>6</ele>
      </trkpt>
      <trkpt lat="51.01948" lon="4.52717">
        <ele>4</ele>
      </trkpt>
      <trkpt lat="51.02031" lon="4.52666">
        <ele>3</ele>
      </trkpt>
      <trkpt lat="51.02041" lon="4.52664">
        <ele>3</ele>
      </trkpt>
      <trkpt lat="51.02049" lon="4.52666">
        <ele>3</ele>
      </trkpt>
      <trkpt lat="51.02064" lon="4.5268">
        <ele>3</ele>
      </trkpt>
      <trkpt lat="51.02073" lon="4.52691">
        <ele>3</ele>
      </trkpt>
      <trkpt lat="51.02168" lon="4.52838">
        <ele>3</ele>
      </trkpt>
      <trkpt lat="51.02246" lon="4.53011">
        <ele>6</ele>
      </trkpt>
      <trkpt lat="51.02258" lon="4.53034">
        <ele>6</ele>
      </trkpt>
      <trkpt lat="51.02269" lon="4.53047">
        <ele>7</ele>
      </trkpt>
      <trkpt lat="51.02282" lon="4.53057">
        <ele>8</ele>
      </trkpt>
      <trkpt lat="51.02341" lon="4.53058">
        <ele>8</ele>
      </trkpt>
      <trkpt lat="51.02366" lon="4.5306">
        <ele>9</ele>
      </trkpt>
      <trkpt lat="51.02376" lon="4.53064">
        <ele>9</ele>
      </trkpt>
      <trkpt lat="51.02388" lon="4.53073">
        <ele>9</ele>
      </trkpt>
      <trkpt lat="51.02419" lon="4.5312">
        <ele>9</ele>
      </trkpt>
      <trkpt lat="51.02453" lon="4.53155">
        <ele>9</ele>
      </trkpt>
      <trkpt lat="51.02493" lon="4.53192">
        <ele>9</ele>
      </trkpt>
      <trkpt lat="51.0252" lon="4.53226">
        <ele>9</ele>
      </trkpt>
      <trkpt lat="51.02527" lon="4.53239">
        <ele>9</ele>
      </trkpt>
      <trkpt lat="51.02614" lon="4.53454">
        <ele>8</ele>
      </trkpt>
      <trkpt lat="51.02623" lon="4.5346">
        <ele>8</ele>
      </trkpt>
      <trkpt lat="51.02638" lon="4.53467">
        <ele>8</ele>
      </trkpt>
      <trkpt lat="51.02644" lon="4.53481">
        <ele>8</ele>
      </trkpt>
      <trkpt lat="51.02645" lon="4.53484">
        <ele>8</ele>
      </trkpt>
      <trkpt lat="51.02657" lon="4.53492">
        <ele>8</ele>
      </trkpt>
      <trkpt lat="51.02665" lon="4.53465">
        <ele>8</ele>
      </trkpt>
      <trkpt lat="51.02669" lon="4.53468">
        <ele>8</ele>
      </trkpt>
      <trkpt lat="51.02753" lon="4.5348">
        <ele>6</ele>
      </trkpt>
      <trkpt lat="51.02763" lon="4.53486">
        <ele>6</ele>
      </trkpt>
      <trkpt lat="51.02765" lon="4.53487">
        <ele>6</ele>
      </trkpt>
      <trkpt lat="51.02794" lon="4.53532">
        <ele>5</ele>
      </trkpt>
      <trkpt lat="51.02847" lon="4.53637">
        <ele>6</ele>
      </trkpt>
      <trkpt lat="51.02869" lon="4.53694">
        <ele>9</ele>
      </trkpt>
      <trkpt lat="51.02883" lon="4.53722">
        <ele>9</ele>
      </trkpt>
      <trkpt lat="51.02987" lon="4.53894">
        <ele>12</ele>
      </trkpt>
      <trkpt lat="51.02999" lon="4.5388">
        <ele>12</ele>
      </trkpt>
      <trkpt lat="51.03084" lon="4.53835">
        <ele>12</ele>
      </trkpt>
      <trkpt lat="51.03199" lon="4.53772">
        <ele>9</ele>
      </trkpt>
      <trkpt lat="51.03404" lon="4.53665">
        <ele>6</ele>
      </trkpt>
      <trkpt lat="51.03433" lon="4.53852">
        <ele>8</ele>
      </trkpt>
      <trkpt lat="51.03463" lon="4.53997">
        <ele>7</ele>
      </trkpt>
      <trkpt lat="51.03496" lon="4.54128">
        <ele>7</ele>
      </trkpt>
      <trkpt lat="51.0351" lon="4.54182">
        <ele>8</ele>
      </trkpt>
      <trkpt lat="51.03526" lon="4.5426">
        <ele>8</ele>
      </trkpt>
      <trkpt lat="51.03554" lon="4.54528">
        <ele>7</ele>
      </trkpt>
      <trkpt lat="51.03589" lon="4.54757">
        <ele>6</ele>
      </trkpt>
      <trkpt lat="51.03604" lon="4.54972">
        <ele>6</ele>
      </trkpt>
      <trkpt lat="51.03605" lon="4.54999">
        <ele>6</ele>
      </trkpt>
      <trkpt lat="51.03597" lon="4.55187">
        <ele>5</ele>
      </trkpt>
      <trkpt lat="51.03584" lon="4.5529">
        <ele>6</ele>
      </trkpt>
      <trkpt lat="51.03583" lon="4.55318">
        <ele>6</ele>
      </trkpt>
      <trkpt lat="51.03593" lon="4.554">
        <ele>6</ele>
      </trkpt>
      <trkpt lat="51.03617" lon="4.55528">
        <ele>7</ele>
      </trkpt>
      <trkpt lat="51.03631" lon="4.55602">
        <ele>7</ele>
      </trkpt>
      <trkpt lat="51.03643" lon="4.557">
        <ele>7</ele>
      </trkpt>
      <trkpt lat="51.03645" lon="4.5589">
        <ele>8</ele>
      </trkpt>
      <trkpt lat="51.03643" lon="4.55976">
        <ele>8</ele>
      </trkpt>
      <trkpt lat="51.03642" lon="4.55992">
        <ele>8</ele>
      </trkpt>
      <trkpt lat="51.03632" lon="4.56055">
        <ele>8</ele>
      </trkpt>
      <trkpt lat="51.03568" lon="4.5633">
        <ele>6</ele>
      </trkpt>
      <trkpt lat="51.03565" lon="4.5636">
        <ele>6</ele>
      </trkpt>
      <trkpt lat="51.03573" lon="4.56478">
        <ele>7</ele>
      </trkpt>
      <trkpt lat="51.03534" lon="4.56664">
        <ele>9</ele>
      </trkpt>
      <trkpt lat="51.03495" lon="4.56882">
        <ele>12</ele>
      </trkpt>
      <trkpt lat="51.03491" lon="4.56935">
        <ele>13</ele>
      </trkpt>
      <trkpt lat="51.03493" lon="4.57041">
        <ele>15</ele>
      </trkpt>
      <trkpt lat="51.03498" lon="4.57098">
        <ele>15</ele>
      </trkpt>
      <trkpt lat="51.03519" lon="4.57207">
        <ele>13</ele>
      </trkpt>
      <trkpt lat="51.0353" lon="4.57266">
        <ele>12</ele>
      </trkpt>
      <trkpt lat="51.03565" lon="4.57427">
        <ele>11</ele>
      </trkpt>
      <trkpt lat="51.03573" lon="4.57475">
        <ele>10</ele>
      </trkpt>
      <trkpt lat="51.03576" lon="4.57712">
        <ele>7</ele>
      </trkpt>
      <trkpt lat="51.03442" lon="4.57839">
        <ele>7</ele>
      </trkpt>
      <trkpt lat="51.03393" lon="4.57885">
        <ele>8</ele>
      </trkpt>
      <trkpt lat="51.03162" lon="4.58121">
        <ele>9</ele>
      </trkpt>
      <trkpt lat="51.03147" lon="4.58143">
        <ele>9</ele>
      </trkpt>
      <trkpt lat="51.03131" lon="4.58171">
        <ele>8</ele>
      </trkpt>
      <trkpt lat="51.03116" lon="4.58204">
        <ele>8</ele>
      </trkpt>
      <trkpt lat="51.031" lon="4.58197">
        <ele>8</ele>
      </trkpt>
      <trkpt lat="51.0297" lon="4.58141">
        <ele>7</ele>
      </trkpt>
      <trkpt lat="51.02935" lon="4.58122">
        <ele>7</ele>
      </trkpt>
      <trkpt lat="51.02912" lon="4.58102">
        <ele>6</ele>
      </trkpt>
      <trkpt lat="51.02699" lon="4.57862">
        <ele>6</ele>
      </trkpt>
      <trkpt lat="51.02684" lon="4.57849">
        <ele>6</ele>
      </trkpt>
      <trkpt lat="51.02604" lon="4.57818">
        <ele>7</ele>
      </trkpt>
      <trkpt lat="51.02571" lon="4.57802">
        <ele>7</ele>
      </trkpt>
      <trkpt lat="51.02538" lon="4.57782">
        <ele>7</ele>
      </trkpt>
      <trkpt lat="51.02512" lon="4.57758">
        <ele>7</ele>
      </trkpt>
      <trkpt lat="51.02402" lon="4.57665">
        <ele>7</ele>
      </trkpt>
      <trkpt lat="51.02355" lon="4.57645">
        <ele>6</ele>
      </trkpt>
      <trkpt lat="51.02183" lon="4.57584">
        <ele>10</ele>
      </trkpt>
      <trkpt lat="51.02097" lon="4.57553">
        <ele>11</ele>
      </trkpt>
      <trkpt lat="51.02072" lon="4.5756">
        <ele>11</ele>
      </trkpt>
      <trkpt lat="51.02042" lon="4.57575">
        <ele>11</ele>
      </trkpt>
      <trkpt lat="51.02026" lon="4.57592">
        <ele>12</ele>
      </trkpt>
      <trkpt lat="51.0203" lon="4.57641">
        <ele>12</ele>
      </trkpt>
      <trkpt lat="51.02027" lon="4.57678">
        <ele>12</ele>
      </trkpt>
      <trkpt lat="51.02031" lon="4.57735">
        <ele>12</ele>
      </trkpt>
      <trkpt lat="51.0205" lon="4.57845">
        <ele>14</ele>
      </trkpt>
      <trkpt lat="51.02072" lon="4.58007">
        <ele>15</ele>
      </trkpt>
      <trkpt lat="51.02108" lon="4.58226">
        <ele>14</ele>
      </trkpt>
      <trkpt lat="51.02122" lon="4.58323">
        <ele>14</ele>
      </trkpt>
      <trkpt lat="51.02129" lon="4.58369">
        <ele>14</ele>
      </trkpt>
      <trkpt lat="51.02168" lon="4.5857">
        <ele>12</ele>
      </trkpt>
      <trkpt lat="51.02192" lon="4.58714">
        <ele>11</ele>
      </trkpt>
      <trkpt lat="51.02203" lon="4.58797">
        <ele>9</ele>
      </trkpt>
      <trkpt lat="51.02207" lon="4.58837">
        <ele>8</ele>
      </trkpt>
      <trkpt lat="51.02208" lon="4.5887">
        <ele>7</ele>
      </trkpt>
      <trkpt lat="51.02205" lon="4.5894">
        <ele>6</ele>
      </trkpt>
      <trkpt lat="51.02199" lon="4.58977">
        <ele>6</ele>
      </trkpt>
      <trkpt lat="51.0219" lon="4.59014">
        <ele>6</ele>
      </trkpt>
      <trkpt lat="51.02178" lon="4.59048">
        <ele>6</ele>
      </trkpt>
      <trkpt lat="51.02145" lon="4.59106">
        <ele>6</ele>
      </trkpt>
      <trkpt lat="51.0213" lon="4.59147">
        <ele>6</ele>
      </trkpt>
      <trkpt lat="51.02124" lon="4.5917">
        <ele>6</ele>
      </trkpt>
      <trkpt lat="51.0212" lon="4.59194">
        <ele>6</ele>
      </trkpt>
      <trkpt lat="51.02115" lon="4.59227">
        <ele>6</ele>
      </trkpt>
      <trkpt lat="51.02116" lon="4.59247">
        <ele>7</ele>
      </trkpt>
      <trkpt lat="51.02123" lon="4.59289">
        <ele>7</ele>
      </trkpt>
      <trkpt lat="51.02151" lon="4.59372">
        <ele>7</ele>
      </trkpt>
      <trkpt lat="51.02183" lon="4.59419">
        <ele>7</ele>
      </trkpt>
      <trkpt lat="51.02215" lon="4.59462">
        <ele>6</ele>
      </trkpt>
      <trkpt lat="51.02248" lon="4.59518">
        <ele>6</ele>
      </trkpt>
      <trkpt lat="51.02258" lon="4.59555">
        <ele>6</ele>
      </trkpt>
      <trkpt lat="51.02269" lon="4.59687">
        <ele>6</ele>
      </trkpt>
      <trkpt lat="51.02277" lon="4.59719">
        <ele>6</ele>
      </trkpt>
      <trkpt lat="51.02356" lon="4.6005">
        <ele>7</ele>
      </trkpt>
      <trkpt lat="51.02379" lon="4.60161">
        <ele>8</ele>
      </trkpt>
      <trkpt lat="51.0241" lon="4.60264">
        <ele>8</ele>
      </trkpt>
      <trkpt lat="51.02429" lon="4.60346">
        <ele>9</ele>
      </trkpt>
      <trkpt lat="51.02448" lon="4.60448">
        <ele>8</ele>
      </trkpt>
      <trkpt lat="51.02464" lon="4.60542">
        <ele>8</ele>
      </trkpt>
      <trkpt lat="51.02465" lon="4.60586">
        <ele>7</ele>
      </trkpt>
      <trkpt lat="51.02452" lon="4.60843">
        <ele>6</ele>
      </trkpt>
      <trkpt lat="51.02448" lon="4.60899">
        <ele>6</ele>
      </trkpt>
      <trkpt lat="51.02428" lon="4.60994">
        <ele>7</ele>
      </trkpt>
      <trkpt lat="51.02418" lon="4.61056">
        <ele>7</ele>
      </trkpt>
      <trkpt lat="51.02416" lon="4.61118">
        <ele>6</ele>
      </trkpt>
      <trkpt lat="51.02419" lon="4.61311">
        <ele>6</ele>
      </trkpt>
      <trkpt lat="51.02423" lon="4.61352">
        <ele>6</ele>
      </trkpt>
      <trkpt lat="51.02432" lon="4.61385">
        <ele>6</ele>
      </trkpt>
      <trkpt lat="51.02444" lon="4.61413">
        <ele>6</ele>
      </trkpt>
      <trkpt lat="51.02465" lon="4.61449">
        <ele>7</ele>
      </trkpt>
      <trkpt lat="51.025" lon="4.61486">
        <ele>6</ele>
      </trkpt>
      <trkpt lat="51.0252" lon="4.61518">
        <ele>7</ele>
      </trkpt>
      <trkpt lat="51.02534" lon="4.61556">
        <ele>7</ele>
      </trkpt>
      <trkpt lat="51.02574" lon="4.61751">
        <ele>9</ele>
      </trkpt>
      <trkpt lat="51.02593" lon="4.61863">
        <ele>10</ele>
      </trkpt>
      <trkpt lat="51.02599" lon="4.61907">
        <ele>10</ele>
      </trkpt>
      <trkpt lat="51.02598" lon="4.61927">
        <ele>10</ele>
      </trkpt>
      <trkpt lat="51.02592" lon="4.6195">
        <ele>10</ele>
      </trkpt>
      <trkpt lat="51.0258" lon="4.61968">
        <ele>10</ele>
      </trkpt>
      <trkpt lat="51.02543" lon="4.62003">
        <ele>9</ele>
      </trkpt>
      <trkpt lat="51.02534" lon="4.62019">
        <ele>9</ele>
      </trkpt>
      <trkpt lat="51.02529" lon="4.62037">
        <ele>9</ele>
      </trkpt>
      <trkpt lat="51.02528" lon="4.62061">
        <ele>9</ele>
      </trkpt>
      <trkpt lat="51.0256" lon="4.62463">
        <ele>8</ele>
      </trkpt>
      <trkpt lat="51.02584" lon="4.62778">
        <ele>8</ele>
      </trkpt>
      <trkpt lat="51.02586" lon="4.62798">
        <ele>8</ele>
      </trkpt>
      <trkpt lat="51.02595" lon="4.62837">
        <ele>8</ele>
      </trkpt>
      <trkpt lat="51.0268" lon="4.63036">
        <ele>8</ele>
      </trkpt>
      <trkpt lat="51.02697" lon="4.6307">
        <ele>7</ele>
      </trkpt>
      <trkpt lat="51.02714" lon="4.63091">
        <ele>7</ele>
      </trkpt>
      <trkpt lat="51.02766" lon="4.63144">
        <ele>7</ele>
      </trkpt>
      <trkpt lat="51.02781" lon="4.63162">
        <ele>7</ele>
      </trkpt>
      <trkpt lat="51.02804" lon="4.63199">
        <ele>6</ele>
      </trkpt>
      <trkpt lat="51.02813" lon="4.63218">
        <ele>6</ele>
      </trkpt>
      <trkpt lat="51.02822" lon="4.63244">
        <ele>7</ele>
      </trkpt>
      <trkpt lat="51.02833" lon="4.6329">
        <ele>7</ele>
      </trkpt>
      <trkpt lat="51.02837" lon="4.63316">
        <ele>7</ele>
      </trkpt>
      <trkpt lat="51.02856" lon="4.63642">
        <ele>9</ele>
      </trkpt>
      <trkpt lat="51.02873" lon="4.63766">
        <ele>9</ele>
      </trkpt>
      <trkpt lat="51.02873" lon="4.63782">
        <ele>9</ele>
      </trkpt>
      <trkpt lat="51.0289" lon="4.63886">
        <ele>10</ele>
      </trkpt>
      <trkpt lat="51.02932" lon="4.6415">
        <ele>9</ele>
      </trkpt>
      <trkpt lat="51.02943" lon="4.64191">
        <ele>7</ele>
      </trkpt>
      <trkpt lat="51.02959" lon="4.64236">
        <ele>7</ele>
      </trkpt>
      <trkpt lat="51.02966" lon="4.64249">
        <ele>7</ele>
      </trkpt>
      <trkpt lat="51.03557" lon="4.64829">
        <ele>7</ele>
      </trkpt>
      <trkpt lat="51.03561" lon="4.64837">
        <ele>7</ele>
      </trkpt>
      <trkpt lat="51.0356" lon="4.6485">
        <ele>6</ele>
      </trkpt>
      <trkpt lat="51.03538" lon="4.64937">
        <ele>6</ele>
      </trkpt>
      <trkpt lat="51.0352" lon="4.64987">
        <ele>6</ele>
      </trkpt>
      <trkpt lat="51.03492" lon="4.65063">
        <ele>6</ele>
      </trkpt>
      <trkpt lat="51.03484" lon="4.65065">
        <ele>6</ele>
      </trkpt>
      <trkpt lat="51.03455" lon="4.65048">
        <ele>6</ele>
      </trkpt>
      <trkpt lat="51.03448" lon="4.65046">
        <ele>7</ele>
      </trkpt>
      <trkpt lat="51.03441" lon="4.65047">
        <ele>7</ele>
      </trkpt>
      <trkpt lat="51.03436" lon="4.65059">
        <ele>7</ele>
      </trkpt>
      <trkpt lat="51.03416" lon="4.65121">
        <ele>7</ele>
      </trkpt>
      <trkpt lat="51.03411" lon="4.65129">
        <ele>7</ele>
      </trkpt>
      <trkpt lat="51.03408" lon="4.65131">
        <ele>7</ele>
      </trkpt>
      <trkpt lat="51.03393" lon="4.6513">
        <ele>7</ele>
      </trkpt>
      <trkpt lat="51.03389" lon="4.65132">
        <ele>7</ele>
      </trkpt>
      <trkpt lat="51.03332" lon="4.65286">
        <ele>7</ele>
      </trkpt>
      <trkpt lat="51.0325" lon="4.65517">
        <ele>9</ele>
      </trkpt>
      <trkpt lat="51.03189" lon="4.6568">
        <ele>7</ele>
      </trkpt>
      <trkpt lat="51.03174" lon="4.6574">
        <ele>7</ele>
      </trkpt>
      <trkpt lat="51.03155" lon="4.658">
        <ele>7</ele>
      </trkpt>
      <trkpt lat="51.03151" lon="4.65822">
        <ele>7</ele>
      </trkpt>
      <trkpt lat="51.03168" lon="4.65832">
        <ele>7</ele>
      </trkpt>
      <trkpt lat="51.03165" lon="4.65846">
        <ele>7</ele>
      </trkpt>
      <trkpt lat="51.03154" lon="4.65912">
        <ele>8</ele>
      </trkpt>
      <trkpt lat="51.03143" lon="4.65975">
        <ele>8</ele>
      </trkpt>
      <trkpt lat="51.03134" lon="4.66105">
        <ele>8</ele>
      </trkpt>
      <trkpt lat="51.03128" lon="4.66232">
        <ele>8</ele>
      </trkpt>
      <trkpt lat="51.03126" lon="4.66415">
        <ele>8</ele>
      </trkpt>
      <trkpt lat="51.03158" lon="4.66412">
        <ele>8</ele>
      </trkpt>
      <trkpt lat="51.03176" lon="4.66413">
        <ele>8</ele>
      </trkpt>
      <trkpt lat="51.03176" lon="4.66431">
        <ele>8</ele>
      </trkpt>
      <trkpt lat="51.03187" lon="4.6652">
        <ele>7</ele>
      </trkpt>
      <trkpt lat="51.03194" lon="4.66573">
        <ele>7</ele>
      </trkpt>
      <trkpt lat="51.03202" lon="4.66591">
        <ele>8</ele>
      </trkpt>
      <trkpt lat="51.03231" lon="4.66627">
        <ele>7</ele>
      </trkpt>
      <trkpt lat="51.03329" lon="4.66682">
        <ele>8</ele>
      </trkpt>
      <trkpt lat="51.03301" lon="4.66777">
        <ele>8</ele>
      </trkpt>
      <trkpt lat="51.03232" lon="4.67009">
        <ele>7</ele>
      </trkpt>
      <trkpt lat="51.03083" lon="4.67498">
        <ele>9</ele>
      </trkpt>
      <trkpt lat="51.03062" lon="4.67575">
        <ele>9</ele>
      </trkpt>
      <trkpt lat="51.03055" lon="4.67613">
        <ele>9</ele>
      </trkpt>
      <trkpt lat="51.03037" lon="4.67771">
        <ele>7</ele>
      </trkpt>
      <trkpt lat="51.03036" lon="4.67803">
        <ele>7</ele>
      </trkpt>
      <trkpt lat="51.03065" lon="4.68327">
        <ele>8</ele>
      </trkpt>
      <trkpt lat="51.03072" lon="4.68443">
        <ele>9</ele>
      </trkpt>
      <trkpt lat="51.03058" lon="4.68443">
        <ele>9</ele>
      </trkpt>
      <trkpt lat="51.02895" lon="4.68485">
        <ele>9</ele>
      </trkpt>
      <trkpt lat="51.02576" lon="4.68521">
        <ele>9</ele>
      </trkpt>
      <trkpt lat="51.02423" lon="4.68536">
        <ele>9</ele>
      </trkpt>
      <trkpt lat="51.02415" lon="4.68548">
        <ele>9</ele>
      </trkpt>
      <trkpt lat="51.02431" lon="4.68575">
        <ele>9</ele>
      </trkpt>
      <trkpt lat="51.02451" lon="4.68619">
        <ele>9</ele>
      </trkpt>
      <trkpt lat="51.02441" lon="4.68629">
        <ele>9</ele>
      </trkpt>
      <trkpt lat="51.0238" lon="4.68665">
        <ele>9</ele>
      </trkpt>
      <trkpt lat="51.02329" lon="4.68699">
        <ele>10</ele>
      </trkpt>
      <trkpt lat="51.02301" lon="4.68726">
        <ele>11</ele>
      </trkpt>
      <trkpt lat="51.02251" lon="4.68779">
        <ele>12</ele>
      </trkpt>
      <trkpt lat="51.02236" lon="4.68788">
        <ele>12</ele>
      </trkpt>
      <trkpt lat="51.01897" lon="4.68889">
        <ele>13</ele>
      </trkpt>
      <trkpt lat="51.01894" lon="4.68894">
        <ele>13</ele>
      </trkpt>
      <trkpt lat="51.01886" lon="4.69003">
        <ele>11</ele>
      </trkpt>
      <trkpt lat="51.01873" lon="4.69091">
        <ele>10</ele>
      </trkpt>
      <trkpt lat="51.0187" lon="4.69161">
        <ele>10</ele>
      </trkpt>
      <trkpt lat="51.01869" lon="4.69246">
        <ele>10</ele>
      </trkpt>
      <trkpt lat="51.01841" lon="4.69253">
        <ele>11</ele>
      </trkpt>
      <trkpt lat="51.01817" lon="4.69266">
        <ele>11</ele>
      </trkpt>
      <trkpt lat="51.01799" lon="4.69282">
        <ele>11</ele>
      </trkpt>
      <trkpt lat="51.01743" lon="4.69337">
        <ele>10</ele>
      </trkpt>
      <trkpt lat="51.01723" lon="4.69349">
        <ele>10</ele>
      </trkpt>
      <trkpt lat="51.01711" lon="4.69348">
        <ele>10</ele>
      </trkpt>
      <trkpt lat="51.01695" lon="4.69333">
        <ele>10</ele>
      </trkpt>
      <trkpt lat="51.01659" lon="4.69256">
        <ele>9</ele>
      </trkpt>
      <trkpt lat="51.01653" lon="4.69248">
        <ele>9</ele>
      </trkpt>
      <trkpt lat="51.01638" lon="4.69224">
        <ele>9</ele>
      </trkpt>
      <trkpt lat="51.0163" lon="4.69216">
        <ele>9</ele>
      </trkpt>
      <trkpt lat="51.01625" lon="4.69212">
        <ele>9</ele>
      </trkpt>
      <trkpt lat="51.01597" lon="4.69198">
        <ele>9</ele>
      </trkpt>
      <trkpt lat="51.01297" lon="4.69123">
        <ele>9</ele>
      </trkpt>
      <trkpt lat="51.01275" lon="4.69123">
        <ele>9</ele>
      </trkpt>
      <trkpt lat="51.01248" lon="4.69107">
        <ele>9</ele>
      </trkpt>
      <trkpt lat="51.01223" lon="4.691">
        <ele>9</ele>
      </trkpt>
      <trkpt lat="51.0109" lon="4.69064">
        <ele>10</ele>
      </trkpt>
      <trkpt lat="51.00908" lon="4.69021">
        <ele>11</ele>
      </trkpt>
      <trkpt lat="51.00814" lon="4.69003">
        <ele>10</ele>
      </trkpt>
      <trkpt lat="51.00788" lon="4.69">
        <ele>10</ele>
      </trkpt>
      <trkpt lat="51.00784" lon="4.68954">
        <ele>10</ele>
      </trkpt>
      <trkpt lat="51.00773" lon="4.68826">
        <ele>10</ele>
      </trkpt>
      <trkpt lat="51.00765" lon="4.6876">
        <ele>11</ele>
      </trkpt>
      <trkpt lat="51.00741" lon="4.68635">
        <ele>11</ele>
      </trkpt>
      <trkpt lat="51.00732" lon="4.686">
        <ele>11</ele>
      </trkpt>
      <trkpt lat="51.00721" lon="4.68571">
        <ele>11</ele>
      </trkpt>
      <trkpt lat="51.00664" lon="4.68427">
        <ele>10</ele>
      </trkpt>
      <trkpt lat="51.00696" lon="4.68458">
        <ele>10</ele>
      </trkpt>
      <trkpt lat="51.0071" lon="4.68469">
        <ele>10</ele>
      </trkpt>
      <trkpt lat="51.00723" lon="4.68473">
        <ele>10</ele>
      </trkpt>
      <trkpt lat="51.00744" lon="4.68473">
        <ele>10</ele>
      </trkpt>
      <trkpt lat="51.00772" lon="4.68467">
        <ele>11</ele>
      </trkpt>
      <trkpt lat="51.00788" lon="4.68457">
        <ele>11</ele>
      </trkpt>
      <trkpt lat="51.00821" lon="4.68426">
        <ele>11</ele>
      </trkpt>
      <trkpt lat="51.0086" lon="4.68389">
        <ele>12</ele>
      </trkpt>
      <trkpt lat="51.00891" lon="4.68369">
        <ele>13</ele>
      </trkpt>
      <trkpt lat="51.01009" lon="4.68311">
        <ele>12</ele>
      </trkpt>
      <trkpt lat="51.01013" lon="4.68306">
        <ele>12</ele>
      </trkpt>
      <trkpt lat="51.01014" lon="4.68295">
        <ele>12</ele>
      </trkpt>
      <trkpt lat="51.01007" lon="4.68147">
        <ele>12</ele>
      </trkpt>
      <trkpt lat="51.00999" lon="4.67916">
        <ele>12</ele>
      </trkpt>
      <trkpt lat="51.00972" lon="4.67918">
        <ele>12</ele>
      </trkpt>
      <trkpt lat="51.00944" lon="4.67908">
        <ele>12</ele>
      </trkpt>
      <trkpt lat="51.00934" lon="4.67894">
        <ele>12</ele>
      </trkpt>
      <trkpt lat="51.00923" lon="4.67872">
        <ele>12</ele>
      </trkpt>
      <trkpt lat="51.00906" lon="4.67803">
        <ele>12</ele>
      </trkpt>
      <trkpt lat="51.00863" lon="4.67592">
        <ele>13</ele>
      </trkpt>
      <trkpt lat="51.00858" lon="4.67492">
        <ele>14</ele>
      </trkpt>
      <trkpt lat="51.00852" lon="4.67451">
        <ele>14</ele>
      </trkpt>
      <trkpt lat="51.0084" lon="4.67383">
        <ele>13</ele>
      </trkpt>
      <trkpt lat="51.00834" lon="4.6735">
        <ele>13</ele>
      </trkpt>
      <trkpt lat="51.0079" lon="4.67152">
        <ele>14</ele>
      </trkpt>
      <trkpt lat="51.00756" lon="4.6704">
        <ele>13</ele>
      </trkpt>
      <trkpt lat="51.00724" lon="4.66954">
        <ele>13</ele>
      </trkpt>
      <trkpt lat="51.00648" lon="4.66843">
        <ele>13</ele>
      </trkpt>
      <trkpt lat="51.00572" lon="4.66745">
        <ele>13</ele>
      </trkpt>
      <trkpt lat="51.0052" lon="4.6669">
        <ele>13</ele>
      </trkpt>
      <trkpt lat="51.00501" lon="4.66667">
        <ele>13</ele>
      </trkpt>
      <trkpt lat="51.00484" lon="4.66638">
        <ele>13</ele>
      </trkpt>
      <trkpt lat="51.00467" lon="4.66604">
        <ele>13</ele>
      </trkpt>
      <trkpt lat="51.00455" lon="4.66572">
        <ele>13</ele>
      </trkpt>
      <trkpt lat="51.00446" lon="4.66542">
        <ele>13</ele>
      </trkpt>
      <trkpt lat="51.00443" lon="4.66522">
        <ele>13</ele>
      </trkpt>
      <trkpt lat="51.00446" lon="4.66476">
        <ele>13</ele>
      </trkpt>
      <trkpt lat="51.00443" lon="4.66451">
        <ele>13</ele>
      </trkpt>
      <trkpt lat="51.00452" lon="4.66418">
        <ele>13</ele>
      </trkpt>
      <trkpt lat="51.00478" lon="4.66353">
        <ele>13</ele>
      </trkpt>
      <trkpt lat="51.00628" lon="4.65954">
        <ele>15</ele>
      </trkpt>
      <trkpt lat="51.00765" lon="4.65575">
        <ele>12</ele>
      </trkpt>
      <trkpt lat="51.0076" lon="4.65566">
        <ele>12</ele>
      </trkpt>
      <trkpt lat="51.00748" lon="4.65551">
        <ele>12</ele>
      </trkpt>
      <trkpt lat="51.00717" lon="4.65522">
        <ele>12</ele>
      </trkpt>
      <trkpt lat="51.00702" lon="4.65504">
        <ele>13</ele>
      </trkpt>
      <trkpt lat="51.00695" lon="4.6549">
        <ele>13</ele>
      </trkpt>
      <trkpt lat="51.00655" lon="4.65398">
        <ele>15</ele>
      </trkpt>
      <trkpt lat="51.00634" lon="4.6533">
        <ele>15</ele>
      </trkpt>
      <trkpt lat="51.00626" lon="4.65286">
        <ele>15</ele>
      </trkpt>
      <trkpt lat="51.00604" lon="4.65095">
        <ele>16</ele>
      </trkpt>
      <trkpt lat="51.00594" lon="4.65039">
        <ele>16</ele>
      </trkpt>
      <trkpt lat="51.00574" lon="4.64941">
        <ele>16</ele>
      </trkpt>
      <trkpt lat="51.0049" lon="4.64914">
        <ele>17</ele>
      </trkpt>
      <trkpt lat="51.00328" lon="4.64829">
        <ele>16</ele>
      </trkpt>
      <trkpt lat="51.00188" lon="4.64756">
        <ele>15</ele>
      </trkpt>
      <trkpt lat="51.00139" lon="4.64739">
        <ele>15</ele>
      </trkpt>
      <trkpt lat="51.00141" lon="4.64726">
        <ele>15</ele>
      </trkpt>
      <trkpt lat="51.0011" lon="4.64702">
        <ele>15</ele>
      </trkpt>
      <trkpt lat="51.00056" lon="4.64648">
        <ele>15</ele>
      </trkpt>
      <trkpt lat="51.00033" lon="4.6463">
        <ele>15</ele>
      </trkpt>
      <trkpt lat="50.9995" lon="4.64596">
        <ele>16</ele>
      </trkpt>
      <trkpt lat="50.99931" lon="4.64594">
        <ele>16</ele>
      </trkpt>
      <trkpt lat="50.99914" lon="4.646">
        <ele>16</ele>
      </trkpt>
      <trkpt lat="50.99796" lon="4.64673">
        <ele>16</ele>
      </trkpt>
      <trkpt lat="50.99787" lon="4.64677">
        <ele>16</ele>
      </trkpt>
      <trkpt lat="50.99691" lon="4.64697">
        <ele>16</ele>
      </trkpt>
      <trkpt lat="50.99658" lon="4.64696">
        <ele>16</ele>
      </trkpt>
      <trkpt lat="50.99515" lon="4.64629">
        <ele>14</ele>
      </trkpt>
      <trkpt lat="50.99449" lon="4.64601">
        <ele>14</ele>
      </trkpt>
      <trkpt lat="50.99418" lon="4.64593">
        <ele>14</ele>
      </trkpt>
      <trkpt lat="50.99394" lon="4.64595">
        <ele>14</ele>
      </trkpt>
      <trkpt lat="50.99368" lon="4.646">
        <ele>14</ele>
      </trkpt>
      <trkpt lat="50.9935" lon="4.64612">
        <ele>14</ele>
      </trkpt>
      <trkpt lat="50.99303" lon="4.6462">
        <ele>13</ele>
      </trkpt>
      <trkpt lat="50.9929" lon="4.64785">
        <ele>15</ele>
      </trkpt>
      <trkpt lat="50.99288" lon="4.64814">
        <ele>15</ele>
      </trkpt>
      <trkpt lat="50.99278" lon="4.64878">
        <ele>15</ele>
      </trkpt>
      <trkpt lat="50.99265" lon="4.6499">
        <ele>16</ele>
      </trkpt>
      <trkpt lat="50.99218" lon="4.65285">
        <ele>16</ele>
      </trkpt>
      <trkpt lat="50.9921" lon="4.65314">
        <ele>16</ele>
      </trkpt>
      <trkpt lat="50.99201" lon="4.65365">
        <ele>16</ele>
      </trkpt>
      <trkpt lat="50.99177" lon="4.6554">
        <ele>15</ele>
      </trkpt>
      <trkpt lat="50.99178" lon="4.65557">
        <ele>15</ele>
      </trkpt>
      <trkpt lat="50.99182" lon="4.65628">
        <ele>14</ele>
      </trkpt>
      <trkpt lat="50.99181" lon="4.65648">
        <ele>14</ele>
      </trkpt>
      <trkpt lat="50.99172" lon="4.65672">
        <ele>14</ele>
      </trkpt>
      <trkpt lat="50.9917" lon="4.65689">
        <ele>14</ele>
      </trkpt>
      <trkpt lat="50.99179" lon="4.65729">
        <ele>14</ele>
      </trkpt>
      <trkpt lat="50.99187" lon="4.65748">
        <ele>14</ele>
      </trkpt>
      <trkpt lat="50.9919" lon="4.65752">
        <ele>15</ele>
      </trkpt>
      <trkpt lat="50.99226" lon="4.65759">
        <ele>15</ele>
      </trkpt>
      <trkpt lat="50.9926" lon="4.65773">
        <ele>15</ele>
      </trkpt>
      <trkpt lat="50.99277" lon="4.65792">
        <ele>16</ele>
      </trkpt>
      <trkpt lat="50.99282" lon="4.65817">
        <ele>16</ele>
      </trkpt>
      <trkpt lat="50.99305" lon="4.66043">
        <ele>22</ele>
      </trkpt>
      <trkpt lat="50.99304" lon="4.6606">
        <ele>21</ele>
      </trkpt>
      <trkpt lat="50.99297" lon="4.661">
        <ele>20</ele>
      </trkpt>
      <trkpt lat="50.99296" lon="4.66112">
        <ele>20</ele>
      </trkpt>
      <trkpt lat="50.99296" lon="4.66134">
        <ele>20</ele>
      </trkpt>
      <trkpt lat="50.99302" lon="4.66158">
        <ele>19</ele>
      </trkpt>
      <trkpt lat="50.9931" lon="4.66175">
        <ele>18</ele>
      </trkpt>
      <trkpt lat="50.99338" lon="4.66223">
        <ele>18</ele>
      </trkpt>
      <trkpt lat="50.99416" lon="4.66341">
        <ele>18</ele>
      </trkpt>
      <trkpt lat="50.99447" lon="4.66395">
        <ele>18</ele>
      </trkpt>
      <trkpt lat="50.9946" lon="4.66426">
        <ele>18</ele>
      </trkpt>
      <trkpt lat="50.99505" lon="4.66561">
        <ele>17</ele>
      </trkpt>
      <trkpt lat="50.99512" lon="4.66585">
        <ele>16</ele>
      </trkpt>
      <trkpt lat="50.99522" lon="4.66635">
        <ele>16</ele>
      </trkpt>
      <trkpt lat="50.99524" lon="4.66678">
        <ele>15</ele>
      </trkpt>
      <trkpt lat="50.9952" lon="4.66727">
        <ele>15</ele>
      </trkpt>
      <trkpt lat="50.99505" lon="4.66816">
        <ele>15</ele>
      </trkpt>
      <trkpt lat="50.99462" lon="4.66944">
        <ele>13</ele>
      </trkpt>
      <trkpt lat="50.99447" lon="4.66958">
        <ele>13</ele>
      </trkpt>
      <trkpt lat="50.99422" lon="4.66994">
        <ele>13</ele>
      </trkpt>
      <trkpt lat="50.99404" lon="4.67021">
        <ele>12</ele>
      </trkpt>
      <trkpt lat="50.99371" lon="4.67075">
        <ele>12</ele>
      </trkpt>
      <trkpt lat="50.99325" lon="4.67167">
        <ele>11</ele>
      </trkpt>
      <trkpt lat="50.99294" lon="4.67207">
        <ele>11</ele>
      </trkpt>
      <trkpt lat="50.99247" lon="4.67259">
        <ele>9</ele>
      </trkpt>
      <trkpt lat="50.99226" lon="4.67285">
        <ele>9</ele>
      </trkpt>
      <trkpt lat="50.99191" lon="4.6735">
        <ele>9</ele>
      </trkpt>
      <trkpt lat="50.99149" lon="4.67437">
        <ele>9</ele>
      </trkpt>
      <trkpt lat="50.99143" lon="4.67442">
        <ele>9</ele>
      </trkpt>
      <trkpt lat="50.99131" lon="4.67451">
        <ele>9</ele>
      </trkpt>
      <trkpt lat="50.99087" lon="4.6747">
        <ele>9</ele>
      </trkpt>
      <trkpt lat="50.99058" lon="4.67479">
        <ele>9</ele>
      </trkpt>
      <trkpt lat="50.99008" lon="4.67485">
        <ele>9</ele>
      </trkpt>
      <trkpt lat="50.98988" lon="4.67473">
        <ele>9</ele>
      </trkpt>
      <trkpt lat="50.9898" lon="4.67474">
        <ele>9</ele>
      </trkpt>
      <trkpt lat="50.98973" lon="4.67484">
        <ele>9</ele>
      </trkpt>
      <trkpt lat="50.98964" lon="4.67502">
        <ele>9</ele>
      </trkpt>
      <trkpt lat="50.98958" lon="4.6752">
        <ele>9</ele>
      </trkpt>
      <trkpt lat="50.98942" lon="4.6757">
        <ele>9</ele>
      </trkpt>
      <trkpt lat="50.98918" lon="4.67699">
        <ele>10</ele>
      </trkpt>
      <trkpt lat="50.98912" lon="4.67712">
        <ele>10</ele>
      </trkpt>
      <trkpt lat="50.98886" lon="4.67725">
        <ele>10</ele>
      </trkpt>
      <trkpt lat="50.98854" lon="4.67758">
        <ele>11</ele>
      </trkpt>
      <trkpt lat="50.98819" lon="4.67798">
        <ele>10</ele>
      </trkpt>
      <trkpt lat="50.98622" lon="4.68007">
        <ele>8</ele>
      </trkpt>
      <trkpt lat="50.98597" lon="4.6803">
        <ele>7</ele>
      </trkpt>
      <trkpt lat="50.98548" lon="4.68065">
        <ele>7</ele>
      </trkpt>
      <trkpt lat="50.98517" lon="4.68083">
        <ele>7</ele>
      </trkpt>
      <trkpt lat="50.98485" lon="4.68096">
        <ele>6</ele>
      </trkpt>
      <trkpt lat="50.9841" lon="4.68116">
        <ele>6</ele>
      </trkpt>
      <trkpt lat="50.98336" lon="4.68137">
        <ele>6</ele>
      </trkpt>
      <trkpt lat="50.98318" lon="4.68161">
        <ele>6</ele>
      </trkpt>
      <trkpt lat="50.98306" lon="4.68185">
        <ele>7</ele>
      </trkpt>
      <trkpt lat="50.98286" lon="4.6823">
        <ele>7</ele>
      </trkpt>
      <trkpt lat="50.98187" lon="4.68495">
        <ele>8</ele>
      </trkpt>
      <trkpt lat="50.98175" lon="4.68513">
        <ele>8</ele>
      </trkpt>
      <trkpt lat="50.98154" lon="4.68534">
        <ele>8</ele>
      </trkpt>
      <trkpt lat="50.98149" lon="4.68543">
        <ele>8</ele>
      </trkpt>
      <trkpt lat="50.98144" lon="4.68563">
        <ele>8</ele>
      </trkpt>
      <trkpt lat="50.98128" lon="4.68651">
        <ele>8</ele>
      </trkpt>
      <trkpt lat="50.98125" lon="4.68665">
        <ele>7</ele>
      </trkpt>
      <trkpt lat="50.98113" lon="4.687">
        <ele>7</ele>
      </trkpt>
      <trkpt lat="50.98095" lon="4.68726">
        <ele>7</ele>
      </trkpt>
      <trkpt lat="50.98046" lon="4.68774">
        <ele>6</ele>
      </trkpt>
      <trkpt lat="50.98024" lon="4.68813">
        <ele>6</ele>
      </trkpt>
      <trkpt lat="50.97999" lon="4.68903">
        <ele>7</ele>
      </trkpt>
      <trkpt lat="50.97989" lon="4.68922">
        <ele>8</ele>
      </trkpt>
      <trkpt lat="50.97979" lon="4.68934">
        <ele>8</ele>
      </trkpt>
      <trkpt lat="50.97967" lon="4.68944">
        <ele>8</ele>
      </trkpt>
      <trkpt lat="50.97955" lon="4.68948">
        <ele>8</ele>
      </trkpt>
      <trkpt lat="50.97942" lon="4.68941">
        <ele>7</ele>
      </trkpt>
      <trkpt lat="50.97918" lon="4.68923">
        <ele>7</ele>
      </trkpt>
      <trkpt lat="50.97881" lon="4.68904">
        <ele>7</ele>
      </trkpt>
      <trkpt lat="50.97844" lon="4.68904">
        <ele>7</ele>
      </trkpt>
      <trkpt lat="50.97809" lon="4.68892">
        <ele>7</ele>
      </trkpt>
      <trkpt lat="50.9779" lon="4.68892">
        <ele>7</ele>
      </trkpt>
      <trkpt lat="50.97743" lon="4.68917">
        <ele>7</ele>
      </trkpt>
      <trkpt lat="50.97724" lon="4.68931">
        <ele>7</ele>
      </trkpt>
      <trkpt lat="50.97717" lon="4.68941">
        <ele>7</ele>
      </trkpt>
      <trkpt lat="50.97711" lon="4.68952">
        <ele>7</ele>
      </trkpt>
      <trkpt lat="50.97669" lon="4.69064">
        <ele>7</ele>
      </trkpt>
      <trkpt lat="50.97635" lon="4.69116">
        <ele>7</ele>
      </trkpt>
      <trkpt lat="50.97608" lon="4.69152">
        <ele>7</ele>
      </trkpt>
      <trkpt lat="50.97587" lon="4.69171">
        <ele>6</ele>
      </trkpt>
      <trkpt lat="50.97565" lon="4.69184">
        <ele>6</ele>
      </trkpt>
      <trkpt lat="50.97544" lon="4.6919">
        <ele>6</ele>
      </trkpt>
      <trkpt lat="50.97532" lon="4.69185">
        <ele>6</ele>
      </trkpt>
      <trkpt lat="50.97512" lon="4.69171">
        <ele>7</ele>
      </trkpt>
      <trkpt lat="50.97494" lon="4.69168">
        <ele>7</ele>
      </trkpt>
      <trkpt lat="50.97401" lon="4.69188">
        <ele>8</ele>
      </trkpt>
      <trkpt lat="50.97314" lon="4.69208">
        <ele>8</ele>
      </trkpt>
      <trkpt lat="50.97207" lon="4.69243">
        <ele>9</ele>
      </trkpt>
      <trkpt lat="50.97159" lon="4.69262">
        <ele>10</ele>
      </trkpt>
      <trkpt lat="50.97131" lon="4.6928">
        <ele>10</ele>
      </trkpt>
      <trkpt lat="50.97095" lon="4.69311">
        <ele>11</ele>
      </trkpt>
      <trkpt lat="50.97087" lon="4.69286">
        <ele>10</ele>
      </trkpt>
      <trkpt lat="50.97071" lon="4.6923">
        <ele>10</ele>
      </trkpt>
      <trkpt lat="50.97035" lon="4.69193">
        <ele>10</ele>
      </trkpt>
      <trkpt lat="50.97019" lon="4.69172">
        <ele>10</ele>
      </trkpt>
      <trkpt lat="50.97007" lon="4.69181">
        <ele>10</ele>
      </trkpt>
      <trkpt lat="50.96994" lon="4.69154">
        <ele>9</ele>
      </trkpt>
      <trkpt lat="50.96982" lon="4.6913">
        <ele>9</ele>
      </trkpt>
      <trkpt lat="50.96978" lon="4.69118">
        <ele>9</ele>
      </trkpt>
      <trkpt lat="50.96959" lon="4.69117">
        <ele>9</ele>
      </trkpt>
      <trkpt lat="50.96952" lon="4.69125">
        <ele>9</ele>
      </trkpt>
      <trkpt lat="50.9694" lon="4.6913">
        <ele>9</ele>
      </trkpt>
      <trkpt lat="50.96935" lon="4.6914">
        <ele>9</ele>
      </trkpt>
      <trkpt lat="50.96916" lon="4.69137">
        <ele>9</ele>
      </trkpt>
      <trkpt lat="50.96916" lon="4.69132">
        <ele>9</ele>
      </trkpt>
      <trkpt lat="50.96911" lon="4.69125">
        <ele>9</ele>
      </trkpt>
      <trkpt lat="50.96893" lon="4.69117">
        <ele>9</ele>
      </trkpt>
      <trkpt lat="50.96779" lon="4.69236">
        <ele>9</ele>
      </trkpt>
      <trkpt lat="50.96654" lon="4.69365">
        <ele>8</ele>
      </trkpt>
      <trkpt lat="50.96632" lon="4.69339">
        <ele>8</ele>
      </trkpt>
      <trkpt lat="50.96605" lon="4.69282">
        <ele>8</ele>
      </trkpt>
      <trkpt lat="50.96589" lon="4.69258">
        <ele>8</ele>
      </trkpt>
      <trkpt lat="50.96579" lon="4.69252">
        <ele>8</ele>
      </trkpt>
      <trkpt lat="50.9653" lon="4.69236">
        <ele>8</ele>
      </trkpt>
      <trkpt lat="50.9649" lon="4.69235">
        <ele>8</ele>
      </trkpt>
      <trkpt lat="50.96462" lon="4.6923">
        <ele>8</ele>
      </trkpt>
      <trkpt lat="50.96442" lon="4.69224">
        <ele>8</ele>
      </trkpt>
      <trkpt lat="50.96433" lon="4.69219">
        <ele>8</ele>
      </trkpt>
      <trkpt lat="50.96421" lon="4.69202">
        <ele>8</ele>
      </trkpt>
      <trkpt lat="50.96411" lon="4.69172">
        <ele>8</ele>
      </trkpt>
      <trkpt lat="50.96398" lon="4.6915">
        <ele>8</ele>
      </trkpt>
      <trkpt lat="50.96374" lon="4.69127">
        <ele>8</ele>
      </trkpt>
      <trkpt lat="50.96328" lon="4.69101">
        <ele>8</ele>
      </trkpt>
      <trkpt lat="50.96287" lon="4.69102">
        <ele>8</ele>
      </trkpt>
      <trkpt lat="50.96228" lon="4.69095">
        <ele>9</ele>
      </trkpt>
      <trkpt lat="50.96217" lon="4.69097">
        <ele>9</ele>
      </trkpt>
      <trkpt lat="50.96159" lon="4.69124">
        <ele>8</ele>
      </trkpt>
      <trkpt lat="50.96067" lon="4.69156">
        <ele>8</ele>
      </trkpt>
      <trkpt lat="50.96046" lon="4.6917">
        <ele>8</ele>
      </trkpt>
      <trkpt lat="50.96036" lon="4.69174">
        <ele>8</ele>
      </trkpt>
      <trkpt lat="50.96029" lon="4.69174">
        <ele>8</ele>
      </trkpt>
      <trkpt lat="50.96017" lon="4.69171">
        <ele>8</ele>
      </trkpt>
      <trkpt lat="50.95924" lon="4.69142">
        <ele>10</ele>
      </trkpt>
      <trkpt lat="50.95907" lon="4.69132">
        <ele>10</ele>
      </trkpt>
      <trkpt lat="50.95865" lon="4.69203">
        <ele>9</ele>
      </trkpt>
      <trkpt lat="50.95851" lon="4.69224">
        <ele>9</ele>
      </trkpt>
      <trkpt lat="50.9577" lon="4.69307">
        <ele>9</ele>
      </trkpt>
      <trkpt lat="50.95763" lon="4.69311">
        <ele>8</ele>
      </trkpt>
      <trkpt lat="50.95753" lon="4.6931">
        <ele>8</ele>
      </trkpt>
      <trkpt lat="50.9574" lon="4.69299">
        <ele>8</ele>
      </trkpt>
      <trkpt lat="50.95714" lon="4.69243">
        <ele>8</ele>
      </trkpt>
      <trkpt lat="50.95706" lon="4.69229">
        <ele>8</ele>
      </trkpt>
      <trkpt lat="50.95698" lon="4.69221">
        <ele>8</ele>
      </trkpt>
      <trkpt lat="50.9569" lon="4.69221">
        <ele>8</ele>
      </trkpt>
      <trkpt lat="50.95682" lon="4.69223">
        <ele>8</ele>
      </trkpt>
      <trkpt lat="50.95637" lon="4.69252">
        <ele>8</ele>
      </trkpt>
      <trkpt lat="50.95628" lon="4.69266">
        <ele>8</ele>
      </trkpt>
      <trkpt lat="50.9553" lon="4.69481">
        <ele>8</ele>
      </trkpt>
      <trkpt lat="50.95517" lon="4.69502">
        <ele>8</ele>
      </trkpt>
      <trkpt lat="50.95433" lon="4.69611">
        <ele>8</ele>
      </trkpt>
      <trkpt lat="50.95414" lon="4.6963">
        <ele>9</ele>
      </trkpt>
      <trkpt lat="50.95395" lon="4.69641">
        <ele>9</ele>
      </trkpt>
      <trkpt lat="50.95313" lon="4.69669">
        <ele>9</ele>
      </trkpt>
      <trkpt lat="50.95304" lon="4.69671">
        <ele>9</ele>
      </trkpt>
      <trkpt lat="50.95283" lon="4.6967">
        <ele>9</ele>
      </trkpt>
      <trkpt lat="50.95253" lon="4.69659">
        <ele>9</ele>
      </trkpt>
      <trkpt lat="50.95237" lon="4.69657">
        <ele>9</ele>
      </trkpt>
      <trkpt lat="50.9523" lon="4.69659">
        <ele>9</ele>
      </trkpt>
      <trkpt lat="50.95217" lon="4.69668">
        <ele>9</ele>
      </trkpt>
      <trkpt lat="50.95199" lon="4.69686">
        <ele>9</ele>
      </trkpt>
      <trkpt lat="50.95116" lon="4.69781">
        <ele>9</ele>
      </trkpt>
      <trkpt lat="50.95098" lon="4.69808">
        <ele>9</ele>
      </trkpt>
      <trkpt lat="50.95036" lon="4.69918">
        <ele>9</ele>
      </trkpt>
      <trkpt lat="50.9502" lon="4.69943">
        <ele>9</ele>
      </trkpt>
      <trkpt lat="50.94913" lon="4.70064">
        <ele>9</ele>
      </trkpt>
      <trkpt lat="50.9487" lon="4.70105">
        <ele>9</ele>
      </trkpt>
      <trkpt lat="50.94853" lon="4.70125">
        <ele>9</ele>
      </trkpt>
      <trkpt lat="50.94822" lon="4.70172">
        <ele>9</ele>
      </trkpt>
      <trkpt lat="50.94815" lon="4.70181">
        <ele>9</ele>
      </trkpt>
      <trkpt lat="50.94789" lon="4.70204">
        <ele>9</ele>
      </trkpt>
      <trkpt lat="50.9476" lon="4.70226">
        <ele>10</ele>
      </trkpt>
      <trkpt lat="50.94753" lon="4.70206">
        <ele>10</ele>
      </trkpt>
      <trkpt lat="50.94741" lon="4.70183">
        <ele>10</ele>
      </trkpt>
      <trkpt lat="50.94446" lon="4.69645">
        <ele>11</ele>
      </trkpt>
      <trkpt lat="50.94447" lon="4.6963">
        <ele>11</ele>
      </trkpt>
      <trkpt lat="50.94442" lon="4.69535">
        <ele>11</ele>
      </trkpt>
      <trkpt lat="50.94441" lon="4.69495">
        <ele>11</ele>
      </trkpt>
      <trkpt lat="50.94438" lon="4.69481">
        <ele>11</ele>
      </trkpt>
      <trkpt lat="50.9441" lon="4.69426">
        <ele>12</ele>
      </trkpt>
      <trkpt lat="50.94371" lon="4.69361">
        <ele>12</ele>
      </trkpt>
      <trkpt lat="50.94387" lon="4.69305">
        <ele>12</ele>
      </trkpt>
      <trkpt lat="50.94409" lon="4.69239">
        <ele>12</ele>
      </trkpt>
      <trkpt lat="50.94433" lon="4.69183">
        <ele>11</ele>
      </trkpt>
      <trkpt lat="50.94442" lon="4.69162">
        <ele>11</ele>
      </trkpt>
      <trkpt lat="50.94451" lon="4.69134">
        <ele>12</ele>
      </trkpt>
      <trkpt lat="50.94501" lon="4.68968">
        <ele>12</ele>
      </trkpt>
      <trkpt lat="50.94515" lon="4.68907">
        <ele>12</ele>
      </trkpt>
      <trkpt lat="50.94546" lon="4.68821">
        <ele>11</ele>
      </trkpt>
      <trkpt lat="50.94566" lon="4.68783">
        <ele>11</ele>
      </trkpt>
      <trkpt lat="50.94602" lon="4.68735">
        <ele>12</ele>
      </trkpt>
      <trkpt lat="50.9461" lon="4.68718">
        <ele>12</ele>
      </trkpt>
      <trkpt lat="50.94622" lon="4.6866">
        <ele>11</ele>
      </trkpt>
      <trkpt lat="50.94602" lon="4.68651">
        <ele>11</ele>
      </trkpt>
      <trkpt lat="50.94563" lon="4.68648">
        <ele>11</ele>
      </trkpt>
      <trkpt lat="50.94545" lon="4.68638">
        <ele>11</ele>
      </trkpt>
      <trkpt lat="50.94533" lon="4.68626">
        <ele>11</ele>
      </trkpt>
      <trkpt lat="50.94522" lon="4.68604">
        <ele>11</ele>
      </trkpt>
      <trkpt lat="50.94514" lon="4.68562">
        <ele>12</ele>
      </trkpt>
      <trkpt lat="50.94505" lon="4.68484">
        <ele>12</ele>
      </trkpt>
      <trkpt lat="50.94493" lon="4.68433">
        <ele>12</ele>
      </trkpt>
      <trkpt lat="50.94489" lon="4.68409">
        <ele>12</ele>
      </trkpt>
      <trkpt lat="50.94478" lon="4.68316">
        <ele>12</ele>
      </trkpt>
      <trkpt lat="50.94455" lon="4.68205">
        <ele>12</ele>
      </trkpt>
      <trkpt lat="50.94455" lon="4.68192">
        <ele>12</ele>
      </trkpt>
      <trkpt lat="50.94452" lon="4.68168">
        <ele>12</ele>
      </trkpt>
      <trkpt lat="50.94437" lon="4.68116">
        <ele>12</ele>
      </trkpt>
      <trkpt lat="50.94425" lon="4.68074">
        <ele>13</ele>
      </trkpt>
      <trkpt lat="50.94417" lon="4.68003">
        <ele>13</ele>
      </trkpt>
      <trkpt lat="50.94419" lon="4.67956">
        <ele>12</ele>
      </trkpt>
      <trkpt lat="50.94427" lon="4.67934">
        <ele>12</ele>
      </trkpt>
      <trkpt lat="50.9444" lon="4.67917">
        <ele>12</ele>
      </trkpt>
      <trkpt lat="50.94447" lon="4.67905">
        <ele>12</ele>
      </trkpt>
      <trkpt lat="50.94451" lon="4.67892">
        <ele>12</ele>
      </trkpt>
      <trkpt lat="50.94451" lon="4.67864">
        <ele>12</ele>
      </trkpt>
      <trkpt lat="50.94449" lon="4.67848">
        <ele>12</ele>
      </trkpt>
      <trkpt lat="50.94438" lon="4.67803">
        <ele>12</ele>
      </trkpt>
      <trkpt lat="50.94435" lon="4.67783">
        <ele>12</ele>
      </trkpt>
      <trkpt lat="50.94432" lon="4.67764">
        <ele>11</ele>
      </trkpt>
      <trkpt lat="50.94432" lon="4.67741">
        <ele>11</ele>
      </trkpt>
      <trkpt lat="50.94447" lon="4.67584">
        <ele>12</ele>
      </trkpt>
      <trkpt lat="50.94448" lon="4.67562">
        <ele>12</ele>
      </trkpt>
      <trkpt lat="50.94447" lon="4.67541">
        <ele>12</ele>
      </trkpt>
      <trkpt lat="50.94441" lon="4.67501">
        <ele>12</ele>
      </trkpt>
      <trkpt lat="50.94404" lon="4.67405">
        <ele>13</ele>
      </trkpt>
      <trkpt lat="50.94402" lon="4.67389">
        <ele>13</ele>
      </trkpt>
      <trkpt lat="50.94404" lon="4.67375">
        <ele>13</ele>
      </trkpt>
      <trkpt lat="50.94427" lon="4.67295">
        <ele>12</ele>
      </trkpt>
      <trkpt lat="50.94436" lon="4.67282">
        <ele>12</ele>
      </trkpt>
      <trkpt lat="50.9454" lon="4.67178">
        <ele>13</ele>
      </trkpt>
      <trkpt lat="50.94552" lon="4.67168">
        <ele>13</ele>
      </trkpt>
      <trkpt lat="50.94567" lon="4.67163">
        <ele>13</ele>
      </trkpt>
      <trkpt lat="50.94579" lon="4.67165">
        <ele>13</ele>
      </trkpt>
      <trkpt lat="50.9459" lon="4.67169">
        <ele>13</ele>
      </trkpt>
      <trkpt lat="50.94601" lon="4.6717">
        <ele>13</ele>
      </trkpt>
      <trkpt lat="50.94607" lon="4.67167">
        <ele>13</ele>
      </trkpt>
      <trkpt lat="50.94611" lon="4.67156">
        <ele>13</ele>
      </trkpt>
      <trkpt lat="50.94612" lon="4.67134">
        <ele>12</ele>
      </trkpt>
      <trkpt lat="50.94607" lon="4.67044">
        <ele>13</ele>
      </trkpt>
      <trkpt lat="50.94562" lon="4.6687">
        <ele>13</ele>
      </trkpt>
      <trkpt lat="50.94516" lon="4.66696">
        <ele>12</ele>
      </trkpt>
      <trkpt lat="50.94487" lon="4.66614">
        <ele>12</ele>
      </trkpt>
      <trkpt lat="50.944" lon="4.66417">
        <ele>14</ele>
      </trkpt>
      <trkpt lat="50.94396" lon="4.66406">
        <ele>14</ele>
      </trkpt>
      <trkpt lat="50.94385" lon="4.66358">
        <ele>14</ele>
      </trkpt>
      <trkpt lat="50.94384" lon="4.66313">
        <ele>14</ele>
      </trkpt>
      <trkpt lat="50.94417" lon="4.66024">
        <ele>14</ele>
      </trkpt>
      <trkpt lat="50.9443" lon="4.65921">
        <ele>14</ele>
      </trkpt>
      <trkpt lat="50.94419" lon="4.65914">
        <ele>14</ele>
      </trkpt>
      <trkpt lat="50.94437" lon="4.65883">
        <ele>14</ele>
      </trkpt>
      <trkpt lat="50.9445" lon="4.65853">
        <ele>14</ele>
      </trkpt>
      <trkpt lat="50.94457" lon="4.65821">
        <ele>14</ele>
      </trkpt>
      <trkpt lat="50.94483" lon="4.65667">
        <ele>14</ele>
      </trkpt>
      <trkpt lat="50.94536" lon="4.65376">
        <ele>13</ele>
      </trkpt>
      <trkpt lat="50.94678" lon="4.64625">
        <ele>14</ele>
      </trkpt>
      <trkpt lat="50.94724" lon="4.64368">
        <ele>13</ele>
      </trkpt>
      <trkpt lat="50.94725" lon="4.64364">
        <ele>13</ele>
      </trkpt>
      <trkpt lat="50.94688" lon="4.64348">
        <ele>14</ele>
      </trkpt>
      <trkpt lat="50.94684" lon="4.64343">
        <ele>14</ele>
      </trkpt>
      <trkpt lat="50.94591" lon="4.64425">
        <ele>15</ele>
      </trkpt>
      <trkpt lat="50.94584" lon="4.64401">
        <ele>15</ele>
      </trkpt>
      <trkpt lat="50.94544" lon="4.64269">
        <ele>15</ele>
      </trkpt>
      <trkpt lat="50.94547" lon="4.64267">
        <ele>15</ele>
      </trkpt>
      <trkpt lat="50.94529" lon="4.64219">
        <ele>15</ele>
      </trkpt>
      <trkpt lat="50.94513" lon="4.64182">
        <ele>15</ele>
      </trkpt>
      <trkpt lat="50.94468" lon="4.64094">
        <ele>14</ele>
      </trkpt>
      <trkpt lat="50.94436" lon="4.64022">
        <ele>14</ele>
      </trkpt>
      <trkpt lat="50.9446" lon="4.63982">
        <ele>13</ele>
      </trkpt>
      <trkpt lat="50.94543" lon="4.63843">
        <ele>12</ele>
      </trkpt>
      <trkpt lat="50.94549" lon="4.63828">
        <ele>12</ele>
      </trkpt>
      <trkpt lat="50.94553" lon="4.63814">
        <ele>12</ele>
      </trkpt>
      <trkpt lat="50.94557" lon="4.63781">
        <ele>13</ele>
      </trkpt>
      <trkpt lat="50.94566" lon="4.63643">
        <ele>13</ele>
      </trkpt>
      <trkpt lat="50.94568" lon="4.63617">
        <ele>13</ele>
      </trkpt>
      <trkpt lat="50.94573" lon="4.63584">
        <ele>13</ele>
      </trkpt>
      <trkpt lat="50.94588" lon="4.63528">
        <ele>13</ele>
      </trkpt>
      <trkpt lat="50.94608" lon="4.63478">
        <ele>13</ele>
      </trkpt>
      <trkpt lat="50.94615" lon="4.63454">
        <ele>12</ele>
      </trkpt>
      <trkpt lat="50.94623" lon="4.63325">
        <ele>12</ele>
      </trkpt>
      <trkpt lat="50.94623" lon="4.63264">
        <ele>13</ele>
      </trkpt>
      <trkpt lat="50.94625" lon="4.63248">
        <ele>13</ele>
      </trkpt>
      <trkpt lat="50.94636" lon="4.63168">
        <ele>13</ele>
      </trkpt>
      <trkpt lat="50.9465" lon="4.63093">
        <ele>14</ele>
      </trkpt>
      <trkpt lat="50.94655" lon="4.63013">
        <ele>14</ele>
      </trkpt>
      <trkpt lat="50.94658" lon="4.6287">
        <ele>12</ele>
      </trkpt>
      <trkpt lat="50.94656" lon="4.62823">
        <ele>13</ele>
      </trkpt>
      <trkpt lat="50.94647" lon="4.62711">
        <ele>14</ele>
      </trkpt>
      <trkpt lat="50.94643" lon="4.62628">
        <ele>13</ele>
      </trkpt>
      <trkpt lat="50.94637" lon="4.6261">
        <ele>13</ele>
      </trkpt>
      <trkpt lat="50.94428" lon="4.62626">
        <ele>15</ele>
      </trkpt>
      <trkpt lat="50.94296" lon="4.6263">
        <ele>18</ele>
      </trkpt>
      <trkpt lat="50.94285" lon="4.62633">
        <ele>18</ele>
      </trkpt>
      <trkpt lat="50.94014" lon="4.62627">
        <ele>15</ele>
      </trkpt>
      <trkpt lat="50.93849" lon="4.62632">
        <ele>15</ele>
      </trkpt>
      <trkpt lat="50.93775" lon="4.62629">
        <ele>14</ele>
      </trkpt>
      <trkpt lat="50.9365" lon="4.62631">
        <ele>15</ele>
      </trkpt>
      <trkpt lat="50.93497" lon="4.62634">
        <ele>16</ele>
      </trkpt>
      <trkpt lat="50.93456" lon="4.62637">
        <ele>16</ele>
      </trkpt>
      <trkpt lat="50.93449" lon="4.62634">
        <ele>16</ele>
      </trkpt>
      <trkpt lat="50.93438" lon="4.62622">
        <ele>16</ele>
      </trkpt>
      <trkpt lat="50.93423" lon="4.62645">
        <ele>16</ele>
      </trkpt>
      <trkpt lat="50.93411" lon="4.6262">
        <ele>17</ele>
      </trkpt>
      <trkpt lat="50.93408" lon="4.62606">
        <ele>17</ele>
      </trkpt>
      <trkpt lat="50.93388" lon="4.62426">
        <ele>16</ele>
      </trkpt>
      <trkpt lat="50.93368" lon="4.62335">
        <ele>16</ele>
      </trkpt>
      <trkpt lat="50.93358" lon="4.62293">
        <ele>16</ele>
      </trkpt>
      <trkpt lat="50.9332" lon="4.62296">
        <ele>16</ele>
      </trkpt>
      <trkpt lat="50.93239" lon="4.62274">
        <ele>16</ele>
      </trkpt>
      <trkpt lat="50.93227" lon="4.62277">
        <ele>16</ele>
      </trkpt>
      <trkpt lat="50.93107" lon="4.62336">
        <ele>16</ele>
      </trkpt>
      <trkpt lat="50.93064" lon="4.62348">
        <ele>16</ele>
      </trkpt>
      <trkpt lat="50.92912" lon="4.62379">
        <ele>16</ele>
      </trkpt>
      <trkpt lat="50.92885" lon="4.6238">
        <ele>16</ele>
      </trkpt>
      <trkpt lat="50.9281" lon="4.62376">
        <ele>17</ele>
      </trkpt>
      <trkpt lat="50.92706" lon="4.62393">
        <ele>17</ele>
      </trkpt>
      <trkpt lat="50.92682" lon="4.6239">
        <ele>18</ele>
      </trkpt>
      <trkpt lat="50.92654" lon="4.62382">
        <ele>18</ele>
      </trkpt>
      <trkpt lat="50.9254" lon="4.62348">
        <ele>18</ele>
      </trkpt>
      <trkpt lat="50.92524" lon="4.62349">
        <ele>18</ele>
      </trkpt>
      <trkpt lat="50.92353" lon="4.62417">
        <ele>17</ele>
      </trkpt>
      <trkpt lat="50.92132" lon="4.62514">
        <ele>19</ele>
      </trkpt>
      <trkpt lat="50.91916" lon="4.62608">
        <ele>19</ele>
      </trkpt>
      <trkpt lat="50.91622" lon="4.6273">
        <ele>20</ele>
      </trkpt>
      <trkpt lat="50.91575" lon="4.62748">
        <ele>23</ele>
      </trkpt>
      <trkpt lat="50.91525" lon="4.62756">
        <ele>24</ele>
      </trkpt>
      <trkpt lat="50.91472" lon="4.62762">
        <ele>26</ele>
      </trkpt>
      <trkpt lat="50.91417" lon="4.62774">
        <ele>25</ele>
      </trkpt>
      <trkpt lat="50.91413" lon="4.62772">
        <ele>25</ele>
      </trkpt>
      <trkpt lat="50.91408" lon="4.62762">
        <ele>25</ele>
      </trkpt>
      <trkpt lat="50.91399" lon="4.62725">
        <ele>23</ele>
      </trkpt>
      <trkpt lat="50.91396" lon="4.62717">
        <ele>22</ele>
      </trkpt>
      <trkpt lat="50.91391" lon="4.62711">
        <ele>22</ele>
      </trkpt>
      <trkpt lat="50.91383" lon="4.62706">
        <ele>22</ele>
      </trkpt>
      <trkpt lat="50.91306" lon="4.62689">
        <ele>22</ele>
      </trkpt>
      <trkpt lat="50.91292" lon="4.62688">
        <ele>22</ele>
      </trkpt>
      <trkpt lat="50.91278" lon="4.62693">
        <ele>23</ele>
      </trkpt>
      <trkpt lat="50.91239" lon="4.62717">
        <ele>24</ele>
      </trkpt>
      <trkpt lat="50.91212" lon="4.62735">
        <ele>24</ele>
      </trkpt>
      <trkpt lat="50.912" lon="4.62746">
        <ele>23</ele>
      </trkpt>
      <trkpt lat="50.91183" lon="4.62754">
        <ele>23</ele>
      </trkpt>
      <trkpt lat="50.91141" lon="4.6275">
        <ele>23</ele>
      </trkpt>
      <trkpt lat="50.91109" lon="4.62749">
        <ele>23</ele>
      </trkpt>
      <trkpt lat="50.90889" lon="4.62813">
        <ele>25</ele>
      </trkpt>
      <trkpt lat="50.90856" lon="4.62813">
        <ele>25</ele>
      </trkpt>
      <trkpt lat="50.90742" lon="4.62789">
        <ele>26</ele>
      </trkpt>
      <trkpt lat="50.90729" lon="4.62781">
        <ele>26</ele>
      </trkpt>
      <trkpt lat="50.90699" lon="4.62759">
        <ele>26</ele>
      </trkpt>
      <trkpt lat="50.90649" lon="4.62705">
        <ele>26</ele>
      </trkpt>
      <trkpt lat="50.90633" lon="4.62693">
        <ele>26</ele>
      </trkpt>
      <trkpt lat="50.90605" lon="4.62688">
        <ele>26</ele>
      </trkpt>
      <trkpt lat="50.90573" lon="4.62692">
        <ele>26</ele>
      </trkpt>
      <trkpt lat="50.90527" lon="4.62704">
        <ele>26</ele>
      </trkpt>
      <trkpt lat="50.90479" lon="4.62717">
        <ele>26</ele>
      </trkpt>
      <trkpt lat="50.9046" lon="4.62725">
        <ele>26</ele>
      </trkpt>
      <trkpt lat="50.90456" lon="4.62695">
        <ele>26</ele>
      </trkpt>
      <trkpt lat="50.90414" lon="4.62487">
        <ele>27</ele>
      </trkpt>
      <trkpt lat="50.90397" lon="4.62389">
        <ele>26</ele>
      </trkpt>
      <trkpt lat="50.90358" lon="4.62141">
        <ele>28</ele>
      </trkpt>
      <trkpt lat="50.90307" lon="4.6196">
        <ele>30</ele>
      </trkpt>
      <trkpt lat="50.90316" lon="4.61954">
        <ele>30</ele>
      </trkpt>
      <trkpt lat="50.90307" lon="4.6196">
        <ele>30</ele>
      </trkpt>
      <trkpt lat="50.90266" lon="4.61798">
        <ele>30</ele>
      </trkpt>
      <trkpt lat="50.90235" lon="4.6164">
        <ele>30</ele>
      </trkpt>
      <trkpt lat="50.90212" lon="4.61539">
        <ele>29</ele>
      </trkpt>
      <trkpt lat="50.90207" lon="4.61526">
        <ele>29</ele>
      </trkpt>
      <trkpt lat="50.90193" lon="4.61503">
        <ele>29</ele>
      </trkpt>
      <trkpt lat="50.90182" lon="4.61492">
        <ele>29</ele>
      </trkpt>
      <trkpt lat="50.90165" lon="4.61485">
        <ele>30</ele>
      </trkpt>
      <trkpt lat="50.89965" lon="4.61457">
        <ele>30</ele>
      </trkpt>
      <trkpt lat="50.89939" lon="4.61388">
        <ele>30</ele>
      </trkpt>
      <trkpt lat="50.89936" lon="4.61379">
        <ele>30</ele>
      </trkpt>
      <trkpt lat="50.89932" lon="4.61347">
        <ele>30</ele>
      </trkpt>
      <trkpt lat="50.89916" lon="4.61213">
        <ele>30</ele>
      </trkpt>
      <trkpt lat="50.89914" lon="4.61187">
        <ele>30</ele>
      </trkpt>
      <trkpt lat="50.89912" lon="4.61118">
        <ele>29</ele>
      </trkpt>
      <trkpt lat="50.89914" lon="4.61029">
        <ele>28</ele>
      </trkpt>
      <trkpt lat="50.89919" lon="4.60954">
        <ele>27</ele>
      </trkpt>
      <trkpt lat="50.89921" lon="4.60932">
        <ele>27</ele>
      </trkpt>
      <trkpt lat="50.89935" lon="4.6085">
        <ele>27</ele>
      </trkpt>
      <trkpt lat="50.89939" lon="4.60845">
        <ele>27</ele>
      </trkpt>
      <trkpt lat="50.89965" lon="4.60726">
        <ele>29</ele>
      </trkpt>
      <trkpt lat="50.90064" lon="4.60254">
        <ele>27</ele>
      </trkpt>
      <trkpt lat="50.90064" lon="4.60238">
        <ele>27</ele>
      </trkpt>
      <trkpt lat="50.90071" lon="4.60213">
        <ele>27</ele>
      </trkpt>
      <trkpt lat="50.90081" lon="4.60186">
        <ele>27</ele>
      </trkpt>
      <trkpt lat="50.90075" lon="4.6018">
        <ele>27</ele>
      </trkpt>
      <trkpt lat="50.90072" lon="4.60173">
        <ele>27</ele>
      </trkpt>
      <trkpt lat="50.90067" lon="4.6013">
        <ele>27</ele>
      </trkpt>
      <trkpt lat="50.90064" lon="4.60094">
        <ele>27</ele>
      </trkpt>
      <trkpt lat="50.90042" lon="4.59669">
        <ele>26</ele>
      </trkpt>
      <trkpt lat="50.90027" lon="4.59541">
        <ele>26</ele>
      </trkpt>
      <trkpt lat="50.90007" lon="4.59493">
        <ele>26</ele>
      </trkpt>
      <trkpt lat="50.89982" lon="4.59464">
        <ele>26</ele>
      </trkpt>
      <trkpt lat="50.89967" lon="4.59439">
        <ele>27</ele>
      </trkpt>
      <trkpt lat="50.89954" lon="4.59413">
        <ele>26</ele>
      </trkpt>
      <trkpt lat="50.89935" lon="4.59364">
        <ele>27</ele>
      </trkpt>
      <trkpt lat="50.89915" lon="4.59301">
        <ele>28</ele>
      </trkpt>
      <trkpt lat="50.89904" lon="4.59275">
        <ele>28</ele>
      </trkpt>
      <trkpt lat="50.89891" lon="4.59253">
        <ele>28</ele>
      </trkpt>
      <trkpt lat="50.89875" lon="4.59235">
        <ele>29</ele>
      </trkpt>
      <trkpt lat="50.89867" lon="4.59225">
        <ele>29</ele>
      </trkpt>
      <trkpt lat="50.89798" lon="4.59167">
        <ele>30</ele>
      </trkpt>
      <trkpt lat="50.89784" lon="4.59152">
        <ele>30</ele>
      </trkpt>
      <trkpt lat="50.89778" lon="4.59132">
        <ele>30</ele>
      </trkpt>
      <trkpt lat="50.89774" lon="4.59101">
        <ele>30</ele>
      </trkpt>
      <trkpt lat="50.89779" lon="4.59023">
        <ele>31</ele>
      </trkpt>
      <trkpt lat="50.89778" lon="4.59005">
        <ele>31</ele>
      </trkpt>
      <trkpt lat="50.89679" lon="4.5858">
        <ele>32</ele>
      </trkpt>
      <trkpt lat="50.89669" lon="4.58497">
        <ele>32</ele>
      </trkpt>
      <trkpt lat="50.89669" lon="4.58471">
        <ele>32</ele>
      </trkpt>
      <trkpt lat="50.89672" lon="4.58465">
        <ele>32</ele>
      </trkpt>
      <trkpt lat="50.89692" lon="4.58439">
        <ele>31</ele>
      </trkpt>
      <trkpt lat="50.89696" lon="4.58424">
        <ele>31</ele>
      </trkpt>
      <trkpt lat="50.89693" lon="4.58385">
        <ele>32</ele>
      </trkpt>
      <trkpt lat="50.89694" lon="4.58371">
        <ele>32</ele>
      </trkpt>
      <trkpt lat="50.89735" lon="4.58298">
        <ele>32</ele>
      </trkpt>
      <trkpt lat="50.89737" lon="4.58289">
        <ele>32</ele>
      </trkpt>
      <trkpt lat="50.89736" lon="4.58278">
        <ele>32</ele>
      </trkpt>
      <trkpt lat="50.89732" lon="4.58265">
        <ele>32</ele>
      </trkpt>
      <trkpt lat="50.8968" lon="4.58288">
        <ele>32</ele>
      </trkpt>
      <trkpt lat="50.89627" lon="4.58312">
        <ele>32</ele>
      </trkpt>
      <trkpt lat="50.89607" lon="4.5833">
        <ele>32</ele>
      </trkpt>
      <trkpt lat="50.896" lon="4.58343">
        <ele>32</ele>
      </trkpt>
      <trkpt lat="50.89592" lon="4.58361">
        <ele>33</ele>
      </trkpt>
      <trkpt lat="50.89587" lon="4.58384">
        <ele>33</ele>
      </trkpt>
      <trkpt lat="50.89587" lon="4.58423">
        <ele>33</ele>
      </trkpt>
      <trkpt lat="50.89604" lon="4.58507">
        <ele>33</ele>
      </trkpt>
      <trkpt lat="50.89604" lon="4.58527">
        <ele>33</ele>
      </trkpt>
      <trkpt lat="50.896" lon="4.58537">
        <ele>33</ele>
      </trkpt>
      <trkpt lat="50.89561" lon="4.58576">
        <ele>34</ele>
      </trkpt>
      <trkpt lat="50.89345" lon="4.58791">
        <ele>33</ele>
      </trkpt>
      <trkpt lat="50.89323" lon="4.58821">
        <ele>33</ele>
      </trkpt>
      <trkpt lat="50.89193" lon="4.58962">
        <ele>33</ele>
      </trkpt>
      <trkpt lat="50.891" lon="4.59056">
        <ele>32</ele>
      </trkpt>
      <trkpt lat="50.89084" lon="4.59067">
        <ele>32</ele>
      </trkpt>
      <trkpt lat="50.89044" lon="4.59083">
        <ele>32</ele>
      </trkpt>
      <trkpt lat="50.89033" lon="4.59094">
        <ele>32</ele>
      </trkpt>
      <trkpt lat="50.89007" lon="4.59129">
        <ele>32</ele>
      </trkpt>
      <trkpt lat="50.88989" lon="4.59147">
        <ele>32</ele>
      </trkpt>
      <trkpt lat="50.88769" lon="4.59295">
        <ele>34</ele>
      </trkpt>
      <trkpt lat="50.88651" lon="4.59376">
        <ele>36</ele>
      </trkpt>
      <trkpt lat="50.88624" lon="4.59385">
        <ele>36</ele>
      </trkpt>
      <trkpt lat="50.88596" lon="4.59295">
        <ele>36</ele>
      </trkpt>
      <trkpt lat="50.88556" lon="4.59217">
        <ele>36</ele>
      </trkpt>
      <trkpt lat="50.88522" lon="4.59147">
        <ele>36</ele>
      </trkpt>
      <trkpt lat="50.88438" lon="4.58986">
        <ele>36</ele>
      </trkpt>
      <trkpt lat="50.88394" lon="4.58911">
        <ele>37</ele>
      </trkpt>
      <trkpt lat="50.88356" lon="4.58804">
        <ele>37</ele>
      </trkpt>
      <trkpt lat="50.88326" lon="4.58753">
        <ele>39</ele>
      </trkpt>
      <trkpt lat="50.88234" lon="4.58589">
        <ele>41</ele>
      </trkpt>
      <trkpt lat="50.88229" lon="4.58584">
        <ele>41</ele>
      </trkpt>
      <trkpt lat="50.88216" lon="4.58581">
        <ele>41</ele>
      </trkpt>
      <trkpt lat="50.88219" lon="4.58561">
        <ele>40</ele>
      </trkpt>
      <trkpt lat="50.88219" lon="4.58544">
        <ele>41</ele>
      </trkpt>
      <trkpt lat="50.88189" lon="4.58463">
        <ele>39</ele>
      </trkpt>
      <trkpt lat="50.88182" lon="4.58435">
        <ele>39</ele>
      </trkpt>
      <trkpt lat="50.88176" lon="4.5842">
        <ele>39</ele>
      </trkpt>
      <trkpt lat="50.88201" lon="4.58382">
        <ele>38</ele>
      </trkpt>
      <trkpt lat="50.88308" lon="4.58191">
        <ele>40</ele>
      </trkpt>
      <trkpt lat="50.88302" lon="4.58173">
        <ele>39</ele>
      </trkpt>
      <trkpt lat="50.88278" lon="4.58087">
        <ele>38</ele>
      </trkpt>
      <trkpt lat="50.8826" lon="4.58019">
        <ele>37</ele>
      </trkpt>
      <trkpt lat="50.88194" lon="4.57805">
        <ele>37</ele>
      </trkpt>
      <trkpt lat="50.88125" lon="4.57644">
        <ele>40</ele>
      </trkpt>
      <trkpt lat="50.88035" lon="4.5748">
        <ele>42</ele>
      </trkpt>
      <trkpt lat="50.8799" lon="4.57392">
        <ele>44</ele>
      </trkpt>
      <trkpt lat="50.87931" lon="4.57211">
        <ele>47</ele>
      </trkpt>
      <trkpt lat="50.87882" lon="4.57121">
        <ele>48</ele>
      </trkpt>
      <trkpt lat="50.87866" lon="4.57102">
        <ele>49</ele>
      </trkpt>
      <trkpt lat="50.87851" lon="4.57091">
        <ele>49</ele>
      </trkpt>
      <trkpt lat="50.87829" lon="4.57074">
        <ele>51</ele>
      </trkpt>
      <trkpt lat="50.87821" lon="4.57058">
        <ele>52</ele>
      </trkpt>
      <trkpt lat="50.8781" lon="4.57023">
        <ele>52</ele>
      </trkpt>
      <trkpt lat="50.87798" lon="4.56991">
        <ele>51</ele>
      </trkpt>
      <trkpt lat="50.87779" lon="4.5695">
        <ele>52</ele>
      </trkpt>
      <trkpt lat="50.87748" lon="4.56894">
        <ele>54</ele>
      </trkpt>
      <trkpt lat="50.87735" lon="4.56861">
        <ele>54</ele>
      </trkpt>
      <trkpt lat="50.87731" lon="4.56833">
        <ele>54</ele>
      </trkpt>
      <trkpt lat="50.87727" lon="4.56833">
        <ele>54</ele>
      </trkpt>
      <trkpt lat="50.87721" lon="4.56826">
        <ele>53</ele>
      </trkpt>
      <trkpt lat="50.8772" lon="4.56822">
        <ele>53</ele>
      </trkpt>
      <trkpt lat="50.8772" lon="4.56811">
        <ele>53</ele>
      </trkpt>
      <trkpt lat="50.87725" lon="4.56802">
        <ele>53</ele>
      </trkpt>
      <trkpt lat="50.8773" lon="4.568">
        <ele>53</ele>
      </trkpt>
      <trkpt lat="50.87738" lon="4.56806">
        <ele>53</ele>
      </trkpt>
      <trkpt lat="50.87739" lon="4.5681">
        <ele>53</ele>
      </trkpt>
      <trkpt lat="50.87784" lon="4.56786">
        <ele>50</ele>
      </trkpt>
      <trkpt lat="50.87841" lon="4.56739">
        <ele>49</ele>
      </trkpt>
      <trkpt lat="50.87886" lon="4.567">
        <ele>46</ele>
      </trkpt>
      <trkpt lat="50.88002" lon="4.56636">
        <ele>46</ele>
      </trkpt>
      <trkpt lat="50.88002" lon="4.5663">
        <ele>46</ele>
      </trkpt>
      <trkpt lat="50.88006" lon="4.56621">
        <ele>46</ele>
      </trkpt>
      <trkpt lat="50.88009" lon="4.56619">
        <ele>46</ele>
      </trkpt>
      <trkpt lat="50.88005" lon="4.56437">
        <ele>49</ele>
      </trkpt>
      <trkpt lat="50.88007" lon="4.56408">
        <ele>51</ele>
      </trkpt>
      <trkpt lat="50.88027" lon="4.56308">
        <ele>58</ele>
      </trkpt>
      <trkpt lat="50.88047" lon="4.56195">
        <ele>59</ele>
      </trkpt>
      <trkpt lat="50.88051" lon="4.56137">
        <ele>59</ele>
      </trkpt>
      <trkpt lat="50.88046" lon="4.5608">
        <ele>59</ele>
      </trkpt>
      <trkpt lat="50.87985" lon="4.55718">
        <ele>55</ele>
      </trkpt>
      <trkpt lat="50.87933" lon="4.55516">
        <ele>54</ele>
      </trkpt>
      <trkpt lat="50.87926" lon="4.5547">
        <ele>51</ele>
      </trkpt>
      <trkpt lat="50.8789" lon="4.5517">
        <ele>53</ele>
      </trkpt>
    </trkseg>
  </trk>
</gpx>