<?xml version='1.0' encoding='UTF-8'?>
<gpx xmlns="http://www.topografix.com/GPX/1/1" xmlns:xsi="http://www.w3.org/2001/XMLSchema-instance" creator="RouteYou" version="1.1" xsi:schemaLocation="http://www.topografix.com/GPX/1/1 http://www.topografix.com/GPX/1/1/gpx.xsd">
  <trk>
    <name>Gijmel 2025</name>
    <desc />
    <trkseg>
      <trkpt lat="50.87887" lon="4.55148">
        <ele>54</ele>
      </trkpt>
      <trkpt lat="50.87926" lon="4.5547">
        <ele>51</ele>
      </trkpt>
      <trkpt lat="50.87933" lon="4.55516">
        <ele>54</ele>
      </trkpt>
      <trkpt lat="50.87985" lon="4.55718">
        <ele>55</ele>
      </trkpt>
      <trkpt lat="50.88046" lon="4.5608">
        <ele>59</ele>
      </trkpt>
      <trkpt lat="50.88051" lon="4.56137">
        <ele>59</ele>
      </trkpt>
      <trkpt lat="50.88047" lon="4.56195">
        <ele>59</ele>
      </trkpt>
      <trkpt lat="50.88007" lon="4.56408">
        <ele>51</ele>
      </trkpt>
      <trkpt lat="50.88005" lon="4.56437">
        <ele>49</ele>
      </trkpt>
      <trkpt lat="50.88009" lon="4.56619">
        <ele>46</ele>
      </trkpt>
      <trkpt lat="50.88012" lon="4.56619">
        <ele>46</ele>
      </trkpt>
      <trkpt lat="50.88018" lon="4.56624">
        <ele>48</ele>
      </trkpt>
      <trkpt lat="50.8802" lon="4.56633">
        <ele>48</ele>
      </trkpt>
      <trkpt lat="50.88018" lon="4.56641">
        <ele>48</ele>
      </trkpt>
      <trkpt lat="50.88012" lon="4.56647">
        <ele>46</ele>
      </trkpt>
      <trkpt lat="50.88013" lon="4.5667">
        <ele>46</ele>
      </trkpt>
      <trkpt lat="50.88012" lon="4.56689">
        <ele>46</ele>
      </trkpt>
      <trkpt lat="50.8802" lon="4.56788">
        <ele>46</ele>
      </trkpt>
      <trkpt lat="50.88014" lon="4.56811">
        <ele>46</ele>
      </trkpt>
      <trkpt lat="50.87949" lon="4.56912">
        <ele>47</ele>
      </trkpt>
      <trkpt lat="50.87914" lon="4.56977">
        <ele>48</ele>
      </trkpt>
      <trkpt lat="50.87911" lon="4.56987">
        <ele>48</ele>
      </trkpt>
      <trkpt lat="50.8792" lon="4.57054">
        <ele>49</ele>
      </trkpt>
      <trkpt lat="50.87899" lon="4.57089">
        <ele>49</ele>
      </trkpt>
      <trkpt lat="50.87882" lon="4.57121">
        <ele>48</ele>
      </trkpt>
      <trkpt lat="50.87931" lon="4.57211">
        <ele>47</ele>
      </trkpt>
      <trkpt lat="50.87981" lon="4.57366">
        <ele>44</ele>
      </trkpt>
      <trkpt lat="50.8799" lon="4.57392">
        <ele>44</ele>
      </trkpt>
      <trkpt lat="50.88015" lon="4.57443">
        <ele>42</ele>
      </trkpt>
      <trkpt lat="50.88125" lon="4.57644">
        <ele>40</ele>
      </trkpt>
      <trkpt lat="50.88194" lon="4.57805">
        <ele>37</ele>
      </trkpt>
      <trkpt lat="50.8826" lon="4.58019">
        <ele>37</ele>
      </trkpt>
      <trkpt lat="50.88302" lon="4.58173">
        <ele>39</ele>
      </trkpt>
      <trkpt lat="50.88308" lon="4.58191">
        <ele>40</ele>
      </trkpt>
      <trkpt lat="50.88201" lon="4.58382">
        <ele>38</ele>
      </trkpt>
      <trkpt lat="50.88176" lon="4.5842">
        <ele>39</ele>
      </trkpt>
      <trkpt lat="50.88147" lon="4.58463">
        <ele>40</ele>
      </trkpt>
      <trkpt lat="50.88022" lon="4.58613">
        <ele>43</ele>
      </trkpt>
      <trkpt lat="50.88041" lon="4.58648">
        <ele>43</ele>
      </trkpt>
      <trkpt lat="50.88067" lon="4.58698">
        <ele>44</ele>
      </trkpt>
      <trkpt lat="50.88084" lon="4.58736">
        <ele>44</ele>
      </trkpt>
      <trkpt lat="50.88142" lon="4.58848">
        <ele>44</ele>
      </trkpt>
      <trkpt lat="50.88237" lon="4.59015">
        <ele>40</ele>
      </trkpt>
      <trkpt lat="50.88254" lon="4.59057">
        <ele>40</ele>
      </trkpt>
      <trkpt lat="50.88264" lon="4.59101">
        <ele>39</ele>
      </trkpt>
      <trkpt lat="50.88271" lon="4.59193">
        <ele>38</ele>
      </trkpt>
      <trkpt lat="50.88276" lon="4.59233">
        <ele>38</ele>
      </trkpt>
      <trkpt lat="50.8829" lon="4.5928">
        <ele>37</ele>
      </trkpt>
      <trkpt lat="50.88298" lon="4.59299">
        <ele>37</ele>
      </trkpt>
      <trkpt lat="50.88416" lon="4.59508">
        <ele>38</ele>
      </trkpt>
      <trkpt lat="50.88511" lon="4.59672">
        <ele>39</ele>
      </trkpt>
      <trkpt lat="50.88528" lon="4.59687">
        <ele>39</ele>
      </trkpt>
      <trkpt lat="50.88548" lon="4.59699">
        <ele>39</ele>
      </trkpt>
      <trkpt lat="50.88556" lon="4.59707">
        <ele>39</ele>
      </trkpt>
      <trkpt lat="50.88564" lon="4.59719">
        <ele>39</ele>
      </trkpt>
      <trkpt lat="50.88586" lon="4.59767">
        <ele>39</ele>
      </trkpt>
      <trkpt lat="50.88606" lon="4.59804">
        <ele>39</ele>
      </trkpt>
      <trkpt lat="50.88998" lon="4.60338">
        <ele>36</ele>
      </trkpt>
      <trkpt lat="50.89044" lon="4.60396">
        <ele>35</ele>
      </trkpt>
      <trkpt lat="50.89211" lon="4.60592">
        <ele>37</ele>
      </trkpt>
      <trkpt lat="50.89215" lon="4.60579">
        <ele>37</ele>
      </trkpt>
      <trkpt lat="50.89211" lon="4.60592">
        <ele>37</ele>
      </trkpt>
      <trkpt lat="50.89556" lon="4.60997">
        <ele>34</ele>
      </trkpt>
      <trkpt lat="50.89589" lon="4.61033">
        <ele>34</ele>
      </trkpt>
      <trkpt lat="50.89602" lon="4.61049">
        <ele>33</ele>
      </trkpt>
      <trkpt lat="50.89649" lon="4.61116">
        <ele>33</ele>
      </trkpt>
      <trkpt lat="50.89679" lon="4.61181">
        <ele>34</ele>
      </trkpt>
      <trkpt lat="50.89744" lon="4.61323">
        <ele>32</ele>
      </trkpt>
      <trkpt lat="50.89807" lon="4.615">
        <ele>31</ele>
      </trkpt>
      <trkpt lat="50.8985" lon="4.61613">
        <ele>31</ele>
      </trkpt>
      <trkpt lat="50.89861" lon="4.6163">
        <ele>31</ele>
      </trkpt>
      <trkpt lat="50.89885" lon="4.61652">
        <ele>31</ele>
      </trkpt>
      <trkpt lat="50.89987" lon="4.61695">
        <ele>31</ele>
      </trkpt>
      <trkpt lat="50.90001" lon="4.61706">
        <ele>31</ele>
      </trkpt>
      <trkpt lat="50.90013" lon="4.61722">
        <ele>31</ele>
      </trkpt>
      <trkpt lat="50.90022" lon="4.61739">
        <ele>30</ele>
      </trkpt>
      <trkpt lat="50.90032" lon="4.61771">
        <ele>30</ele>
      </trkpt>
      <trkpt lat="50.90038" lon="4.618">
        <ele>30</ele>
      </trkpt>
      <trkpt lat="50.90061" lon="4.61899">
        <ele>30</ele>
      </trkpt>
      <trkpt lat="50.90075" lon="4.61968">
        <ele>30</ele>
      </trkpt>
      <trkpt lat="50.90083" lon="4.6201">
        <ele>30</ele>
      </trkpt>
      <trkpt lat="50.90116" lon="4.62233">
        <ele>30</ele>
      </trkpt>
      <trkpt lat="50.90119" lon="4.62249">
        <ele>30</ele>
      </trkpt>
      <trkpt lat="50.90126" lon="4.62264">
        <ele>30</ele>
      </trkpt>
      <trkpt lat="50.90129" lon="4.62263">
        <ele>30</ele>
      </trkpt>
      <trkpt lat="50.90333" lon="4.62151">
        <ele>28</ele>
      </trkpt>
      <trkpt lat="50.90356" lon="4.62133">
        <ele>28</ele>
      </trkpt>
      <trkpt lat="50.90414" lon="4.62487">
        <ele>27</ele>
      </trkpt>
      <trkpt lat="50.90456" lon="4.62695">
        <ele>26</ele>
      </trkpt>
      <trkpt lat="50.90468" lon="4.62705">
        <ele>26</ele>
      </trkpt>
      <trkpt lat="50.90476" lon="4.62712">
        <ele>26</ele>
      </trkpt>
      <trkpt lat="50.90479" lon="4.62717">
        <ele>26</ele>
      </trkpt>
      <trkpt lat="50.90573" lon="4.62692">
        <ele>26</ele>
      </trkpt>
      <trkpt lat="50.90605" lon="4.62688">
        <ele>26</ele>
      </trkpt>
      <trkpt lat="50.90633" lon="4.62693">
        <ele>26</ele>
      </trkpt>
      <trkpt lat="50.90649" lon="4.62705">
        <ele>26</ele>
      </trkpt>
      <trkpt lat="50.90699" lon="4.62759">
        <ele>26</ele>
      </trkpt>
      <trkpt lat="50.90729" lon="4.62781">
        <ele>26</ele>
      </trkpt>
      <trkpt lat="50.90742" lon="4.62789">
        <ele>26</ele>
      </trkpt>
      <trkpt lat="50.90856" lon="4.62813">
        <ele>25</ele>
      </trkpt>
      <trkpt lat="50.90889" lon="4.62813">
        <ele>25</ele>
      </trkpt>
      <trkpt lat="50.90897" lon="4.6281">
        <ele>25</ele>
      </trkpt>
      <trkpt lat="50.91109" lon="4.62749">
        <ele>23</ele>
      </trkpt>
      <trkpt lat="50.91119" lon="4.62748">
        <ele>23</ele>
      </trkpt>
      <trkpt lat="50.91183" lon="4.62754">
        <ele>23</ele>
      </trkpt>
      <trkpt lat="50.912" lon="4.62746">
        <ele>23</ele>
      </trkpt>
      <trkpt lat="50.91212" lon="4.62735">
        <ele>24</ele>
      </trkpt>
      <trkpt lat="50.91239" lon="4.62717">
        <ele>24</ele>
      </trkpt>
      <trkpt lat="50.91287" lon="4.6269">
        <ele>22</ele>
      </trkpt>
      <trkpt lat="50.91292" lon="4.62688">
        <ele>22</ele>
      </trkpt>
      <trkpt lat="50.91306" lon="4.62689">
        <ele>22</ele>
      </trkpt>
      <trkpt lat="50.91383" lon="4.62706">
        <ele>22</ele>
      </trkpt>
      <trkpt lat="50.91391" lon="4.62711">
        <ele>22</ele>
      </trkpt>
      <trkpt lat="50.91396" lon="4.62717">
        <ele>22</ele>
      </trkpt>
      <trkpt lat="50.91399" lon="4.62725">
        <ele>23</ele>
      </trkpt>
      <trkpt lat="50.91408" lon="4.62762">
        <ele>25</ele>
      </trkpt>
      <trkpt lat="50.91413" lon="4.62772">
        <ele>25</ele>
      </trkpt>
      <trkpt lat="50.91421" lon="4.62775">
        <ele>25</ele>
      </trkpt>
      <trkpt lat="50.91472" lon="4.62762">
        <ele>26</ele>
      </trkpt>
      <trkpt lat="50.91525" lon="4.62756">
        <ele>24</ele>
      </trkpt>
      <trkpt lat="50.91575" lon="4.62748">
        <ele>23</ele>
      </trkpt>
      <trkpt lat="50.91952" lon="4.62592">
        <ele>19</ele>
      </trkpt>
      <trkpt lat="50.92353" lon="4.62417">
        <ele>17</ele>
      </trkpt>
      <trkpt lat="50.92524" lon="4.62349">
        <ele>18</ele>
      </trkpt>
      <trkpt lat="50.9254" lon="4.62348">
        <ele>18</ele>
      </trkpt>
      <trkpt lat="50.9257" lon="4.62357">
        <ele>18</ele>
      </trkpt>
      <trkpt lat="50.92682" lon="4.6239">
        <ele>18</ele>
      </trkpt>
      <trkpt lat="50.92706" lon="4.62393">
        <ele>17</ele>
      </trkpt>
      <trkpt lat="50.92724" lon="4.62767">
        <ele>17</ele>
      </trkpt>
      <trkpt lat="50.92731" lon="4.62857">
        <ele>18</ele>
      </trkpt>
      <trkpt lat="50.92757" lon="4.63036">
        <ele>18</ele>
      </trkpt>
      <trkpt lat="50.92756" lon="4.63051">
        <ele>18</ele>
      </trkpt>
      <trkpt lat="50.92815" lon="4.63084">
        <ele>17</ele>
      </trkpt>
      <trkpt lat="50.92834" lon="4.63089">
        <ele>17</ele>
      </trkpt>
      <trkpt lat="50.92858" lon="4.6309">
        <ele>17</ele>
      </trkpt>
      <trkpt lat="50.92995" lon="4.63068">
        <ele>18</ele>
      </trkpt>
      <trkpt lat="50.93143" lon="4.63045">
        <ele>17</ele>
      </trkpt>
      <trkpt lat="50.93151" lon="4.63048">
        <ele>18</ele>
      </trkpt>
      <trkpt lat="50.93168" lon="4.63064">
        <ele>18</ele>
      </trkpt>
      <trkpt lat="50.93212" lon="4.63117">
        <ele>17</ele>
      </trkpt>
      <trkpt lat="50.93302" lon="4.63265">
        <ele>17</ele>
      </trkpt>
      <trkpt lat="50.93316" lon="4.63289">
        <ele>17</ele>
      </trkpt>
      <trkpt lat="50.93329" lon="4.63327">
        <ele>17</ele>
      </trkpt>
      <trkpt lat="50.93366" lon="4.63483">
        <ele>17</ele>
      </trkpt>
      <trkpt lat="50.93434" lon="4.63744">
        <ele>16</ele>
      </trkpt>
      <trkpt lat="50.93438" lon="4.63769">
        <ele>16</ele>
      </trkpt>
      <trkpt lat="50.93438" lon="4.63789">
        <ele>16</ele>
      </trkpt>
      <trkpt lat="50.93434" lon="4.63844">
        <ele>15</ele>
      </trkpt>
      <trkpt lat="50.93434" lon="4.63874">
        <ele>15</ele>
      </trkpt>
      <trkpt lat="50.93438" lon="4.63995">
        <ele>16</ele>
      </trkpt>
      <trkpt lat="50.9344" lon="4.64009">
        <ele>16</ele>
      </trkpt>
      <trkpt lat="50.93443" lon="4.64018">
        <ele>16</ele>
      </trkpt>
      <trkpt lat="50.93448" lon="4.64023">
        <ele>16</ele>
      </trkpt>
      <trkpt lat="50.93455" lon="4.64024">
        <ele>16</ele>
      </trkpt>
      <trkpt lat="50.93651" lon="4.63953">
        <ele>16</ele>
      </trkpt>
      <trkpt lat="50.93679" lon="4.63937">
        <ele>16</ele>
      </trkpt>
      <trkpt lat="50.937" lon="4.63922">
        <ele>16</ele>
      </trkpt>
      <trkpt lat="50.93763" lon="4.63861">
        <ele>15</ele>
      </trkpt>
      <trkpt lat="50.93806" lon="4.63817">
        <ele>15</ele>
      </trkpt>
      <trkpt lat="50.93824" lon="4.63802">
        <ele>15</ele>
      </trkpt>
      <trkpt lat="50.9383" lon="4.63799">
        <ele>15</ele>
      </trkpt>
      <trkpt lat="50.93847" lon="4.63806">
        <ele>15</ele>
      </trkpt>
      <trkpt lat="50.94156" lon="4.64226">
        <ele>14</ele>
      </trkpt>
      <trkpt lat="50.94264" lon="4.64366">
        <ele>14</ele>
      </trkpt>
      <trkpt lat="50.94323" lon="4.64458">
        <ele>14</ele>
      </trkpt>
      <trkpt lat="50.94328" lon="4.64463">
        <ele>14</ele>
      </trkpt>
      <trkpt lat="50.94476" lon="4.64505">
        <ele>15</ele>
      </trkpt>
      <trkpt lat="50.94502" lon="4.64502">
        <ele>15</ele>
      </trkpt>
      <trkpt lat="50.94514" lon="4.64496">
        <ele>15</ele>
      </trkpt>
      <trkpt lat="50.94591" lon="4.64425">
        <ele>15</ele>
      </trkpt>
      <trkpt lat="50.94662" lon="4.64362">
        <ele>15</ele>
      </trkpt>
      <trkpt lat="50.94674" lon="4.64353">
        <ele>15</ele>
      </trkpt>
      <trkpt lat="50.94687" lon="4.64348">
        <ele>14</ele>
      </trkpt>
      <trkpt lat="50.94687" lon="4.64371">
        <ele>14</ele>
      </trkpt>
      <trkpt lat="50.94687" lon="4.64348">
        <ele>14</ele>
      </trkpt>
      <trkpt lat="50.9472" lon="4.64362">
        <ele>13</ele>
      </trkpt>
      <trkpt lat="50.94719" lon="4.64368">
        <ele>13</ele>
      </trkpt>
      <trkpt lat="50.94723" lon="4.64378">
        <ele>13</ele>
      </trkpt>
      <trkpt lat="50.9466" lon="4.64726">
        <ele>14</ele>
      </trkpt>
      <trkpt lat="50.94664" lon="4.64731">
        <ele>14</ele>
      </trkpt>
      <trkpt lat="50.94819" lon="4.65539">
        <ele>11</ele>
      </trkpt>
      <trkpt lat="50.94834" lon="4.65624">
        <ele>11</ele>
      </trkpt>
      <trkpt lat="50.94836" lon="4.65651">
        <ele>11</ele>
      </trkpt>
      <trkpt lat="50.94843" lon="4.6579">
        <ele>11</ele>
      </trkpt>
      <trkpt lat="50.94845" lon="4.65918">
        <ele>12</ele>
      </trkpt>
      <trkpt lat="50.94851" lon="4.66072">
        <ele>12</ele>
      </trkpt>
      <trkpt lat="50.94856" lon="4.66106">
        <ele>12</ele>
      </trkpt>
      <trkpt lat="50.94874" lon="4.66185">
        <ele>12</ele>
      </trkpt>
      <trkpt lat="50.94902" lon="4.66281">
        <ele>12</ele>
      </trkpt>
      <trkpt lat="50.94923" lon="4.66372">
        <ele>12</ele>
      </trkpt>
      <trkpt lat="50.94935" lon="4.66465">
        <ele>11</ele>
      </trkpt>
      <trkpt lat="50.9494" lon="4.66486">
        <ele>11</ele>
      </trkpt>
      <trkpt lat="50.94948" lon="4.66498">
        <ele>11</ele>
      </trkpt>
      <trkpt lat="50.9496" lon="4.66513">
        <ele>11</ele>
      </trkpt>
      <trkpt lat="50.94979" lon="4.66529">
        <ele>11</ele>
      </trkpt>
      <trkpt lat="50.95002" lon="4.66541">
        <ele>11</ele>
      </trkpt>
      <trkpt lat="50.95013" lon="4.66539">
        <ele>11</ele>
      </trkpt>
      <trkpt lat="50.95031" lon="4.66481">
        <ele>10</ele>
      </trkpt>
      <trkpt lat="50.95036" lon="4.66469">
        <ele>10</ele>
      </trkpt>
      <trkpt lat="50.95079" lon="4.66413">
        <ele>10</ele>
      </trkpt>
      <trkpt lat="50.95106" lon="4.66366">
        <ele>11</ele>
      </trkpt>
      <trkpt lat="50.95124" lon="4.66317">
        <ele>11</ele>
      </trkpt>
      <trkpt lat="50.9514" lon="4.66261">
        <ele>11</ele>
      </trkpt>
      <trkpt lat="50.95183" lon="4.66142">
        <ele>11</ele>
      </trkpt>
      <trkpt lat="50.9522" lon="4.66081">
        <ele>11</ele>
      </trkpt>
      <trkpt lat="50.9528" lon="4.65975">
        <ele>10</ele>
      </trkpt>
      <trkpt lat="50.95405" lon="4.65746">
        <ele>9</ele>
      </trkpt>
      <trkpt lat="50.95414" lon="4.65724">
        <ele>9</ele>
      </trkpt>
      <trkpt lat="50.95431" lon="4.65667">
        <ele>9</ele>
      </trkpt>
      <trkpt lat="50.95446" lon="4.65669">
        <ele>9</ele>
      </trkpt>
      <trkpt lat="50.95482" lon="4.6571">
        <ele>9</ele>
      </trkpt>
      <trkpt lat="50.95492" lon="4.65711">
        <ele>9</ele>
      </trkpt>
      <trkpt lat="50.95502" lon="4.65707">
        <ele>9</ele>
      </trkpt>
      <trkpt lat="50.95593" lon="4.656">
        <ele>11</ele>
      </trkpt>
      <trkpt lat="50.95605" lon="4.65595">
        <ele>11</ele>
      </trkpt>
      <trkpt lat="50.95625" lon="4.65592">
        <ele>11</ele>
      </trkpt>
      <trkpt lat="50.95658" lon="4.65595">
        <ele>11</ele>
      </trkpt>
      <trkpt lat="50.95676" lon="4.65633">
        <ele>11</ele>
      </trkpt>
      <trkpt lat="50.957" lon="4.6567">
        <ele>11</ele>
      </trkpt>
      <trkpt lat="50.95711" lon="4.65683">
        <ele>11</ele>
      </trkpt>
      <trkpt lat="50.95721" lon="4.65683">
        <ele>11</ele>
      </trkpt>
      <trkpt lat="50.95715" lon="4.65794">
        <ele>11</ele>
      </trkpt>
      <trkpt lat="50.95701" lon="4.65853">
        <ele>10</ele>
      </trkpt>
      <trkpt lat="50.95688" lon="4.65919">
        <ele>10</ele>
      </trkpt>
      <trkpt lat="50.95671" lon="4.66034">
        <ele>11</ele>
      </trkpt>
      <trkpt lat="50.9566" lon="4.66171">
        <ele>12</ele>
      </trkpt>
      <trkpt lat="50.95653" lon="4.66234">
        <ele>12</ele>
      </trkpt>
      <trkpt lat="50.95652" lon="4.66251">
        <ele>12</ele>
      </trkpt>
      <trkpt lat="50.95656" lon="4.66387">
        <ele>10</ele>
      </trkpt>
      <trkpt lat="50.9566" lon="4.66427">
        <ele>10</ele>
      </trkpt>
      <trkpt lat="50.95681" lon="4.66519">
        <ele>11</ele>
      </trkpt>
      <trkpt lat="50.95682" lon="4.66536">
        <ele>11</ele>
      </trkpt>
      <trkpt lat="50.95679" lon="4.66555">
        <ele>11</ele>
      </trkpt>
      <trkpt lat="50.95652" lon="4.66664">
        <ele>11</ele>
      </trkpt>
      <trkpt lat="50.9565" lon="4.6671">
        <ele>11</ele>
      </trkpt>
      <trkpt lat="50.95661" lon="4.66843">
        <ele>10</ele>
      </trkpt>
      <trkpt lat="50.95657" lon="4.66962">
        <ele>11</ele>
      </trkpt>
      <trkpt lat="50.95676" lon="4.67116">
        <ele>12</ele>
      </trkpt>
      <trkpt lat="50.95677" lon="4.6714">
        <ele>12</ele>
      </trkpt>
      <trkpt lat="50.95677" lon="4.67168">
        <ele>12</ele>
      </trkpt>
      <trkpt lat="50.95665" lon="4.67386">
        <ele>11</ele>
      </trkpt>
      <trkpt lat="50.95667" lon="4.67394">
        <ele>11</ele>
      </trkpt>
      <trkpt lat="50.95668" lon="4.67399">
        <ele>11</ele>
      </trkpt>
      <trkpt lat="50.95681" lon="4.674">
        <ele>11</ele>
      </trkpt>
      <trkpt lat="50.95718" lon="4.67397">
        <ele>11</ele>
      </trkpt>
      <trkpt lat="50.95755" lon="4.67385">
        <ele>11</ele>
      </trkpt>
      <trkpt lat="50.95784" lon="4.67365">
        <ele>11</ele>
      </trkpt>
      <trkpt lat="50.95867" lon="4.67283">
        <ele>10</ele>
      </trkpt>
      <trkpt lat="50.95878" lon="4.67264">
        <ele>10</ele>
      </trkpt>
      <trkpt lat="50.95884" lon="4.67246">
        <ele>10</ele>
      </trkpt>
      <trkpt lat="50.95889" lon="4.67218">
        <ele>10</ele>
      </trkpt>
      <trkpt lat="50.95896" lon="4.67219">
        <ele>10</ele>
      </trkpt>
      <trkpt lat="50.96009" lon="4.67177">
        <ele>9</ele>
      </trkpt>
      <trkpt lat="50.96075" lon="4.67147">
        <ele>8</ele>
      </trkpt>
      <trkpt lat="50.96099" lon="4.67135">
        <ele>8</ele>
      </trkpt>
      <trkpt lat="50.9614" lon="4.67102">
        <ele>7</ele>
      </trkpt>
      <trkpt lat="50.96149" lon="4.67097">
        <ele>7</ele>
      </trkpt>
      <trkpt lat="50.96158" lon="4.67096">
        <ele>7</ele>
      </trkpt>
      <trkpt lat="50.9618" lon="4.67099">
        <ele>7</ele>
      </trkpt>
      <trkpt lat="50.96224" lon="4.67117">
        <ele>6</ele>
      </trkpt>
      <trkpt lat="50.96248" lon="4.67131">
        <ele>7</ele>
      </trkpt>
      <trkpt lat="50.96263" lon="4.67139">
        <ele>7</ele>
      </trkpt>
      <trkpt lat="50.96273" lon="4.67141">
        <ele>7</ele>
      </trkpt>
      <trkpt lat="50.96321" lon="4.67135">
        <ele>7</ele>
      </trkpt>
      <trkpt lat="50.96336" lon="4.67122">
        <ele>7</ele>
      </trkpt>
      <trkpt lat="50.96359" lon="4.67087">
        <ele>7</ele>
      </trkpt>
      <trkpt lat="50.96374" lon="4.67071">
        <ele>7</ele>
      </trkpt>
      <trkpt lat="50.96388" lon="4.67061">
        <ele>7</ele>
      </trkpt>
      <trkpt lat="50.96478" lon="4.67029">
        <ele>7</ele>
      </trkpt>
      <trkpt lat="50.96492" lon="4.67015">
        <ele>7</ele>
      </trkpt>
      <trkpt lat="50.96553" lon="4.66896">
        <ele>5</ele>
      </trkpt>
      <trkpt lat="50.96594" lon="4.66829">
        <ele>5</ele>
      </trkpt>
      <trkpt lat="50.96666" lon="4.66733">
        <ele>6</ele>
      </trkpt>
      <trkpt lat="50.96673" lon="4.6673">
        <ele>6</ele>
      </trkpt>
      <trkpt lat="50.96721" lon="4.66732">
        <ele>6</ele>
      </trkpt>
      <trkpt lat="50.96762" lon="4.66746">
        <ele>6</ele>
      </trkpt>
      <trkpt lat="50.96889" lon="4.66772">
        <ele>6</ele>
      </trkpt>
      <trkpt lat="50.96903" lon="4.66774">
        <ele>6</ele>
      </trkpt>
      <trkpt lat="50.96923" lon="4.6677">
        <ele>6</ele>
      </trkpt>
      <trkpt lat="50.97031" lon="4.66713">
        <ele>6</ele>
      </trkpt>
      <trkpt lat="50.97038" lon="4.66712">
        <ele>6</ele>
      </trkpt>
      <trkpt lat="50.9714" lon="4.66734">
        <ele>6</ele>
      </trkpt>
      <trkpt lat="50.97153" lon="4.6673">
        <ele>6</ele>
      </trkpt>
      <trkpt lat="50.97173" lon="4.66715">
        <ele>6</ele>
      </trkpt>
      <trkpt lat="50.97183" lon="4.66717">
        <ele>6</ele>
      </trkpt>
      <trkpt lat="50.97186" lon="4.66682">
        <ele>6</ele>
      </trkpt>
      <trkpt lat="50.97197" lon="4.66684">
        <ele>7</ele>
      </trkpt>
      <trkpt lat="50.97208" lon="4.66676">
        <ele>7</ele>
      </trkpt>
      <trkpt lat="50.97225" lon="4.66654">
        <ele>6</ele>
      </trkpt>
      <trkpt lat="50.97253" lon="4.66597">
        <ele>6</ele>
      </trkpt>
      <trkpt lat="50.97296" lon="4.66535">
        <ele>6</ele>
      </trkpt>
      <trkpt lat="50.97307" lon="4.66523">
        <ele>7</ele>
      </trkpt>
      <trkpt lat="50.9733" lon="4.66504">
        <ele>7</ele>
      </trkpt>
      <trkpt lat="50.97364" lon="4.66484">
        <ele>7</ele>
      </trkpt>
      <trkpt lat="50.97373" lon="4.66475">
        <ele>7</ele>
      </trkpt>
      <trkpt lat="50.97397" lon="4.66433">
        <ele>7</ele>
      </trkpt>
      <trkpt lat="50.97406" lon="4.6642">
        <ele>7</ele>
      </trkpt>
      <trkpt lat="50.97412" lon="4.66415">
        <ele>7</ele>
      </trkpt>
      <trkpt lat="50.97439" lon="4.66404">
        <ele>7</ele>
      </trkpt>
      <trkpt lat="50.97447" lon="4.66398">
        <ele>7</ele>
      </trkpt>
      <trkpt lat="50.97467" lon="4.66361">
        <ele>6</ele>
      </trkpt>
      <trkpt lat="50.97501" lon="4.6629">
        <ele>7</ele>
      </trkpt>
      <trkpt lat="50.97506" lon="4.66284">
        <ele>7</ele>
      </trkpt>
      <trkpt lat="50.97638" lon="4.66229">
        <ele>7</ele>
      </trkpt>
      <trkpt lat="50.97636" lon="4.66422">
        <ele>6</ele>
      </trkpt>
      <trkpt lat="50.97631" lon="4.66459">
        <ele>6</ele>
      </trkpt>
      <trkpt lat="50.9762" lon="4.66501">
        <ele>6</ele>
      </trkpt>
      <trkpt lat="50.97619" lon="4.66517">
        <ele>6</ele>
      </trkpt>
      <trkpt lat="50.97624" lon="4.66559">
        <ele>7</ele>
      </trkpt>
      <trkpt lat="50.97624" lon="4.66583">
        <ele>8</ele>
      </trkpt>
      <trkpt lat="50.97618" lon="4.66605">
        <ele>8</ele>
      </trkpt>
      <trkpt lat="50.97587" lon="4.66696">
        <ele>8</ele>
      </trkpt>
      <trkpt lat="50.97579" lon="4.66708">
        <ele>8</ele>
      </trkpt>
      <trkpt lat="50.97572" lon="4.66714">
        <ele>8</ele>
      </trkpt>
      <trkpt lat="50.97547" lon="4.66725">
        <ele>8</ele>
      </trkpt>
      <trkpt lat="50.97539" lon="4.66731">
        <ele>8</ele>
      </trkpt>
      <trkpt lat="50.97533" lon="4.6674">
        <ele>8</ele>
      </trkpt>
      <trkpt lat="50.97528" lon="4.66751">
        <ele>9</ele>
      </trkpt>
      <trkpt lat="50.97524" lon="4.66767">
        <ele>9</ele>
      </trkpt>
      <trkpt lat="50.97521" lon="4.66785">
        <ele>9</ele>
      </trkpt>
      <trkpt lat="50.97515" lon="4.66863">
        <ele>8</ele>
      </trkpt>
      <trkpt lat="50.97496" lon="4.66979">
        <ele>8</ele>
      </trkpt>
      <trkpt lat="50.97493" lon="4.6702">
        <ele>8</ele>
      </trkpt>
      <trkpt lat="50.97493" lon="4.67042">
        <ele>7</ele>
      </trkpt>
      <trkpt lat="50.97493" lon="4.67081">
        <ele>7</ele>
      </trkpt>
      <trkpt lat="50.97499" lon="4.67126">
        <ele>7</ele>
      </trkpt>
      <trkpt lat="50.97504" lon="4.67143">
        <ele>7</ele>
      </trkpt>
      <trkpt lat="50.97534" lon="4.6721">
        <ele>6</ele>
      </trkpt>
      <trkpt lat="50.97539" lon="4.67232">
        <ele>6</ele>
      </trkpt>
      <trkpt lat="50.97556" lon="4.67372">
        <ele>7</ele>
      </trkpt>
      <trkpt lat="50.97575" lon="4.67484">
        <ele>8</ele>
      </trkpt>
      <trkpt lat="50.97596" lon="4.67561">
        <ele>8</ele>
      </trkpt>
      <trkpt lat="50.97629" lon="4.67664">
        <ele>7</ele>
      </trkpt>
      <trkpt lat="50.97661" lon="4.67755">
        <ele>7</ele>
      </trkpt>
      <trkpt lat="50.97661" lon="4.67763">
        <ele>7</ele>
      </trkpt>
      <trkpt lat="50.97658" lon="4.67773">
        <ele>7</ele>
      </trkpt>
      <trkpt lat="50.97617" lon="4.67849">
        <ele>8</ele>
      </trkpt>
      <trkpt lat="50.97614" lon="4.67859">
        <ele>8</ele>
      </trkpt>
      <trkpt lat="50.97612" lon="4.67873">
        <ele>8</ele>
      </trkpt>
      <trkpt lat="50.97615" lon="4.67898">
        <ele>8</ele>
      </trkpt>
      <trkpt lat="50.97623" lon="4.67935">
        <ele>8</ele>
      </trkpt>
      <trkpt lat="50.97634" lon="4.67983">
        <ele>8</ele>
      </trkpt>
      <trkpt lat="50.97651" lon="4.68043">
        <ele>8</ele>
      </trkpt>
      <trkpt lat="50.97667" lon="4.68094">
        <ele>8</ele>
      </trkpt>
      <trkpt lat="50.97697" lon="4.68178">
        <ele>9</ele>
      </trkpt>
      <trkpt lat="50.97701" lon="4.68206">
        <ele>9</ele>
      </trkpt>
      <trkpt lat="50.97703" lon="4.68243">
        <ele>9</ele>
      </trkpt>
      <trkpt lat="50.97712" lon="4.68346">
        <ele>9</ele>
      </trkpt>
      <trkpt lat="50.97723" lon="4.68381">
        <ele>9</ele>
      </trkpt>
      <trkpt lat="50.97736" lon="4.68431">
        <ele>8</ele>
      </trkpt>
      <trkpt lat="50.97735" lon="4.68439">
        <ele>8</ele>
      </trkpt>
      <trkpt lat="50.97733" lon="4.68444">
        <ele>8</ele>
      </trkpt>
      <trkpt lat="50.97693" lon="4.68493">
        <ele>8</ele>
      </trkpt>
      <trkpt lat="50.97677" lon="4.6851">
        <ele>8</ele>
      </trkpt>
      <trkpt lat="50.97606" lon="4.6861">
        <ele>8</ele>
      </trkpt>
      <trkpt lat="50.97599" lon="4.68615">
        <ele>8</ele>
      </trkpt>
      <trkpt lat="50.97579" lon="4.68619">
        <ele>8</ele>
      </trkpt>
      <trkpt lat="50.975" lon="4.68609">
        <ele>8</ele>
      </trkpt>
      <trkpt lat="50.97464" lon="4.686">
        <ele>8</ele>
      </trkpt>
      <trkpt lat="50.97451" lon="4.68604">
        <ele>8</ele>
      </trkpt>
      <trkpt lat="50.97437" lon="4.68617">
        <ele>8</ele>
      </trkpt>
      <trkpt lat="50.97408" lon="4.68654">
        <ele>8</ele>
      </trkpt>
      <trkpt lat="50.97387" lon="4.68686">
        <ele>8</ele>
      </trkpt>
      <trkpt lat="50.97337" lon="4.68802">
        <ele>8</ele>
      </trkpt>
      <trkpt lat="50.97324" lon="4.68827">
        <ele>8</ele>
      </trkpt>
      <trkpt lat="50.97314" lon="4.68843">
        <ele>8</ele>
      </trkpt>
      <trkpt lat="50.97295" lon="4.68862">
        <ele>8</ele>
      </trkpt>
      <trkpt lat="50.97288" lon="4.68864">
        <ele>8</ele>
      </trkpt>
      <trkpt lat="50.97265" lon="4.68856">
        <ele>8</ele>
      </trkpt>
      <trkpt lat="50.97248" lon="4.68857">
        <ele>8</ele>
      </trkpt>
      <trkpt lat="50.97229" lon="4.6887">
        <ele>8</ele>
      </trkpt>
      <trkpt lat="50.97217" lon="4.68881">
        <ele>8</ele>
      </trkpt>
      <trkpt lat="50.97196" lon="4.68907">
        <ele>8</ele>
      </trkpt>
      <trkpt lat="50.97157" lon="4.68958">
        <ele>8</ele>
      </trkpt>
      <trkpt lat="50.97089" lon="4.69028">
        <ele>9</ele>
      </trkpt>
      <trkpt lat="50.97058" lon="4.69058">
        <ele>8</ele>
      </trkpt>
      <trkpt lat="50.97028" lon="4.69083">
        <ele>9</ele>
      </trkpt>
      <trkpt lat="50.96979" lon="4.69118">
        <ele>9</ele>
      </trkpt>
      <trkpt lat="50.96982" lon="4.6913">
        <ele>9</ele>
      </trkpt>
      <trkpt lat="50.96988" lon="4.69143">
        <ele>9</ele>
      </trkpt>
      <trkpt lat="50.97007" lon="4.69181">
        <ele>10</ele>
      </trkpt>
      <trkpt lat="50.97019" lon="4.69172">
        <ele>10</ele>
      </trkpt>
      <trkpt lat="50.97035" lon="4.69193">
        <ele>10</ele>
      </trkpt>
      <trkpt lat="50.97071" lon="4.6923">
        <ele>10</ele>
      </trkpt>
      <trkpt lat="50.97095" lon="4.69311">
        <ele>11</ele>
      </trkpt>
      <trkpt lat="50.97122" lon="4.69427">
        <ele>11</ele>
      </trkpt>
      <trkpt lat="50.9713" lon="4.6945">
        <ele>11</ele>
      </trkpt>
      <trkpt lat="50.9715" lon="4.69497">
        <ele>11</ele>
      </trkpt>
      <trkpt lat="50.97166" lon="4.69543">
        <ele>11</ele>
      </trkpt>
      <trkpt lat="50.97175" lon="4.69637">
        <ele>11</ele>
      </trkpt>
      <trkpt lat="50.97199" lon="4.69752">
        <ele>10</ele>
      </trkpt>
      <trkpt lat="50.97215" lon="4.69814">
        <ele>10</ele>
      </trkpt>
      <trkpt lat="50.97234" lon="4.69879">
        <ele>10</ele>
      </trkpt>
      <trkpt lat="50.97293" lon="4.70061">
        <ele>10</ele>
      </trkpt>
      <trkpt lat="50.97326" lon="4.70172">
        <ele>10</ele>
      </trkpt>
      <trkpt lat="50.97347" lon="4.70251">
        <ele>11</ele>
      </trkpt>
      <trkpt lat="50.97355" lon="4.70255">
        <ele>10</ele>
      </trkpt>
      <trkpt lat="50.9736" lon="4.7026">
        <ele>10</ele>
      </trkpt>
      <trkpt lat="50.97363" lon="4.70259">
        <ele>10</ele>
      </trkpt>
      <trkpt lat="50.9737" lon="4.70262">
        <ele>10</ele>
      </trkpt>
      <trkpt lat="50.97396" lon="4.70265">
        <ele>10</ele>
      </trkpt>
      <trkpt lat="50.97405" lon="4.70276">
        <ele>10</ele>
      </trkpt>
      <trkpt lat="50.97433" lon="4.70278">
        <ele>10</ele>
      </trkpt>
      <trkpt lat="50.97443" lon="4.70269">
        <ele>10</ele>
      </trkpt>
      <trkpt lat="50.97497" lon="4.70269">
        <ele>9</ele>
      </trkpt>
      <trkpt lat="50.97544" lon="4.70413">
        <ele>10</ele>
      </trkpt>
      <trkpt lat="50.97566" lon="4.70481">
        <ele>10</ele>
      </trkpt>
      <trkpt lat="50.9758" lon="4.70547">
        <ele>11</ele>
      </trkpt>
      <trkpt lat="50.97588" lon="4.70693">
        <ele>11</ele>
      </trkpt>
      <trkpt lat="50.97609" lon="4.70805">
        <ele>11</ele>
      </trkpt>
      <trkpt lat="50.9762" lon="4.70877">
        <ele>12</ele>
      </trkpt>
      <trkpt lat="50.97634" lon="4.71024">
        <ele>10</ele>
      </trkpt>
      <trkpt lat="50.97644" lon="4.7107">
        <ele>10</ele>
      </trkpt>
      <trkpt lat="50.97674" lon="4.71178">
        <ele>10</ele>
      </trkpt>
      <trkpt lat="50.97693" lon="4.71257">
        <ele>10</ele>
      </trkpt>
      <trkpt lat="50.97702" lon="4.71337">
        <ele>10</ele>
      </trkpt>
      <trkpt lat="50.97702" lon="4.71413">
        <ele>10</ele>
      </trkpt>
      <trkpt lat="50.97706" lon="4.71459">
        <ele>10</ele>
      </trkpt>
      <trkpt lat="50.97725" lon="4.71569">
        <ele>9</ele>
      </trkpt>
      <trkpt lat="50.97836" lon="4.71978">
        <ele>9</ele>
      </trkpt>
      <trkpt lat="50.97845" lon="4.72004">
        <ele>9</ele>
      </trkpt>
      <trkpt lat="50.97864" lon="4.72035">
        <ele>9</ele>
      </trkpt>
      <trkpt lat="50.97925" lon="4.72111">
        <ele>10</ele>
      </trkpt>
      <trkpt lat="50.97952" lon="4.72168">
        <ele>10</ele>
      </trkpt>
      <trkpt lat="50.9798" lon="4.72239">
        <ele>10</ele>
      </trkpt>
      <trkpt lat="50.97999" lon="4.7228">
        <ele>10</ele>
      </trkpt>
      <trkpt lat="50.98018" lon="4.72315">
        <ele>9</ele>
      </trkpt>
      <trkpt lat="50.98043" lon="4.72351">
        <ele>9</ele>
      </trkpt>
      <trkpt lat="50.98082" lon="4.72397">
        <ele>9</ele>
      </trkpt>
      <trkpt lat="50.98099" lon="4.72436">
        <ele>9</ele>
      </trkpt>
      <trkpt lat="50.98162" lon="4.72662">
        <ele>9</ele>
      </trkpt>
      <trkpt lat="50.98166" lon="4.72702">
        <ele>9</ele>
      </trkpt>
      <trkpt lat="50.98157" lon="4.72732">
        <ele>9</ele>
      </trkpt>
      <trkpt lat="50.98139" lon="4.72772">
        <ele>10</ele>
      </trkpt>
      <trkpt lat="50.98125" lon="4.7282">
        <ele>9</ele>
      </trkpt>
      <trkpt lat="50.98109" lon="4.729">
        <ele>9</ele>
      </trkpt>
      <trkpt lat="50.98104" lon="4.72982">
        <ele>9</ele>
      </trkpt>
      <trkpt lat="50.98106" lon="4.7306">
        <ele>9</ele>
      </trkpt>
      <trkpt lat="50.98117" lon="4.73162">
        <ele>9</ele>
      </trkpt>
      <trkpt lat="50.98134" lon="4.73237">
        <ele>9</ele>
      </trkpt>
      <trkpt lat="50.98154" lon="4.73289">
        <ele>10</ele>
      </trkpt>
      <trkpt lat="50.9819" lon="4.73334">
        <ele>9</ele>
      </trkpt>
      <trkpt lat="50.98357" lon="4.73519">
        <ele>8</ele>
      </trkpt>
      <trkpt lat="50.98385" lon="4.73537">
        <ele>8</ele>
      </trkpt>
      <trkpt lat="50.98625" lon="4.73582">
        <ele>9</ele>
      </trkpt>
      <trkpt lat="50.98728" lon="4.73631">
        <ele>9</ele>
      </trkpt>
      <trkpt lat="50.98801" lon="4.73645">
        <ele>10</ele>
      </trkpt>
      <trkpt lat="50.98798" lon="4.73834">
        <ele>10</ele>
      </trkpt>
      <trkpt lat="50.98797" lon="4.74146">
        <ele>11</ele>
      </trkpt>
      <trkpt lat="50.98806" lon="4.74737">
        <ele>16</ele>
      </trkpt>
      <trkpt lat="50.98799" lon="4.74738">
        <ele>16</ele>
      </trkpt>
      <trkpt lat="50.98806" lon="4.74737">
        <ele>16</ele>
      </trkpt>
      <trkpt lat="50.98815" lon="4.74902">
        <ele>13</ele>
      </trkpt>
      <trkpt lat="50.98823" lon="4.74899">
        <ele>13</ele>
      </trkpt>
      <trkpt lat="50.98869" lon="4.74871">
        <ele>14</ele>
      </trkpt>
      <trkpt lat="50.99001" lon="4.74787">
        <ele>16</ele>
      </trkpt>
      <trkpt lat="50.99033" lon="4.7477">
        <ele>16</ele>
      </trkpt>
      <trkpt lat="50.99079" lon="4.74764">
        <ele>16</ele>
      </trkpt>
      <trkpt lat="50.99117" lon="4.74768">
        <ele>15</ele>
      </trkpt>
      <trkpt lat="50.99156" lon="4.74768">
        <ele>15</ele>
      </trkpt>
      <trkpt lat="50.99179" lon="4.7476">
        <ele>16</ele>
      </trkpt>
      <trkpt lat="50.99261" lon="4.74636">
        <ele>15</ele>
      </trkpt>
      <trkpt lat="50.99292" lon="4.74586">
        <ele>14</ele>
      </trkpt>
      <trkpt lat="50.99305" lon="4.74571">
        <ele>14</ele>
      </trkpt>
      <trkpt lat="50.99378" lon="4.74516">
        <ele>14</ele>
      </trkpt>
      <trkpt lat="50.99428" lon="4.74482">
        <ele>15</ele>
      </trkpt>
      <trkpt lat="50.99475" lon="4.7446">
        <ele>14</ele>
      </trkpt>
      <trkpt lat="50.99488" lon="4.74454">
        <ele>14</ele>
      </trkpt>
      <trkpt lat="50.99465" lon="4.74603">
        <ele>13</ele>
      </trkpt>
      <trkpt lat="50.9946" lon="4.74635">
        <ele>13</ele>
      </trkpt>
      <trkpt lat="50.99456" lon="4.74687">
        <ele>13</ele>
      </trkpt>
      <trkpt lat="50.99461" lon="4.74776">
        <ele>12</ele>
      </trkpt>
      <trkpt lat="50.99491" lon="4.75037">
        <ele>13</ele>
      </trkpt>
      <trkpt lat="50.99491" lon="4.75037">
        <ele>13</ele>
      </trkpt>
      <trkpt lat="50.99502" lon="4.75122">
        <ele>13</ele>
      </trkpt>
      <trkpt lat="50.99539" lon="4.7526">
        <ele>13</ele>
      </trkpt>
      <trkpt lat="50.99551" lon="4.75303">
        <ele>13</ele>
      </trkpt>
      <trkpt lat="50.99563" lon="4.7529">
        <ele>13</ele>
      </trkpt>
      <trkpt lat="50.9959" lon="4.75393">
        <ele>14</ele>
      </trkpt>
      <trkpt lat="50.99628" lon="4.75528">
        <ele>14</ele>
      </trkpt>
      <trkpt lat="50.99651" lon="4.75608">
        <ele>14</ele>
      </trkpt>
      <trkpt lat="50.99674" lon="4.75653">
        <ele>15</ele>
      </trkpt>
      <trkpt lat="50.99688" lon="4.75687">
        <ele>15</ele>
      </trkpt>
      <trkpt lat="50.99691" lon="4.75711">
        <ele>15</ele>
      </trkpt>
      <trkpt lat="50.99696" lon="4.75806">
        <ele>15</ele>
      </trkpt>
      <trkpt lat="50.99701" lon="4.75828">
        <ele>15</ele>
      </trkpt>
      <trkpt lat="50.99719" lon="4.75865">
        <ele>16</ele>
      </trkpt>
      <trkpt lat="50.99803" lon="4.75989">
        <ele>17</ele>
      </trkpt>
      <trkpt lat="50.99819" lon="4.76018">
        <ele>18</ele>
      </trkpt>
      <trkpt lat="50.99837" lon="4.76059">
        <ele>18</ele>
      </trkpt>
      <trkpt lat="50.99849" lon="4.76095">
        <ele>19</ele>
      </trkpt>
      <trkpt lat="50.99903" lon="4.763">
        <ele>26</ele>
      </trkpt>
      <trkpt lat="50.99911" lon="4.76337">
        <ele>26</ele>
      </trkpt>
      <trkpt lat="50.99923" lon="4.76401">
        <ele>26</ele>
      </trkpt>
      <trkpt lat="50.99948" lon="4.76473">
        <ele>29</ele>
      </trkpt>
      <trkpt lat="51.00026" lon="4.76606">
        <ele>27</ele>
      </trkpt>
      <trkpt lat="51.0006" lon="4.76677">
        <ele>25</ele>
      </trkpt>
      <trkpt lat="51.00083" lon="4.76757">
        <ele>24</ele>
      </trkpt>
      <trkpt lat="51.00096" lon="4.7681">
        <ele>24</ele>
      </trkpt>
      <trkpt lat="51.00104" lon="4.76858">
        <ele>26</ele>
      </trkpt>
      <trkpt lat="51.00119" lon="4.77014">
        <ele>22</ele>
      </trkpt>
      <trkpt lat="51.00137" lon="4.77235">
        <ele>17</ele>
      </trkpt>
      <trkpt lat="51.00137" lon="4.77291">
        <ele>16</ele>
      </trkpt>
      <trkpt lat="51.00119" lon="4.77676">
        <ele>16</ele>
      </trkpt>
      <trkpt lat="51.00119" lon="4.77756">
        <ele>16</ele>
      </trkpt>
      <trkpt lat="51.0013" lon="4.77814">
        <ele>16</ele>
      </trkpt>
      <trkpt lat="51.00147" lon="4.77869">
        <ele>16</ele>
      </trkpt>
      <trkpt lat="51.00151" lon="4.7789">
        <ele>16</ele>
      </trkpt>
      <trkpt lat="51.00163" lon="4.77893">
        <ele>16</ele>
      </trkpt>
      <trkpt lat="51.00189" lon="4.7789">
        <ele>16</ele>
      </trkpt>
      <trkpt lat="51.00256" lon="4.77875">
        <ele>16</ele>
      </trkpt>
      <trkpt lat="51.0036" lon="4.77851">
        <ele>16</ele>
      </trkpt>
      <trkpt lat="51.00408" lon="4.77851">
        <ele>16</ele>
      </trkpt>
      <trkpt lat="51.00431" lon="4.77892">
        <ele>16</ele>
      </trkpt>
      <trkpt lat="51.00462" lon="4.7795">
        <ele>15</ele>
      </trkpt>
      <trkpt lat="51.00502" lon="4.78033">
        <ele>14</ele>
      </trkpt>
      <trkpt lat="51.00511" lon="4.78064">
        <ele>14</ele>
      </trkpt>
      <trkpt lat="51.00515" lon="4.78093">
        <ele>14</ele>
      </trkpt>
      <trkpt lat="51.00514" lon="4.78118">
        <ele>14</ele>
      </trkpt>
      <trkpt lat="51.00498" lon="4.78215">
        <ele>14</ele>
      </trkpt>
      <trkpt lat="51.00499" lon="4.78258">
        <ele>14</ele>
      </trkpt>
      <trkpt lat="51.00506" lon="4.78304">
        <ele>14</ele>
      </trkpt>
      <trkpt lat="51.00525" lon="4.78365">
        <ele>13</ele>
      </trkpt>
      <trkpt lat="51.00532" lon="4.78417">
        <ele>13</ele>
      </trkpt>
      <trkpt lat="51.00531" lon="4.78467">
        <ele>13</ele>
      </trkpt>
      <trkpt lat="51.00523" lon="4.7851">
        <ele>13</ele>
      </trkpt>
      <trkpt lat="51.00518" lon="4.78573">
        <ele>13</ele>
      </trkpt>
      <trkpt lat="51.00521" lon="4.78633">
        <ele>13</ele>
      </trkpt>
      <trkpt lat="51.00529" lon="4.78671">
        <ele>14</ele>
      </trkpt>
      <trkpt lat="51.00549" lon="4.7874">
        <ele>14</ele>
      </trkpt>
      <trkpt lat="51.00564" lon="4.78813">
        <ele>14</ele>
      </trkpt>
      <trkpt lat="51.00568" lon="4.78845">
        <ele>14</ele>
      </trkpt>
      <trkpt lat="51.00573" lon="4.78898">
        <ele>13</ele>
      </trkpt>
      <trkpt lat="51.00575" lon="4.78913">
        <ele>13</ele>
      </trkpt>
      <trkpt lat="51.00581" lon="4.7893">
        <ele>14</ele>
      </trkpt>
      <trkpt lat="51.00595" lon="4.78936">
        <ele>13</ele>
      </trkpt>
      <trkpt lat="51.00595" lon="4.78951">
        <ele>13</ele>
      </trkpt>
      <trkpt lat="51.00596" lon="4.7896">
        <ele>13</ele>
      </trkpt>
      <trkpt lat="51.0061" lon="4.78983">
        <ele>13</ele>
      </trkpt>
      <trkpt lat="51.00625" lon="4.7902">
        <ele>13</ele>
      </trkpt>
      <trkpt lat="51.00639" lon="4.79066">
        <ele>13</ele>
      </trkpt>
      <trkpt lat="51.00666" lon="4.79148">
        <ele>13</ele>
      </trkpt>
      <trkpt lat="51.00676" lon="4.79191">
        <ele>13</ele>
      </trkpt>
      <trkpt lat="51.00684" lon="4.79256">
        <ele>12</ele>
      </trkpt>
      <trkpt lat="51.00686" lon="4.79317">
        <ele>12</ele>
      </trkpt>
      <trkpt lat="51.00679" lon="4.79436">
        <ele>13</ele>
      </trkpt>
      <trkpt lat="51.00675" lon="4.79544">
        <ele>12</ele>
      </trkpt>
      <trkpt lat="51.00679" lon="4.79605">
        <ele>12</ele>
      </trkpt>
      <trkpt lat="51.00685" lon="4.79654">
        <ele>12</ele>
      </trkpt>
      <trkpt lat="51.00702" lon="4.79742">
        <ele>12</ele>
      </trkpt>
      <trkpt lat="51.00753" lon="4.79967">
        <ele>12</ele>
      </trkpt>
      <trkpt lat="51.00781" lon="4.80064">
        <ele>12</ele>
      </trkpt>
      <trkpt lat="51.00806" lon="4.8015">
        <ele>12</ele>
      </trkpt>
      <trkpt lat="51.00824" lon="4.80222">
        <ele>12</ele>
      </trkpt>
      <trkpt lat="51.00826" lon="4.80244">
        <ele>12</ele>
      </trkpt>
      <trkpt lat="51.00802" lon="4.80238">
        <ele>12</ele>
      </trkpt>
      <trkpt lat="51.00789" lon="4.80289">
        <ele>12</ele>
      </trkpt>
      <trkpt lat="51.00751" lon="4.80448">
        <ele>14</ele>
      </trkpt>
      <trkpt lat="51.00743" lon="4.80473">
        <ele>14</ele>
      </trkpt>
      <trkpt lat="51.00512" lon="4.81012">
        <ele>13</ele>
      </trkpt>
      <trkpt lat="51.00497" lon="4.81042">
        <ele>13</ele>
      </trkpt>
      <trkpt lat="51.00491" lon="4.81059">
        <ele>13</ele>
      </trkpt>
      <trkpt lat="51.00477" lon="4.81066">
        <ele>13</ele>
      </trkpt>
      <trkpt lat="51.00462" lon="4.81077">
        <ele>13</ele>
      </trkpt>
      <trkpt lat="51.00424" lon="4.81156">
        <ele>14</ele>
      </trkpt>
      <trkpt lat="51.00413" lon="4.81184">
        <ele>15</ele>
      </trkpt>
      <trkpt lat="51.00405" lon="4.81204">
        <ele>15</ele>
      </trkpt>
      <trkpt lat="51.00372" lon="4.81319">
        <ele>17</ele>
      </trkpt>
      <trkpt lat="51.00344" lon="4.81413">
        <ele>17</ele>
      </trkpt>
      <trkpt lat="51.00333" lon="4.81441">
        <ele>17</ele>
      </trkpt>
      <trkpt lat="51.00238" lon="4.81632">
        <ele>17</ele>
      </trkpt>
      <trkpt lat="51.00191" lon="4.81721">
        <ele>18</ele>
      </trkpt>
      <trkpt lat="51.00186" lon="4.81734">
        <ele>18</ele>
      </trkpt>
      <trkpt lat="51.00183" lon="4.81748">
        <ele>21</ele>
      </trkpt>
      <trkpt lat="51.00174" lon="4.81869">
        <ele>22</ele>
      </trkpt>
      <trkpt lat="51.00169" lon="4.81912">
        <ele>22</ele>
      </trkpt>
      <trkpt lat="51.00157" lon="4.81979">
        <ele>21</ele>
      </trkpt>
      <trkpt lat="51.00113" lon="4.82149">
        <ele>18</ele>
      </trkpt>
      <trkpt lat="51.00106" lon="4.82188">
        <ele>17</ele>
      </trkpt>
      <trkpt lat="51.00102" lon="4.82233">
        <ele>17</ele>
      </trkpt>
      <trkpt lat="51.00103" lon="4.82283">
        <ele>16</ele>
      </trkpt>
      <trkpt lat="51.00106" lon="4.82325">
        <ele>16</ele>
      </trkpt>
      <trkpt lat="51.00142" lon="4.82568">
        <ele>14</ele>
      </trkpt>
      <trkpt lat="51.00168" lon="4.8269">
        <ele>15</ele>
      </trkpt>
      <trkpt lat="51.00179" lon="4.82728">
        <ele>15</ele>
      </trkpt>
      <trkpt lat="51.00209" lon="4.82802">
        <ele>14</ele>
      </trkpt>
      <trkpt lat="51.00289" lon="4.82986">
        <ele>14</ele>
      </trkpt>
      <trkpt lat="51.00374" lon="4.83103">
        <ele>15</ele>
      </trkpt>
      <trkpt lat="51.00394" lon="4.83127">
        <ele>15</ele>
      </trkpt>
      <trkpt lat="51.00505" lon="4.83224">
        <ele>14</ele>
      </trkpt>
      <trkpt lat="51.00562" lon="4.8327">
        <ele>14</ele>
      </trkpt>
      <trkpt lat="51.00563" lon="4.83285">
        <ele>14</ele>
      </trkpt>
      <trkpt lat="51.0058" lon="4.83303">
        <ele>14</ele>
      </trkpt>
      <trkpt lat="51.00795" lon="4.83468">
        <ele>14</ele>
      </trkpt>
      <trkpt lat="51.00823" lon="4.83492">
        <ele>14</ele>
      </trkpt>
      <trkpt lat="51.00844" lon="4.83512">
        <ele>14</ele>
      </trkpt>
      <trkpt lat="51.00864" lon="4.83542">
        <ele>14</ele>
      </trkpt>
      <trkpt lat="51.00889" lon="4.83585">
        <ele>14</ele>
      </trkpt>
      <trkpt lat="51.009" lon="4.83609">
        <ele>14</ele>
      </trkpt>
      <trkpt lat="51.00917" lon="4.83682">
        <ele>15</ele>
      </trkpt>
      <trkpt lat="51.00965" lon="4.83886">
        <ele>15</ele>
      </trkpt>
      <trkpt lat="51.00986" lon="4.83986">
        <ele>15</ele>
      </trkpt>
      <trkpt lat="51.00993" lon="4.84033">
        <ele>15</ele>
      </trkpt>
      <trkpt lat="51.00994" lon="4.84083">
        <ele>15</ele>
      </trkpt>
      <trkpt lat="51.00993" lon="4.84114">
        <ele>15</ele>
      </trkpt>
      <trkpt lat="51.00988" lon="4.8415">
        <ele>15</ele>
      </trkpt>
      <trkpt lat="51.00955" lon="4.84367">
        <ele>16</ele>
      </trkpt>
      <trkpt lat="51.00943" lon="4.84432">
        <ele>17</ele>
      </trkpt>
      <trkpt lat="51.00924" lon="4.84496">
        <ele>18</ele>
      </trkpt>
      <trkpt lat="51.00919" lon="4.84522">
        <ele>18</ele>
      </trkpt>
      <trkpt lat="51.00882" lon="4.84801">
        <ele>18</ele>
      </trkpt>
      <trkpt lat="51.00867" lon="4.84907">
        <ele>18</ele>
      </trkpt>
      <trkpt lat="51.0086" lon="4.84936">
        <ele>19</ele>
      </trkpt>
      <trkpt lat="51.00826" lon="4.85008">
        <ele>19</ele>
      </trkpt>
      <trkpt lat="51.00815" lon="4.85038">
        <ele>19</ele>
      </trkpt>
      <trkpt lat="51.00808" lon="4.85062">
        <ele>20</ele>
      </trkpt>
      <trkpt lat="51.00804" lon="4.85087">
        <ele>20</ele>
      </trkpt>
      <trkpt lat="51.00801" lon="4.85116">
        <ele>20</ele>
      </trkpt>
      <trkpt lat="51.00804" lon="4.85434">
        <ele>18</ele>
      </trkpt>
      <trkpt lat="51.00821" lon="4.8555">
        <ele>18</ele>
      </trkpt>
      <trkpt lat="51.00824" lon="4.8558">
        <ele>18</ele>
      </trkpt>
      <trkpt lat="51.00823" lon="4.8562">
        <ele>18</ele>
      </trkpt>
      <trkpt lat="51.00815" lon="4.85713">
        <ele>18</ele>
      </trkpt>
      <trkpt lat="51.00809" lon="4.85801">
        <ele>17</ele>
      </trkpt>
      <trkpt lat="51.0078" lon="4.85721">
        <ele>18</ele>
      </trkpt>
      <trkpt lat="51.00753" lon="4.85646">
        <ele>18</ele>
      </trkpt>
      <trkpt lat="51.00745" lon="4.85627">
        <ele>18</ele>
      </trkpt>
      <trkpt lat="51.00728" lon="4.85606">
        <ele>18</ele>
      </trkpt>
      <trkpt lat="51.0071" lon="4.85593">
        <ele>18</ele>
      </trkpt>
      <trkpt lat="51.00691" lon="4.85588">
        <ele>18</ele>
      </trkpt>
      <trkpt lat="51.00666" lon="4.85592">
        <ele>17</ele>
      </trkpt>
      <trkpt lat="51.00668" lon="4.85634">
        <ele>17</ele>
      </trkpt>
      <trkpt lat="51.00666" lon="4.85651">
        <ele>17</ele>
      </trkpt>
      <trkpt lat="51.00624" lon="4.85873">
        <ele>15</ele>
      </trkpt>
      <trkpt lat="51.00606" lon="4.85992">
        <ele>16</ele>
      </trkpt>
      <trkpt lat="51.00593" lon="4.8613">
        <ele>18</ele>
      </trkpt>
      <trkpt lat="51.00587" lon="4.86198">
        <ele>19</ele>
      </trkpt>
      <trkpt lat="51.00581" lon="4.86465">
        <ele>17</ele>
      </trkpt>
      <trkpt lat="51.00562" lon="4.86465">
        <ele>17</ele>
      </trkpt>
      <trkpt lat="51.00474" lon="4.86465">
        <ele>21</ele>
      </trkpt>
      <trkpt lat="51.0043" lon="4.86473">
        <ele>25</ele>
      </trkpt>
      <trkpt lat="51.00395" lon="4.86488">
        <ele>25</ele>
      </trkpt>
      <trkpt lat="51.00371" lon="4.86495">
        <ele>25</ele>
      </trkpt>
      <trkpt lat="51.00346" lon="4.86498">
        <ele>24</ele>
      </trkpt>
      <trkpt lat="51.00257" lon="4.86499">
        <ele>21</ele>
      </trkpt>
      <trkpt lat="51.00156" lon="4.86503">
        <ele>20</ele>
      </trkpt>
      <trkpt lat="51.00142" lon="4.86506">
        <ele>20</ele>
      </trkpt>
      <trkpt lat="51.00128" lon="4.86512">
        <ele>20</ele>
      </trkpt>
      <trkpt lat="51.00118" lon="4.86519">
        <ele>20</ele>
      </trkpt>
      <trkpt lat="51.00103" lon="4.86535">
        <ele>20</ele>
      </trkpt>
      <trkpt lat="51.00093" lon="4.86549">
        <ele>22</ele>
      </trkpt>
      <trkpt lat="50.99967" lon="4.86769">
        <ele>26</ele>
      </trkpt>
      <trkpt lat="50.99959" lon="4.8678">
        <ele>26</ele>
      </trkpt>
      <trkpt lat="50.99939" lon="4.868">
        <ele>27</ele>
      </trkpt>
      <trkpt lat="50.99913" lon="4.86814">
        <ele>30</ele>
      </trkpt>
      <trkpt lat="50.99817" lon="4.86864">
        <ele>35</ele>
      </trkpt>
      <trkpt lat="50.99796" lon="4.86878">
        <ele>36</ele>
      </trkpt>
      <trkpt lat="50.99776" lon="4.86899">
        <ele>36</ele>
      </trkpt>
      <trkpt lat="50.99725" lon="4.86964">
        <ele>40</ele>
      </trkpt>
      <trkpt lat="50.99706" lon="4.8699">
        <ele>40</ele>
      </trkpt>
      <trkpt lat="50.99655" lon="4.8707">
        <ele>38</ele>
      </trkpt>
      <trkpt lat="50.99637" lon="4.87084">
        <ele>36</ele>
      </trkpt>
      <trkpt lat="50.99624" lon="4.87089">
        <ele>36</ele>
      </trkpt>
      <trkpt lat="50.9959" lon="4.87093">
        <ele>32</ele>
      </trkpt>
      <trkpt lat="50.99572" lon="4.87092">
        <ele>32</ele>
      </trkpt>
      <trkpt lat="50.99543" lon="4.87084">
        <ele>32</ele>
      </trkpt>
      <trkpt lat="50.99535" lon="4.87087">
        <ele>31</ele>
      </trkpt>
      <trkpt lat="50.99512" lon="4.87065">
        <ele>31</ele>
      </trkpt>
      <trkpt lat="50.99492" lon="4.87056">
        <ele>31</ele>
      </trkpt>
      <trkpt lat="50.9947" lon="4.87051">
        <ele>30</ele>
      </trkpt>
      <trkpt lat="50.99443" lon="4.8704">
        <ele>29</ele>
      </trkpt>
      <trkpt lat="50.99405" lon="4.87016">
        <ele>22</ele>
      </trkpt>
      <trkpt lat="50.99382" lon="4.86995">
        <ele>24</ele>
      </trkpt>
      <trkpt lat="50.99361" lon="4.86971">
        <ele>24</ele>
      </trkpt>
      <trkpt lat="50.99344" lon="4.86946">
        <ele>19</ele>
      </trkpt>
      <trkpt lat="50.99326" lon="4.86897">
        <ele>21</ele>
      </trkpt>
      <trkpt lat="50.99299" lon="4.86781">
        <ele>24</ele>
      </trkpt>
      <trkpt lat="50.99275" lon="4.86794">
        <ele>23</ele>
      </trkpt>
      <trkpt lat="50.99269" lon="4.86793">
        <ele>23</ele>
      </trkpt>
      <trkpt lat="50.99262" lon="4.86784">
        <ele>20</ele>
      </trkpt>
      <trkpt lat="50.99215" lon="4.8667">
        <ele>22</ele>
      </trkpt>
      <trkpt lat="50.99175" lon="4.86566">
        <ele>24</ele>
      </trkpt>
      <trkpt lat="50.99167" lon="4.86517">
        <ele>25</ele>
      </trkpt>
      <trkpt lat="50.9916" lon="4.86436">
        <ele>29</ele>
      </trkpt>
      <trkpt lat="50.99153" lon="4.86399">
        <ele>31</ele>
      </trkpt>
      <trkpt lat="50.99069" lon="4.86221">
        <ele>33</ele>
      </trkpt>
      <trkpt lat="50.99057" lon="4.86208">
        <ele>34</ele>
      </trkpt>
      <trkpt lat="50.99037" lon="4.86179">
        <ele>32</ele>
      </trkpt>
      <trkpt lat="50.99005" lon="4.86123">
        <ele>30</ele>
      </trkpt>
      <trkpt lat="50.98969" lon="4.86084">
        <ele>30</ele>
      </trkpt>
      <trkpt lat="50.98957" lon="4.86066">
        <ele>32</ele>
      </trkpt>
      <trkpt lat="50.98946" lon="4.86042">
        <ele>31</ele>
      </trkpt>
      <trkpt lat="50.9892" lon="4.85978">
        <ele>27</ele>
      </trkpt>
      <trkpt lat="50.98895" lon="4.859">
        <ele>29</ele>
      </trkpt>
      <trkpt lat="50.98871" lon="4.85832">
        <ele>28</ele>
      </trkpt>
      <trkpt lat="50.98866" lon="4.85812">
        <ele>29</ele>
      </trkpt>
      <trkpt lat="50.98863" lon="4.85793">
        <ele>29</ele>
      </trkpt>
      <trkpt lat="50.98844" lon="4.85602">
        <ele>24</ele>
      </trkpt>
      <trkpt lat="50.9883" lon="4.85428">
        <ele>24</ele>
      </trkpt>
      <trkpt lat="50.98827" lon="4.85394">
        <ele>24</ele>
      </trkpt>
      <trkpt lat="50.98828" lon="4.85352">
        <ele>24</ele>
      </trkpt>
      <trkpt lat="50.98835" lon="4.85221">
        <ele>21</ele>
      </trkpt>
      <trkpt lat="50.98838" lon="4.85199">
        <ele>21</ele>
      </trkpt>
      <trkpt lat="50.98848" lon="4.85164">
        <ele>20</ele>
      </trkpt>
      <trkpt lat="50.98851" lon="4.85147">
        <ele>21</ele>
      </trkpt>
      <trkpt lat="50.98839" lon="4.85137">
        <ele>19</ele>
      </trkpt>
      <trkpt lat="50.98794" lon="4.85063">
        <ele>16</ele>
      </trkpt>
      <trkpt lat="50.98765" lon="4.85008">
        <ele>14</ele>
      </trkpt>
      <trkpt lat="50.98751" lon="4.84968">
        <ele>13</ele>
      </trkpt>
      <trkpt lat="50.9871" lon="4.84821">
        <ele>12</ele>
      </trkpt>
      <trkpt lat="50.98675" lon="4.84694">
        <ele>12</ele>
      </trkpt>
      <trkpt lat="50.98666" lon="4.84647">
        <ele>12</ele>
      </trkpt>
      <trkpt lat="50.98663" lon="4.84617">
        <ele>12</ele>
      </trkpt>
      <trkpt lat="50.98664" lon="4.84554">
        <ele>13</ele>
      </trkpt>
      <trkpt lat="50.98672" lon="4.84427">
        <ele>14</ele>
      </trkpt>
      <trkpt lat="50.987" lon="4.84272">
        <ele>14</ele>
      </trkpt>
      <trkpt lat="50.98709" lon="4.84198">
        <ele>14</ele>
      </trkpt>
      <trkpt lat="50.98703" lon="4.84169">
        <ele>14</ele>
      </trkpt>
      <trkpt lat="50.98694" lon="4.84149">
        <ele>15</ele>
      </trkpt>
      <trkpt lat="50.98685" lon="4.84117">
        <ele>15</ele>
      </trkpt>
      <trkpt lat="50.98681" lon="4.84098">
        <ele>15</ele>
      </trkpt>
      <trkpt lat="50.98677" lon="4.84068">
        <ele>15</ele>
      </trkpt>
      <trkpt lat="50.98676" lon="4.84034">
        <ele>15</ele>
      </trkpt>
      <trkpt lat="50.98678" lon="4.83992">
        <ele>15</ele>
      </trkpt>
      <trkpt lat="50.98685" lon="4.8396">
        <ele>15</ele>
      </trkpt>
      <trkpt lat="50.98693" lon="4.83929">
        <ele>15</ele>
      </trkpt>
      <trkpt lat="50.98701" lon="4.83923">
        <ele>15</ele>
      </trkpt>
      <trkpt lat="50.98714" lon="4.83884">
        <ele>14</ele>
      </trkpt>
      <trkpt lat="50.98729" lon="4.8385">
        <ele>14</ele>
      </trkpt>
      <trkpt lat="50.98727" lon="4.83834">
        <ele>14</ele>
      </trkpt>
      <trkpt lat="50.98752" lon="4.83777">
        <ele>14</ele>
      </trkpt>
      <trkpt lat="50.98759" lon="4.83761">
        <ele>14</ele>
      </trkpt>
      <trkpt lat="50.98771" lon="4.83697">
        <ele>14</ele>
      </trkpt>
      <trkpt lat="50.98776" lon="4.83677">
        <ele>14</ele>
      </trkpt>
      <trkpt lat="50.98774" lon="4.83663">
        <ele>14</ele>
      </trkpt>
      <trkpt lat="50.98775" lon="4.83658">
        <ele>14</ele>
      </trkpt>
      <trkpt lat="50.98723" lon="4.83254">
        <ele>15</ele>
      </trkpt>
      <trkpt lat="50.98707" lon="4.83154">
        <ele>14</ele>
      </trkpt>
      <trkpt lat="50.98689" lon="4.83058">
        <ele>13</ele>
      </trkpt>
      <trkpt lat="50.98682" lon="4.8301">
        <ele>13</ele>
      </trkpt>
      <trkpt lat="50.9868" lon="4.82988">
        <ele>13</ele>
      </trkpt>
      <trkpt lat="50.98681" lon="4.82962">
        <ele>13</ele>
      </trkpt>
      <trkpt lat="50.98685" lon="4.82939">
        <ele>13</ele>
      </trkpt>
      <trkpt lat="50.98692" lon="4.82915">
        <ele>13</ele>
      </trkpt>
      <trkpt lat="50.98694" lon="4.82895">
        <ele>13</ele>
      </trkpt>
      <trkpt lat="50.987" lon="4.82818">
        <ele>13</ele>
      </trkpt>
      <trkpt lat="50.9871" lon="4.82675">
        <ele>13</ele>
      </trkpt>
      <trkpt lat="50.98719" lon="4.82619">
        <ele>13</ele>
      </trkpt>
      <trkpt lat="50.98726" lon="4.82584">
        <ele>13</ele>
      </trkpt>
      <trkpt lat="50.98736" lon="4.82545">
        <ele>13</ele>
      </trkpt>
      <trkpt lat="50.9882" lon="4.82277">
        <ele>11</ele>
      </trkpt>
      <trkpt lat="50.98782" lon="4.8226">
        <ele>12</ele>
      </trkpt>
      <trkpt lat="50.98765" lon="4.82246">
        <ele>12</ele>
      </trkpt>
      <trkpt lat="50.98769" lon="4.82236">
        <ele>12</ele>
      </trkpt>
      <trkpt lat="50.98771" lon="4.8222">
        <ele>12</ele>
      </trkpt>
      <trkpt lat="50.98835" lon="4.82088">
        <ele>11</ele>
      </trkpt>
      <trkpt lat="50.98853" lon="4.82045">
        <ele>11</ele>
      </trkpt>
      <trkpt lat="50.98859" lon="4.82023">
        <ele>11</ele>
      </trkpt>
      <trkpt lat="50.98865" lon="4.81996">
        <ele>12</ele>
      </trkpt>
      <trkpt lat="50.98869" lon="4.8196">
        <ele>12</ele>
      </trkpt>
      <trkpt lat="50.98871" lon="4.8185">
        <ele>12</ele>
      </trkpt>
      <trkpt lat="50.98868" lon="4.81763">
        <ele>11</ele>
      </trkpt>
      <trkpt lat="50.98854" lon="4.816">
        <ele>11</ele>
      </trkpt>
      <trkpt lat="50.98842" lon="4.81541">
        <ele>10</ele>
      </trkpt>
      <trkpt lat="50.98812" lon="4.81392">
        <ele>10</ele>
      </trkpt>
      <trkpt lat="50.98795" lon="4.81268">
        <ele>11</ele>
      </trkpt>
      <trkpt lat="50.9878" lon="4.81197">
        <ele>11</ele>
      </trkpt>
      <trkpt lat="50.98756" lon="4.81097">
        <ele>10</ele>
      </trkpt>
      <trkpt lat="50.98738" lon="4.81055">
        <ele>10</ele>
      </trkpt>
      <trkpt lat="50.9873" lon="4.81012">
        <ele>10</ele>
      </trkpt>
      <trkpt lat="50.98723" lon="4.80962">
        <ele>9</ele>
      </trkpt>
      <trkpt lat="50.98709" lon="4.80904">
        <ele>9</ele>
      </trkpt>
      <trkpt lat="50.98691" lon="4.80846">
        <ele>9</ele>
      </trkpt>
      <trkpt lat="50.98626" lon="4.80666">
        <ele>10</ele>
      </trkpt>
      <trkpt lat="50.98614" lon="4.80614">
        <ele>10</ele>
      </trkpt>
      <trkpt lat="50.98592" lon="4.80472">
        <ele>10</ele>
      </trkpt>
      <trkpt lat="50.98574" lon="4.80405">
        <ele>10</ele>
      </trkpt>
      <trkpt lat="50.98565" lon="4.80376">
        <ele>10</ele>
      </trkpt>
      <trkpt lat="50.98552" lon="4.80347">
        <ele>10</ele>
      </trkpt>
      <trkpt lat="50.98538" lon="4.80325">
        <ele>10</ele>
      </trkpt>
      <trkpt lat="50.98497" lon="4.80287">
        <ele>9</ele>
      </trkpt>
      <trkpt lat="50.98483" lon="4.80268">
        <ele>9</ele>
      </trkpt>
      <trkpt lat="50.98454" lon="4.80216">
        <ele>10</ele>
      </trkpt>
      <trkpt lat="50.98431" lon="4.80182">
        <ele>10</ele>
      </trkpt>
      <trkpt lat="50.98374" lon="4.80104">
        <ele>9</ele>
      </trkpt>
      <trkpt lat="50.98336" lon="4.80064">
        <ele>9</ele>
      </trkpt>
      <trkpt lat="50.98318" lon="4.80051">
        <ele>9</ele>
      </trkpt>
      <trkpt lat="50.983" lon="4.80042">
        <ele>9</ele>
      </trkpt>
      <trkpt lat="50.98251" lon="4.80031">
        <ele>10</ele>
      </trkpt>
      <trkpt lat="50.98183" lon="4.80023">
        <ele>10</ele>
      </trkpt>
      <trkpt lat="50.9816" lon="4.80017">
        <ele>10</ele>
      </trkpt>
      <trkpt lat="50.98144" lon="4.8001">
        <ele>10</ele>
      </trkpt>
      <trkpt lat="50.98112" lon="4.79985">
        <ele>10</ele>
      </trkpt>
      <trkpt lat="50.98094" lon="4.79966">
        <ele>10</ele>
      </trkpt>
      <trkpt lat="50.98074" lon="4.79941">
        <ele>10</ele>
      </trkpt>
      <trkpt lat="50.98044" lon="4.79896">
        <ele>11</ele>
      </trkpt>
      <trkpt lat="50.98003" lon="4.79851">
        <ele>10</ele>
      </trkpt>
      <trkpt lat="50.97996" lon="4.79839">
        <ele>10</ele>
      </trkpt>
      <trkpt lat="50.97994" lon="4.79821">
        <ele>10</ele>
      </trkpt>
      <trkpt lat="50.97996" lon="4.79772">
        <ele>10</ele>
      </trkpt>
      <trkpt lat="50.98001" lon="4.79745">
        <ele>10</ele>
      </trkpt>
      <trkpt lat="50.9802" lon="4.7972">
        <ele>10</ele>
      </trkpt>
      <trkpt lat="50.98042" lon="4.79679">
        <ele>10</ele>
      </trkpt>
      <trkpt lat="50.98043" lon="4.79629">
        <ele>10</ele>
      </trkpt>
      <trkpt lat="50.9799" lon="4.79529">
        <ele>10</ele>
      </trkpt>
      <trkpt lat="50.97968" lon="4.79482">
        <ele>10</ele>
      </trkpt>
      <trkpt lat="50.9797" lon="4.79431">
        <ele>10</ele>
      </trkpt>
      <trkpt lat="50.97995" lon="4.79381">
        <ele>10</ele>
      </trkpt>
      <trkpt lat="50.97997" lon="4.79299">
        <ele>10</ele>
      </trkpt>
      <trkpt lat="50.98013" lon="4.79221">
        <ele>10</ele>
      </trkpt>
      <trkpt lat="50.98035" lon="4.79171">
        <ele>9</ele>
      </trkpt>
      <trkpt lat="50.98048" lon="4.79139">
        <ele>10</ele>
      </trkpt>
      <trkpt lat="50.9805" lon="4.79118">
        <ele>10</ele>
      </trkpt>
      <trkpt lat="50.98045" lon="4.79095">
        <ele>10</ele>
      </trkpt>
      <trkpt lat="50.98026" lon="4.79046">
        <ele>11</ele>
      </trkpt>
      <trkpt lat="50.9802" lon="4.79021">
        <ele>11</ele>
      </trkpt>
      <trkpt lat="50.98012" lon="4.7895">
        <ele>12</ele>
      </trkpt>
      <trkpt lat="50.98007" lon="4.78848">
        <ele>12</ele>
      </trkpt>
      <trkpt lat="50.97993" lon="4.78742">
        <ele>12</ele>
      </trkpt>
      <trkpt lat="50.97991" lon="4.78717">
        <ele>12</ele>
      </trkpt>
      <trkpt lat="50.97992" lon="4.78667">
        <ele>13</ele>
      </trkpt>
      <trkpt lat="50.97999" lon="4.78611">
        <ele>14</ele>
      </trkpt>
      <trkpt lat="50.98005" lon="4.78589">
        <ele>14</ele>
      </trkpt>
      <trkpt lat="50.98022" lon="4.78545">
        <ele>14</ele>
      </trkpt>
      <trkpt lat="50.98027" lon="4.78525">
        <ele>14</ele>
      </trkpt>
      <trkpt lat="50.98031" lon="4.7849">
        <ele>13</ele>
      </trkpt>
      <trkpt lat="50.98029" lon="4.78469">
        <ele>12</ele>
      </trkpt>
      <trkpt lat="50.98024" lon="4.78442">
        <ele>12</ele>
      </trkpt>
      <trkpt lat="50.97966" lon="4.78191">
        <ele>10</ele>
      </trkpt>
      <trkpt lat="50.97963" lon="4.7816">
        <ele>9</ele>
      </trkpt>
      <trkpt lat="50.97943" lon="4.78163">
        <ele>9</ele>
      </trkpt>
      <trkpt lat="50.97881" lon="4.7817">
        <ele>12</ele>
      </trkpt>
      <trkpt lat="50.97727" lon="4.78156">
        <ele>13</ele>
      </trkpt>
      <trkpt lat="50.9764" lon="4.78135">
        <ele>11</ele>
      </trkpt>
      <trkpt lat="50.97548" lon="4.7811">
        <ele>11</ele>
      </trkpt>
      <trkpt lat="50.97154" lon="4.78002">
        <ele>14</ele>
      </trkpt>
      <trkpt lat="50.97153" lon="4.78009">
        <ele>14</ele>
      </trkpt>
      <trkpt lat="50.97149" lon="4.78016">
        <ele>14</ele>
      </trkpt>
      <trkpt lat="50.97144" lon="4.7802">
        <ele>14</ele>
      </trkpt>
      <trkpt lat="50.97139" lon="4.7802">
        <ele>14</ele>
      </trkpt>
      <trkpt lat="50.9713" lon="4.78014">
        <ele>14</ele>
      </trkpt>
      <trkpt lat="50.97127" lon="4.78005">
        <ele>14</ele>
      </trkpt>
      <trkpt lat="50.97126" lon="4.77996">
        <ele>14</ele>
      </trkpt>
      <trkpt lat="50.97128" lon="4.77987">
        <ele>14</ele>
      </trkpt>
      <trkpt lat="50.97131" lon="4.77981">
        <ele>14</ele>
      </trkpt>
      <trkpt lat="50.97139" lon="4.77976">
        <ele>14</ele>
      </trkpt>
      <trkpt lat="50.97133" lon="4.77959">
        <ele>14</ele>
      </trkpt>
      <trkpt lat="50.97128" lon="4.77952">
        <ele>14</ele>
      </trkpt>
      <trkpt lat="50.97088" lon="4.77908">
        <ele>15</ele>
      </trkpt>
      <trkpt lat="50.96966" lon="4.77852">
        <ele>15</ele>
      </trkpt>
      <trkpt lat="50.96933" lon="4.77836">
        <ele>15</ele>
      </trkpt>
      <trkpt lat="50.96868" lon="4.77794">
        <ele>16</ele>
      </trkpt>
      <trkpt lat="50.9664" lon="4.7764">
        <ele>20</ele>
      </trkpt>
      <trkpt lat="50.96371" lon="4.76358">
        <ele>21</ele>
      </trkpt>
      <trkpt lat="50.96359" lon="4.76291">
        <ele>23</ele>
      </trkpt>
      <trkpt lat="50.96283" lon="4.75946">
        <ele>33</ele>
      </trkpt>
      <trkpt lat="50.96191" lon="4.75496">
        <ele>37</ele>
      </trkpt>
      <trkpt lat="50.96177" lon="4.75418">
        <ele>32</ele>
      </trkpt>
      <trkpt lat="50.96169" lon="4.75289">
        <ele>29</ele>
      </trkpt>
      <trkpt lat="50.96157" lon="4.75147">
        <ele>28</ele>
      </trkpt>
      <trkpt lat="50.9615" lon="4.75147">
        <ele>28</ele>
      </trkpt>
      <trkpt lat="50.96035" lon="4.75254">
        <ele>24</ele>
      </trkpt>
      <trkpt lat="50.96022" lon="4.75266">
        <ele>24</ele>
      </trkpt>
      <trkpt lat="50.96012" lon="4.7527">
        <ele>23</ele>
      </trkpt>
      <trkpt lat="50.96009" lon="4.7527">
        <ele>23</ele>
      </trkpt>
      <trkpt lat="50.96003" lon="4.75263">
        <ele>23</ele>
      </trkpt>
      <trkpt lat="50.95936" lon="4.75129">
        <ele>22</ele>
      </trkpt>
      <trkpt lat="50.95935" lon="4.75116">
        <ele>22</ele>
      </trkpt>
      <trkpt lat="50.95937" lon="4.751">
        <ele>22</ele>
      </trkpt>
      <trkpt lat="50.95935" lon="4.75082">
        <ele>22</ele>
      </trkpt>
      <trkpt lat="50.95929" lon="4.75071">
        <ele>21</ele>
      </trkpt>
      <trkpt lat="50.95885" lon="4.75018">
        <ele>21</ele>
      </trkpt>
      <trkpt lat="50.95877" lon="4.75006">
        <ele>21</ele>
      </trkpt>
      <trkpt lat="50.95833" lon="4.74917">
        <ele>19</ele>
      </trkpt>
      <trkpt lat="50.95803" lon="4.74869">
        <ele>18</ele>
      </trkpt>
      <trkpt lat="50.95797" lon="4.74863">
        <ele>18</ele>
      </trkpt>
      <trkpt lat="50.95782" lon="4.74857">
        <ele>18</ele>
      </trkpt>
      <trkpt lat="50.95771" lon="4.74857">
        <ele>18</ele>
      </trkpt>
      <trkpt lat="50.95735" lon="4.7487">
        <ele>16</ele>
      </trkpt>
      <trkpt lat="50.95718" lon="4.74869">
        <ele>16</ele>
      </trkpt>
      <trkpt lat="50.95702" lon="4.74861">
        <ele>16</ele>
      </trkpt>
      <trkpt lat="50.95687" lon="4.74841">
        <ele>16</ele>
      </trkpt>
      <trkpt lat="50.95605" lon="4.74693">
        <ele>15</ele>
      </trkpt>
      <trkpt lat="50.95516" lon="4.74445">
        <ele>15</ele>
      </trkpt>
      <trkpt lat="50.95472" lon="4.74304">
        <ele>14</ele>
      </trkpt>
      <trkpt lat="50.95424" lon="4.74165">
        <ele>13</ele>
      </trkpt>
      <trkpt lat="50.95416" lon="4.74127">
        <ele>13</ele>
      </trkpt>
      <trkpt lat="50.95412" lon="4.74084">
        <ele>13</ele>
      </trkpt>
      <trkpt lat="50.95401" lon="4.74048">
        <ele>13</ele>
      </trkpt>
      <trkpt lat="50.95387" lon="4.7399">
        <ele>13</ele>
      </trkpt>
      <trkpt lat="50.95387" lon="4.7397">
        <ele>13</ele>
      </trkpt>
      <trkpt lat="50.95387" lon="4.73915">
        <ele>13</ele>
      </trkpt>
      <trkpt lat="50.95318" lon="4.73903">
        <ele>12</ele>
      </trkpt>
      <trkpt lat="50.95253" lon="4.73907">
        <ele>11</ele>
      </trkpt>
      <trkpt lat="50.95214" lon="4.73906">
        <ele>11</ele>
      </trkpt>
      <trkpt lat="50.95191" lon="4.73901">
        <ele>11</ele>
      </trkpt>
      <trkpt lat="50.95162" lon="4.73884">
        <ele>11</ele>
      </trkpt>
      <trkpt lat="50.95143" lon="4.73875">
        <ele>12</ele>
      </trkpt>
      <trkpt lat="50.9512" lon="4.73873">
        <ele>11</ele>
      </trkpt>
      <trkpt lat="50.95102" lon="4.73878">
        <ele>11</ele>
      </trkpt>
      <trkpt lat="50.95093" lon="4.73887">
        <ele>11</ele>
      </trkpt>
      <trkpt lat="50.95072" lon="4.73899">
        <ele>11</ele>
      </trkpt>
      <trkpt lat="50.9502" lon="4.7392">
        <ele>12</ele>
      </trkpt>
      <trkpt lat="50.94973" lon="4.73947">
        <ele>12</ele>
      </trkpt>
      <trkpt lat="50.94964" lon="4.73953">
        <ele>12</ele>
      </trkpt>
      <trkpt lat="50.94893" lon="4.74008">
        <ele>12</ele>
      </trkpt>
      <trkpt lat="50.94878" lon="4.74017">
        <ele>12</ele>
      </trkpt>
      <trkpt lat="50.94839" lon="4.74033">
        <ele>12</ele>
      </trkpt>
      <trkpt lat="50.94821" lon="4.74044">
        <ele>12</ele>
      </trkpt>
      <trkpt lat="50.94768" lon="4.74085">
        <ele>13</ele>
      </trkpt>
      <trkpt lat="50.94755" lon="4.74089">
        <ele>13</ele>
      </trkpt>
      <trkpt lat="50.94689" lon="4.74082">
        <ele>14</ele>
      </trkpt>
      <trkpt lat="50.94696" lon="4.74045">
        <ele>13</ele>
      </trkpt>
      <trkpt lat="50.94711" lon="4.73938">
        <ele>12</ele>
      </trkpt>
      <trkpt lat="50.94713" lon="4.73871">
        <ele>12</ele>
      </trkpt>
      <trkpt lat="50.94714" lon="4.73716">
        <ele>12</ele>
      </trkpt>
      <trkpt lat="50.94712" lon="4.73667">
        <ele>12</ele>
      </trkpt>
      <trkpt lat="50.94707" lon="4.73622">
        <ele>12</ele>
      </trkpt>
      <trkpt lat="50.94701" lon="4.7358">
        <ele>12</ele>
      </trkpt>
      <trkpt lat="50.947" lon="4.73554">
        <ele>12</ele>
      </trkpt>
      <trkpt lat="50.94702" lon="4.73537">
        <ele>12</ele>
      </trkpt>
      <trkpt lat="50.94708" lon="4.7351">
        <ele>12</ele>
      </trkpt>
      <trkpt lat="50.94705" lon="4.73497">
        <ele>12</ele>
      </trkpt>
      <trkpt lat="50.94686" lon="4.73448">
        <ele>12</ele>
      </trkpt>
      <trkpt lat="50.94681" lon="4.73441">
        <ele>12</ele>
      </trkpt>
      <trkpt lat="50.94663" lon="4.73427">
        <ele>12</ele>
      </trkpt>
      <trkpt lat="50.94662" lon="4.73417">
        <ele>12</ele>
      </trkpt>
      <trkpt lat="50.94665" lon="4.73404">
        <ele>12</ele>
      </trkpt>
      <trkpt lat="50.94678" lon="4.73378">
        <ele>12</ele>
      </trkpt>
      <trkpt lat="50.94684" lon="4.73377">
        <ele>12</ele>
      </trkpt>
      <trkpt lat="50.94689" lon="4.73381">
        <ele>12</ele>
      </trkpt>
      <trkpt lat="50.94693" lon="4.73392">
        <ele>12</ele>
      </trkpt>
      <trkpt lat="50.947" lon="4.73397">
        <ele>12</ele>
      </trkpt>
      <trkpt lat="50.94703" lon="4.73395">
        <ele>12</ele>
      </trkpt>
      <trkpt lat="50.94744" lon="4.73345">
        <ele>12</ele>
      </trkpt>
      <trkpt lat="50.94756" lon="4.73322">
        <ele>12</ele>
      </trkpt>
      <trkpt lat="50.94757" lon="4.73312">
        <ele>12</ele>
      </trkpt>
      <trkpt lat="50.94757" lon="4.73293">
        <ele>12</ele>
      </trkpt>
      <trkpt lat="50.9472" lon="4.73146">
        <ele>13</ele>
      </trkpt>
      <trkpt lat="50.94711" lon="4.73111">
        <ele>13</ele>
      </trkpt>
      <trkpt lat="50.947" lon="4.73087">
        <ele>13</ele>
      </trkpt>
      <trkpt lat="50.94685" lon="4.73063">
        <ele>13</ele>
      </trkpt>
      <trkpt lat="50.94621" lon="4.72982">
        <ele>13</ele>
      </trkpt>
      <trkpt lat="50.94542" lon="4.7291">
        <ele>13</ele>
      </trkpt>
      <trkpt lat="50.94475" lon="4.72857">
        <ele>12</ele>
      </trkpt>
      <trkpt lat="50.94433" lon="4.72836">
        <ele>12</ele>
      </trkpt>
      <trkpt lat="50.94416" lon="4.72826">
        <ele>12</ele>
      </trkpt>
      <trkpt lat="50.94274" lon="4.72618">
        <ele>9</ele>
      </trkpt>
      <trkpt lat="50.94266" lon="4.72593">
        <ele>9</ele>
      </trkpt>
      <trkpt lat="50.94194" lon="4.72374">
        <ele>10</ele>
      </trkpt>
      <trkpt lat="50.94181" lon="4.7234">
        <ele>11</ele>
      </trkpt>
      <trkpt lat="50.94118" lon="4.72236">
        <ele>11</ele>
      </trkpt>
      <trkpt lat="50.94083" lon="4.72179">
        <ele>11</ele>
      </trkpt>
      <trkpt lat="50.94011" lon="4.72061">
        <ele>11</ele>
      </trkpt>
      <trkpt lat="50.93989" lon="4.72013">
        <ele>11</ele>
      </trkpt>
      <trkpt lat="50.9398" lon="4.71892">
        <ele>10</ele>
      </trkpt>
      <trkpt lat="50.93979" lon="4.71823">
        <ele>10</ele>
      </trkpt>
      <trkpt lat="50.93995" lon="4.71661">
        <ele>12</ele>
      </trkpt>
      <trkpt lat="50.93995" lon="4.71619">
        <ele>12</ele>
      </trkpt>
      <trkpt lat="50.93994" lon="4.71575">
        <ele>13</ele>
      </trkpt>
      <trkpt lat="50.93954" lon="4.71244">
        <ele>14</ele>
      </trkpt>
      <trkpt lat="50.9395" lon="4.71197">
        <ele>14</ele>
      </trkpt>
      <trkpt lat="50.93951" lon="4.71186">
        <ele>14</ele>
      </trkpt>
      <trkpt lat="50.93955" lon="4.71164">
        <ele>14</ele>
      </trkpt>
      <trkpt lat="50.93964" lon="4.71141">
        <ele>14</ele>
      </trkpt>
      <trkpt lat="50.94059" lon="4.70987">
        <ele>14</ele>
      </trkpt>
      <trkpt lat="50.94095" lon="4.70939">
        <ele>13</ele>
      </trkpt>
      <trkpt lat="50.94133" lon="4.70895">
        <ele>11</ele>
      </trkpt>
      <trkpt lat="50.94154" lon="4.70877">
        <ele>11</ele>
      </trkpt>
      <trkpt lat="50.94271" lon="4.70781">
        <ele>12</ele>
      </trkpt>
      <trkpt lat="50.94293" lon="4.7076">
        <ele>12</ele>
      </trkpt>
      <trkpt lat="50.94304" lon="4.70742">
        <ele>12</ele>
      </trkpt>
      <trkpt lat="50.94314" lon="4.70716">
        <ele>12</ele>
      </trkpt>
      <trkpt lat="50.94316" lon="4.70705">
        <ele>12</ele>
      </trkpt>
      <trkpt lat="50.94324" lon="4.7065">
        <ele>11</ele>
      </trkpt>
      <trkpt lat="50.94329" lon="4.70634">
        <ele>11</ele>
      </trkpt>
      <trkpt lat="50.9434" lon="4.70612">
        <ele>11</ele>
      </trkpt>
      <trkpt lat="50.94352" lon="4.70596">
        <ele>10</ele>
      </trkpt>
      <trkpt lat="50.94547" lon="4.70403">
        <ele>11</ele>
      </trkpt>
      <trkpt lat="50.94573" lon="4.70377">
        <ele>10</ele>
      </trkpt>
      <trkpt lat="50.94589" lon="4.70365">
        <ele>11</ele>
      </trkpt>
      <trkpt lat="50.94611" lon="4.70353">
        <ele>11</ele>
      </trkpt>
      <trkpt lat="50.94643" lon="4.70343">
        <ele>11</ele>
      </trkpt>
      <trkpt lat="50.94696" lon="4.70341">
        <ele>11</ele>
      </trkpt>
      <trkpt lat="50.94723" lon="4.70349">
        <ele>11</ele>
      </trkpt>
      <trkpt lat="50.94733" lon="4.70349">
        <ele>11</ele>
      </trkpt>
      <trkpt lat="50.94782" lon="4.70336">
        <ele>11</ele>
      </trkpt>
      <trkpt lat="50.94775" lon="4.70295">
        <ele>10</ele>
      </trkpt>
      <trkpt lat="50.94765" lon="4.70249">
        <ele>11</ele>
      </trkpt>
      <trkpt lat="50.94753" lon="4.70206">
        <ele>10</ele>
      </trkpt>
      <trkpt lat="50.94463" lon="4.69676">
        <ele>11</ele>
      </trkpt>
      <trkpt lat="50.94327" lon="4.69431">
        <ele>13</ele>
      </trkpt>
      <trkpt lat="50.943" lon="4.69399">
        <ele>13</ele>
      </trkpt>
      <trkpt lat="50.94277" lon="4.69377">
        <ele>13</ele>
      </trkpt>
      <trkpt lat="50.94261" lon="4.69366">
        <ele>13</ele>
      </trkpt>
      <trkpt lat="50.94175" lon="4.69318">
        <ele>13</ele>
      </trkpt>
      <trkpt lat="50.94158" lon="4.69318">
        <ele>13</ele>
      </trkpt>
      <trkpt lat="50.9411" lon="4.69326">
        <ele>13</ele>
      </trkpt>
      <trkpt lat="50.94095" lon="4.6933">
        <ele>13</ele>
      </trkpt>
      <trkpt lat="50.93945" lon="4.69417">
        <ele>12</ele>
      </trkpt>
      <trkpt lat="50.9389" lon="4.69445">
        <ele>12</ele>
      </trkpt>
      <trkpt lat="50.93799" lon="4.69491">
        <ele>13</ele>
      </trkpt>
      <trkpt lat="50.93772" lon="4.69514">
        <ele>13</ele>
      </trkpt>
      <trkpt lat="50.93712" lon="4.69577">
        <ele>13</ele>
      </trkpt>
      <trkpt lat="50.93591" lon="4.69697">
        <ele>15</ele>
      </trkpt>
      <trkpt lat="50.93583" lon="4.69703">
        <ele>15</ele>
      </trkpt>
      <trkpt lat="50.93508" lon="4.69735">
        <ele>15</ele>
      </trkpt>
      <trkpt lat="50.93479" lon="4.69745">
        <ele>14</ele>
      </trkpt>
      <trkpt lat="50.93387" lon="4.69758">
        <ele>15</ele>
      </trkpt>
      <trkpt lat="50.93367" lon="4.69753">
        <ele>15</ele>
      </trkpt>
      <trkpt lat="50.93336" lon="4.69737">
        <ele>15</ele>
      </trkpt>
      <trkpt lat="50.93297" lon="4.69736">
        <ele>15</ele>
      </trkpt>
      <trkpt lat="50.93046" lon="4.69708">
        <ele>16</ele>
      </trkpt>
      <trkpt lat="50.92975" lon="4.69691">
        <ele>16</ele>
      </trkpt>
      <trkpt lat="50.92954" lon="4.6969">
        <ele>16</ele>
      </trkpt>
      <trkpt lat="50.92932" lon="4.69676">
        <ele>16</ele>
      </trkpt>
      <trkpt lat="50.929" lon="4.69658">
        <ele>16</ele>
      </trkpt>
      <trkpt lat="50.92813" lon="4.69593">
        <ele>17</ele>
      </trkpt>
      <trkpt lat="50.92675" lon="4.69467">
        <ele>18</ele>
      </trkpt>
      <trkpt lat="50.92595" lon="4.69385">
        <ele>17</ele>
      </trkpt>
      <trkpt lat="50.92507" lon="4.69247">
        <ele>17</ele>
      </trkpt>
      <trkpt lat="50.92486" lon="4.69239">
        <ele>17</ele>
      </trkpt>
      <trkpt lat="50.92427" lon="4.69232">
        <ele>18</ele>
      </trkpt>
      <trkpt lat="50.92381" lon="4.69213">
        <ele>18</ele>
      </trkpt>
      <trkpt lat="50.92369" lon="4.69221">
        <ele>18</ele>
      </trkpt>
      <trkpt lat="50.92358" lon="4.6922">
        <ele>18</ele>
      </trkpt>
      <trkpt lat="50.92295" lon="4.69205">
        <ele>19</ele>
      </trkpt>
      <trkpt lat="50.9224" lon="4.69188">
        <ele>20</ele>
      </trkpt>
      <trkpt lat="50.92229" lon="4.69174">
        <ele>20</ele>
      </trkpt>
      <trkpt lat="50.92225" lon="4.69161">
        <ele>20</ele>
      </trkpt>
      <trkpt lat="50.92191" lon="4.69021">
        <ele>20</ele>
      </trkpt>
      <trkpt lat="50.92179" lon="4.69005">
        <ele>20</ele>
      </trkpt>
      <trkpt lat="50.92076" lon="4.68885">
        <ele>20</ele>
      </trkpt>
      <trkpt lat="50.91939" lon="4.68785">
        <ele>20</ele>
      </trkpt>
      <trkpt lat="50.91772" lon="4.68619">
        <ele>20</ele>
      </trkpt>
      <trkpt lat="50.91702" lon="4.68547">
        <ele>20</ele>
      </trkpt>
      <trkpt lat="50.91685" lon="4.68523">
        <ele>20</ele>
      </trkpt>
      <trkpt lat="50.91681" lon="4.68527">
        <ele>20</ele>
      </trkpt>
      <trkpt lat="50.91673" lon="4.68528">
        <ele>20</ele>
      </trkpt>
      <trkpt lat="50.9167" lon="4.68525">
        <ele>20</ele>
      </trkpt>
      <trkpt lat="50.91667" lon="4.68529">
        <ele>20</ele>
      </trkpt>
      <trkpt lat="50.91647" lon="4.68542">
        <ele>21</ele>
      </trkpt>
      <trkpt lat="50.91509" lon="4.68605">
        <ele>20</ele>
      </trkpt>
      <trkpt lat="50.91436" lon="4.68637">
        <ele>19</ele>
      </trkpt>
      <trkpt lat="50.91391" lon="4.68647">
        <ele>19</ele>
      </trkpt>
      <trkpt lat="50.91361" lon="4.68645">
        <ele>19</ele>
      </trkpt>
      <trkpt lat="50.91337" lon="4.68641">
        <ele>19</ele>
      </trkpt>
      <trkpt lat="50.91309" lon="4.68633">
        <ele>19</ele>
      </trkpt>
      <trkpt lat="50.91296" lon="4.68627">
        <ele>19</ele>
      </trkpt>
      <trkpt lat="50.91277" lon="4.68616">
        <ele>19</ele>
      </trkpt>
      <trkpt lat="50.91163" lon="4.68522">
        <ele>20</ele>
      </trkpt>
      <trkpt lat="50.90955" lon="4.68343">
        <ele>21</ele>
      </trkpt>
      <trkpt lat="50.90937" lon="4.68333">
        <ele>22</ele>
      </trkpt>
      <trkpt lat="50.90926" lon="4.6833">
        <ele>22</ele>
      </trkpt>
      <trkpt lat="50.90727" lon="4.68344">
        <ele>25</ele>
      </trkpt>
      <trkpt lat="50.90693" lon="4.68352">
        <ele>26</ele>
      </trkpt>
      <trkpt lat="50.90645" lon="4.68373">
        <ele>28</ele>
      </trkpt>
      <trkpt lat="50.90572" lon="4.68413">
        <ele>29</ele>
      </trkpt>
      <trkpt lat="50.90564" lon="4.68422">
        <ele>29</ele>
      </trkpt>
      <trkpt lat="50.90558" lon="4.6843">
        <ele>29</ele>
      </trkpt>
      <trkpt lat="50.90552" lon="4.68428">
        <ele>29</ele>
      </trkpt>
      <trkpt lat="50.90549" lon="4.68436">
        <ele>29</ele>
      </trkpt>
      <trkpt lat="50.90548" lon="4.68435">
        <ele>29</ele>
      </trkpt>
      <trkpt lat="50.90549" lon="4.68436">
        <ele>29</ele>
      </trkpt>
      <trkpt lat="50.90554" lon="4.6842">
        <ele>29</ele>
      </trkpt>
      <trkpt lat="50.90549" lon="4.68411">
        <ele>29</ele>
      </trkpt>
      <trkpt lat="50.90552" lon="4.68392">
        <ele>30</ele>
      </trkpt>
      <trkpt lat="50.9055" lon="4.68202">
        <ele>30</ele>
      </trkpt>
      <trkpt lat="50.90551" lon="4.68173">
        <ele>29</ele>
      </trkpt>
      <trkpt lat="50.90578" lon="4.67982">
        <ele>28</ele>
      </trkpt>
      <trkpt lat="50.90606" lon="4.67762">
        <ele>28</ele>
      </trkpt>
      <trkpt lat="50.9061" lon="4.6772">
        <ele>29</ele>
      </trkpt>
      <trkpt lat="50.90611" lon="4.67657">
        <ele>29</ele>
      </trkpt>
      <trkpt lat="50.90607" lon="4.67389">
        <ele>30</ele>
      </trkpt>
      <trkpt lat="50.90613" lon="4.67351">
        <ele>30</ele>
      </trkpt>
      <trkpt lat="50.9065" lon="4.67201">
        <ele>30</ele>
      </trkpt>
      <trkpt lat="50.90654" lon="4.6718">
        <ele>29</ele>
      </trkpt>
      <trkpt lat="50.9066" lon="4.67094">
        <ele>30</ele>
      </trkpt>
      <trkpt lat="50.90659" lon="4.67058">
        <ele>30</ele>
      </trkpt>
      <trkpt lat="50.9065" lon="4.66982">
        <ele>30</ele>
      </trkpt>
      <trkpt lat="50.90652" lon="4.6695">
        <ele>30</ele>
      </trkpt>
      <trkpt lat="50.90647" lon="4.66944">
        <ele>30</ele>
      </trkpt>
      <trkpt lat="50.90644" lon="4.66934">
        <ele>30</ele>
      </trkpt>
      <trkpt lat="50.90636" lon="4.66888">
        <ele>30</ele>
      </trkpt>
      <trkpt lat="50.90623" lon="4.66748">
        <ele>30</ele>
      </trkpt>
      <trkpt lat="50.90604" lon="4.66575">
        <ele>32</ele>
      </trkpt>
      <trkpt lat="50.906" lon="4.66552">
        <ele>32</ele>
      </trkpt>
      <trkpt lat="50.90575" lon="4.66444">
        <ele>34</ele>
      </trkpt>
      <trkpt lat="50.9056" lon="4.66387">
        <ele>34</ele>
      </trkpt>
      <trkpt lat="50.90481" lon="4.66134">
        <ele>32</ele>
      </trkpt>
      <trkpt lat="50.90465" lon="4.66076">
        <ele>31</ele>
      </trkpt>
      <trkpt lat="50.90435" lon="4.65933">
        <ele>30</ele>
      </trkpt>
      <trkpt lat="50.9041" lon="4.65804">
        <ele>30</ele>
      </trkpt>
      <trkpt lat="50.90415" lon="4.65546">
        <ele>28</ele>
      </trkpt>
      <trkpt lat="50.90415" lon="4.65509">
        <ele>28</ele>
      </trkpt>
      <trkpt lat="50.90414" lon="4.65481">
        <ele>29</ele>
      </trkpt>
      <trkpt lat="50.90407" lon="4.65432">
        <ele>29</ele>
      </trkpt>
      <trkpt lat="50.90376" lon="4.6527">
        <ele>29</ele>
      </trkpt>
      <trkpt lat="50.90375" lon="4.65184">
        <ele>29</ele>
      </trkpt>
      <trkpt lat="50.90376" lon="4.65121">
        <ele>29</ele>
      </trkpt>
      <trkpt lat="50.90374" lon="4.651">
        <ele>29</ele>
      </trkpt>
      <trkpt lat="50.90307" lon="4.64849">
        <ele>30</ele>
      </trkpt>
      <trkpt lat="50.90305" lon="4.64833">
        <ele>30</ele>
      </trkpt>
      <trkpt lat="50.90303" lon="4.64793">
        <ele>30</ele>
      </trkpt>
      <trkpt lat="50.90308" lon="4.64608">
        <ele>30</ele>
      </trkpt>
      <trkpt lat="50.90304" lon="4.64609">
        <ele>30</ele>
      </trkpt>
      <trkpt lat="50.90298" lon="4.64604">
        <ele>30</ele>
      </trkpt>
      <trkpt lat="50.90296" lon="4.64594">
        <ele>30</ele>
      </trkpt>
      <trkpt lat="50.90297" lon="4.64589">
        <ele>30</ele>
      </trkpt>
      <trkpt lat="50.90301" lon="4.64582">
        <ele>30</ele>
      </trkpt>
      <trkpt lat="50.90308" lon="4.64582">
        <ele>30</ele>
      </trkpt>
      <trkpt lat="50.90309" lon="4.64567">
        <ele>31</ele>
      </trkpt>
      <trkpt lat="50.90306" lon="4.64515">
        <ele>31</ele>
      </trkpt>
      <trkpt lat="50.90302" lon="4.64459">
        <ele>31</ele>
      </trkpt>
      <trkpt lat="50.90298" lon="4.64432">
        <ele>31</ele>
      </trkpt>
      <trkpt lat="50.90295" lon="4.64414">
        <ele>31</ele>
      </trkpt>
      <trkpt lat="50.90287" lon="4.64388">
        <ele>31</ele>
      </trkpt>
      <trkpt lat="50.9026" lon="4.64315">
        <ele>30</ele>
      </trkpt>
      <trkpt lat="50.9023" lon="4.64209">
        <ele>30</ele>
      </trkpt>
      <trkpt lat="50.90222" lon="4.64174">
        <ele>30</ele>
      </trkpt>
      <trkpt lat="50.90215" lon="4.64136">
        <ele>30</ele>
      </trkpt>
      <trkpt lat="50.90205" lon="4.63963">
        <ele>30</ele>
      </trkpt>
      <trkpt lat="50.90199" lon="4.63897">
        <ele>29</ele>
      </trkpt>
      <trkpt lat="50.90188" lon="4.63835">
        <ele>29</ele>
      </trkpt>
      <trkpt lat="50.90089" lon="4.63506">
        <ele>30</ele>
      </trkpt>
      <trkpt lat="50.90078" lon="4.63456">
        <ele>30</ele>
      </trkpt>
      <trkpt lat="50.90073" lon="4.63424">
        <ele>30</ele>
      </trkpt>
      <trkpt lat="50.90057" lon="4.63222">
        <ele>32</ele>
      </trkpt>
      <trkpt lat="50.90059" lon="4.63202">
        <ele>32</ele>
      </trkpt>
      <trkpt lat="50.90166" lon="4.62692">
        <ele>30</ele>
      </trkpt>
      <trkpt lat="50.90171" lon="4.6266">
        <ele>30</ele>
      </trkpt>
      <trkpt lat="50.90171" lon="4.62646">
        <ele>31</ele>
      </trkpt>
      <trkpt lat="50.90169" lon="4.62634">
        <ele>31</ele>
      </trkpt>
      <trkpt lat="50.90172" lon="4.62619">
        <ele>31</ele>
      </trkpt>
      <trkpt lat="50.90168" lon="4.62576">
        <ele>31</ele>
      </trkpt>
      <trkpt lat="50.90166" lon="4.62542">
        <ele>31</ele>
      </trkpt>
      <trkpt lat="50.90163" lon="4.62533">
        <ele>31</ele>
      </trkpt>
      <trkpt lat="50.9016" lon="4.62496">
        <ele>31</ele>
      </trkpt>
      <trkpt lat="50.90152" lon="4.62418">
        <ele>30</ele>
      </trkpt>
      <trkpt lat="50.90152" lon="4.62407">
        <ele>30</ele>
      </trkpt>
      <trkpt lat="50.90146" lon="4.62381">
        <ele>30</ele>
      </trkpt>
      <trkpt lat="50.90141" lon="4.62375">
        <ele>31</ele>
      </trkpt>
      <trkpt lat="50.90135" lon="4.62348">
        <ele>30</ele>
      </trkpt>
      <trkpt lat="50.90134" lon="4.62334">
        <ele>30</ele>
      </trkpt>
      <trkpt lat="50.90123" lon="4.62295">
        <ele>30</ele>
      </trkpt>
      <trkpt lat="50.90122" lon="4.62287">
        <ele>30</ele>
      </trkpt>
      <trkpt lat="50.90126" lon="4.62264">
        <ele>30</ele>
      </trkpt>
      <trkpt lat="50.90119" lon="4.62249">
        <ele>30</ele>
      </trkpt>
      <trkpt lat="50.90116" lon="4.62233">
        <ele>30</ele>
      </trkpt>
      <trkpt lat="50.90083" lon="4.6201">
        <ele>30</ele>
      </trkpt>
      <trkpt lat="50.90061" lon="4.61899">
        <ele>30</ele>
      </trkpt>
      <trkpt lat="50.90032" lon="4.61771">
        <ele>30</ele>
      </trkpt>
      <trkpt lat="50.90022" lon="4.61739">
        <ele>30</ele>
      </trkpt>
      <trkpt lat="50.90013" lon="4.61722">
        <ele>31</ele>
      </trkpt>
      <trkpt lat="50.90001" lon="4.61706">
        <ele>31</ele>
      </trkpt>
      <trkpt lat="50.89987" lon="4.61695">
        <ele>31</ele>
      </trkpt>
      <trkpt lat="50.89885" lon="4.61652">
        <ele>31</ele>
      </trkpt>
      <trkpt lat="50.89864" lon="4.61633">
        <ele>31</ele>
      </trkpt>
      <trkpt lat="50.8985" lon="4.61613">
        <ele>31</ele>
      </trkpt>
      <trkpt lat="50.89807" lon="4.615">
        <ele>31</ele>
      </trkpt>
      <trkpt lat="50.89744" lon="4.61323">
        <ele>32</ele>
      </trkpt>
      <trkpt lat="50.89649" lon="4.61116">
        <ele>33</ele>
      </trkpt>
      <trkpt lat="50.89602" lon="4.61049">
        <ele>33</ele>
      </trkpt>
      <trkpt lat="50.89556" lon="4.60997">
        <ele>34</ele>
      </trkpt>
      <trkpt lat="50.89306" lon="4.60704">
        <ele>37</ele>
      </trkpt>
      <trkpt lat="50.8911" lon="4.60475">
        <ele>35</ele>
      </trkpt>
      <trkpt lat="50.88998" lon="4.60338">
        <ele>36</ele>
      </trkpt>
      <trkpt lat="50.88606" lon="4.59804">
        <ele>39</ele>
      </trkpt>
      <trkpt lat="50.88586" lon="4.59767">
        <ele>39</ele>
      </trkpt>
      <trkpt lat="50.88564" lon="4.59719">
        <ele>39</ele>
      </trkpt>
      <trkpt lat="50.88556" lon="4.59707">
        <ele>39</ele>
      </trkpt>
      <trkpt lat="50.88548" lon="4.59699">
        <ele>39</ele>
      </trkpt>
      <trkpt lat="50.88528" lon="4.59687">
        <ele>39</ele>
      </trkpt>
      <trkpt lat="50.88511" lon="4.59672">
        <ele>39</ele>
      </trkpt>
      <trkpt lat="50.88416" lon="4.59508">
        <ele>38</ele>
      </trkpt>
      <trkpt lat="50.88298" lon="4.59299">
        <ele>37</ele>
      </trkpt>
      <trkpt lat="50.8829" lon="4.5928">
        <ele>37</ele>
      </trkpt>
      <trkpt lat="50.88276" lon="4.59233">
        <ele>38</ele>
      </trkpt>
      <trkpt lat="50.88271" lon="4.59193">
        <ele>38</ele>
      </trkpt>
      <trkpt lat="50.88264" lon="4.59101">
        <ele>39</ele>
      </trkpt>
      <trkpt lat="50.88254" lon="4.59057">
        <ele>40</ele>
      </trkpt>
      <trkpt lat="50.88237" lon="4.59015">
        <ele>40</ele>
      </trkpt>
      <trkpt lat="50.88231" lon="4.59003">
        <ele>40</ele>
      </trkpt>
      <trkpt lat="50.88186" lon="4.58927">
        <ele>41</ele>
      </trkpt>
      <trkpt lat="50.88142" lon="4.58848">
        <ele>44</ele>
      </trkpt>
      <trkpt lat="50.88104" lon="4.58774">
        <ele>44</ele>
      </trkpt>
      <trkpt lat="50.88084" lon="4.58736">
        <ele>44</ele>
      </trkpt>
      <trkpt lat="50.88067" lon="4.58698">
        <ele>44</ele>
      </trkpt>
      <trkpt lat="50.87988" lon="4.58545">
        <ele>42</ele>
      </trkpt>
      <trkpt lat="50.87982" lon="4.58539">
        <ele>42</ele>
      </trkpt>
      <trkpt lat="50.8797" lon="4.58535">
        <ele>42</ele>
      </trkpt>
      <trkpt lat="50.87931" lon="4.58544">
        <ele>42</ele>
      </trkpt>
      <trkpt lat="50.87913" lon="4.58536">
        <ele>42</ele>
      </trkpt>
      <trkpt lat="50.8783" lon="4.58408">
        <ele>42</ele>
      </trkpt>
      <trkpt lat="50.87813" lon="4.5838">
        <ele>42</ele>
      </trkpt>
      <trkpt lat="50.8779" lon="4.58324">
        <ele>42</ele>
      </trkpt>
      <trkpt lat="50.87751" lon="4.58221">
        <ele>43</ele>
      </trkpt>
      <trkpt lat="50.87738" lon="4.58164">
        <ele>43</ele>
      </trkpt>
      <trkpt lat="50.87737" lon="4.58137">
        <ele>43</ele>
      </trkpt>
      <trkpt lat="50.87738" lon="4.58122">
        <ele>43</ele>
      </trkpt>
      <trkpt lat="50.87744" lon="4.58084">
        <ele>43</ele>
      </trkpt>
      <trkpt lat="50.87822" lon="4.57656">
        <ele>44</ele>
      </trkpt>
      <trkpt lat="50.87827" lon="4.57621">
        <ele>44</ele>
      </trkpt>
      <trkpt lat="50.87817" lon="4.57421">
        <ele>47</ele>
      </trkpt>
      <trkpt lat="50.87814" lon="4.57283">
        <ele>50</ele>
      </trkpt>
      <trkpt lat="50.87806" lon="4.57267">
        <ele>49</ele>
      </trkpt>
      <trkpt lat="50.87867" lon="4.57198">
        <ele>48</ele>
      </trkpt>
      <trkpt lat="50.87894" lon="4.57169">
        <ele>48</ele>
      </trkpt>
      <trkpt lat="50.87903" lon="4.5716">
        <ele>48</ele>
      </trkpt>
      <trkpt lat="50.87882" lon="4.57121">
        <ele>48</ele>
      </trkpt>
      <trkpt lat="50.87866" lon="4.57102">
        <ele>49</ele>
      </trkpt>
      <trkpt lat="50.87829" lon="4.57074">
        <ele>51</ele>
      </trkpt>
      <trkpt lat="50.87821" lon="4.57058">
        <ele>52</ele>
      </trkpt>
      <trkpt lat="50.8781" lon="4.57023">
        <ele>52</ele>
      </trkpt>
      <trkpt lat="50.87798" lon="4.56991">
        <ele>51</ele>
      </trkpt>
      <trkpt lat="50.87779" lon="4.5695">
        <ele>52</ele>
      </trkpt>
      <trkpt lat="50.87755" lon="4.56907">
        <ele>53</ele>
      </trkpt>
      <trkpt lat="50.87744" lon="4.56884">
        <ele>54</ele>
      </trkpt>
      <trkpt lat="50.87735" lon="4.56861">
        <ele>54</ele>
      </trkpt>
      <trkpt lat="50.87731" lon="4.56833">
        <ele>54</ele>
      </trkpt>
      <trkpt lat="50.87728" lon="4.56833">
        <ele>54</ele>
      </trkpt>
      <trkpt lat="50.87722" lon="4.56827">
        <ele>54</ele>
      </trkpt>
      <trkpt lat="50.87719" lon="4.56816">
        <ele>53</ele>
      </trkpt>
      <trkpt lat="50.87722" lon="4.56805">
        <ele>53</ele>
      </trkpt>
      <trkpt lat="50.8773" lon="4.568">
        <ele>53</ele>
      </trkpt>
      <trkpt lat="50.87737" lon="4.56806">
        <ele>53</ele>
      </trkpt>
      <trkpt lat="50.87739" lon="4.5681">
        <ele>53</ele>
      </trkpt>
      <trkpt lat="50.87784" lon="4.56786">
        <ele>50</ele>
      </trkpt>
      <trkpt lat="50.8779" lon="4.56781">
        <ele>50</ele>
      </trkpt>
      <trkpt lat="50.87886" lon="4.567">
        <ele>46</ele>
      </trkpt>
      <trkpt lat="50.88002" lon="4.56636">
        <ele>46</ele>
      </trkpt>
      <trkpt lat="50.88002" lon="4.5663">
        <ele>46</ele>
      </trkpt>
      <trkpt lat="50.88006" lon="4.56621">
        <ele>46</ele>
      </trkpt>
      <trkpt lat="50.88009" lon="4.56619">
        <ele>46</ele>
      </trkpt>
      <trkpt lat="50.88005" lon="4.56437">
        <ele>49</ele>
      </trkpt>
      <trkpt lat="50.88007" lon="4.56408">
        <ele>51</ele>
      </trkpt>
      <trkpt lat="50.88047" lon="4.56195">
        <ele>59</ele>
      </trkpt>
      <trkpt lat="50.88051" lon="4.56137">
        <ele>59</ele>
      </trkpt>
      <trkpt lat="50.88046" lon="4.5608">
        <ele>59</ele>
      </trkpt>
      <trkpt lat="50.87985" lon="4.55718">
        <ele>55</ele>
      </trkpt>
      <trkpt lat="50.87933" lon="4.55516">
        <ele>54</ele>
      </trkpt>
      <trkpt lat="50.87926" lon="4.5547">
        <ele>51</ele>
      </trkpt>
      <trkpt lat="50.87888" lon="4.5516">
        <ele>53</ele>
      </trkpt>
    </trkseg>
  </trk>
</gpx>